{"type": "FeatureCollection", "features": [{"type": "Feature", "properties": {"icao": "RKSI", "name": "INCHEON"}, "geometry": {"type": "Point", "coordinates": [126.4505, 37.4692]}}, {"type": "Feature", "properties": {"icao": "RKSS", "name": "GIMPO"}, "geometry": {"type": "Point", "coordinates": [126.7906, 37.5583]}}, {"type": "Feature", "properties": {"icao": "RKPC", "name": "JEJU"}, "geometry": {"type": "Point", "coordinates": [126.493, 33.5113]}}, {"type": "Feature", "properties": {"icao": "RKPK", "name": "GIMHAE"}, "geometry": {"type": "Point", "coordinates": [128.9382, 35.1795]}}, {"type": "Feature", "properties": {"icao": "RKTN", "name": "DAEGU"}, "geometry": {"type": "Point", "coordinates": [128.6589, 35.8941]}}, {"type": "Feature", "properties": {"icao": "RKTU", "name": "CHEONGJU"}, "geometry": {"type": "Point", "coordinates": [127.4991, 36.7166]}}, {"type": "Feature", "properties": {"icao": "RKJJ", "name": "GWANGJU"}, "geometry": {"type": "Point", "coordinates": [126.8109, 35.1264]}}, {"type": "Feature", "properties": {"icao": "RKJB", "name": "MUAN"}, "geometry": {"type": "Point", "coordinates": [126.3828, 34.9914]}}, {"type": "Feature", "properties": {"icao": "RKJY", "name": "YEOSU"}, "geometry": {"type": "Point", "coordinates": [127.6157, 34.8423]}}, {"type": "Feature", "properties": {"icao": "RKPU", "name": "ULSAN"}, "geometry": {"type": "Point", "coordinates": [129.3517, 35.5935]}}, {"type": "Feature", "properties": {"icao": "RKTH", "name": "POHANG-GYEONGJU"}, "geometry": {"type": "Point", "coordinates": [129.4202, 35.9878]}}, {"type": "Feature", "properties": {"icao": "RKPS", "name": "SACHEON"}, "geometry": {"type": "Point", "coordinates": [128.0704, 35.0886]}}, {"type": "Feature", "properties": {"icao": "RKNY", "name": "YANGYANG"}, "geometry": {"type": "Point", "coordinates": [128.669, 38.0613]}}, {"type": "Feature", "properties": {"icao": "RKNW", "name": "WONJU"}, "geometry": {"type": "Point", "coordinates": [127.96, 37.4381]}}, {"type": "Feature", "properties": {"icao": "RKJK", "name": "GUNSAN"}, "geometry": {"type": "Point", "coordinates": [126.6158, 35.9038]}}]}