{"type": "FeatureCollection", "features": [{"type": "Feature", "properties": {"id": "L512", "type": "RNAV2", "dir": "both", "fixes": ["TENAS", "SABET", "ANDOL(FIR BDRY)"]}, "geometry": {"type": "LineString", "coordinates": [[131.574167, 37.638889], [132.671944, 37.641389], [133.0, 37.666111]]}}, {"type": "Feature", "properties": {"id": "Y233", "type": "RNAV 2", "dir": "both", "fixes": ["BUSKO", "SELPA", "ONATA", "KANSU(FIR BDRY)"]}, "geometry": {"type": "LineString", "coordinates": [[130.269444, 37.675833], [130.819722, 37.920833], [132.100556, 38.475556], [132.475, 38.633333]]}}, {"type": "Feature", "properties": {"id": "Y253", "type": "RNAV 2", "dir": "both", "fixes": ["DALSU", "KWA", "SAMUL", "TEDAN", "ANUBA", "SAPDI", "SARAM", "ANKUS", "PSN"]}, "geometry": {"type": "LineString", "coordinates": [[126.701667, 35.125278], [126.812222, 35.126111], [126.865, 35.126667], [127.314444, 35.128889], [127.589722, 35.129444], [128.497778, 35.126944], [128.529722, 35.126667], [128.771111, 35.125], [128.999444, 35.1225]]}}, {"type": "Feature", "properties": {"id": "Y644", "type": "RNAV2", "dir": "fwd", "fixes": ["AGAVO(FIR BDRY)", "RILRO", "GONAV", "BODOL", "REBIT", "BELTU", "BOGAN", "MONSI", "POLEG", "EGOBA"]}, "geometry": {"type": "LineString", "coordinates": [[124.0, 37.166667], [124.245, 37.175833], [124.414722, 37.18], [124.831667, 37.189444], [125.486944, 37.200833], [125.799722, 37.205], [126.47, 37.211389], [126.8375, 37.213056], [126.993056, 37.213611], [127.379444, 37.4875]]}}, {"type": "Feature", "properties": {"id": "Y655", "type": "RNAV2", "dir": "both", "fixes": ["GONAV", "DALPO", "NONOS", "BIDRI", "DANPA", "PALSA", "TOLIS", "ENSUM", "BONSO", "ATOTI(FIR BDRY)"]}, "geometry": {"type": "LineString", "coordinates": [[124.414722, 37.18], [124.414722, 36.976389], [124.414722, 36.679444], [124.414722, 36.335278], [124.414722, 35.51], [124.414722, 34.025278], [124.414722, 33.841667], [124.776389, 32.217222], [125.1475, 30.477778], [125.198333, 30.003611]]}}, {"type": "Feature", "properties": {"id": "Y657", "type": "RNAV 2", "dir": "both", "fixes": ["KWA", "IGDOK", "TGU"]}, "geometry": {"type": "LineString", "coordinates": [[126.812222, 35.126111], [127.818611, 35.517778], [128.590833, 35.809722]]}}, {"type": "Feature", "properties": {"id": "Y659", "type": "RNAV 2", "dir": "both", "fixes": ["KUZ", "ELPOS", "RINBO", "MELES", "OPEDA", "TGU", "LAPAL", "KPO"]}, "geometry": {"type": "LineString", "coordinates": [[126.611389, 35.910278], [126.785278, 35.902778], [126.896944, 35.897778], [127.261667, 35.880833], [127.614444, 35.863611], [128.590833, 35.809722], [129.081111, 35.903611], [129.474444, 35.977222]]}}, {"type": "Feature", "properties": {"id": "Y677", "type": "RNAV2", "dir": "both", "fixes": ["TOLIS", "LIMDI", "REMOS", "CJU", "TAMNA", "SAMDO(FIR BDRY)"]}, "geometry": {"type": "LineString", "coordinates": [[124.414722, 33.841667], [125.831389, 33.553611], [126.391389, 33.434722], [126.624167, 33.384722], [127.331389, 33.470833], [128.315833, 33.584167]]}}, {"type": "Feature", "properties": {"id": "Y685", "type": "RNAV 2", "dir": "both", "fixes": ["SEL", "KALMA", "KAKSO", "GUKDO", "ENSAL", "BASEM", "BIGOB", "CUN", "ELAPI", "KPO", "BULGA", "SAPRA"]}, "geometry": {"type": "LineString", "coordinates": [[126.928333, 37.413611], [127.1125, 37.3125], [127.443611, 37.129167], [127.639722, 37.019722], [127.796389, 36.931667], [127.952778, 36.843611], [128.164444, 36.723611], [128.325278, 36.631944], [128.8475, 36.337222], [129.474444, 35.977222], [129.823333, 35.935833], [130.723611, 35.823889]]}}, {"type": "Feature", "properties": {"id": "Y697", "type": "RNAV 2", "dir": "both", "fixes": ["AGAVO(FIR BDRY)", "OLBIM", "NOGON", "ANSIM", "BINIL", "NOPIK", "GOGET", "SEL", "EGOBA", "KARBU", "TORUS", "BIKSI", "KAE", "PILIT", "ESNEG", "AGSUS", "LANAT(FIR BDRY)"]}, "geometry": {"type": "LineString", "coordinates": [[124.0, 37.166667], [124.130833, 37.236389], [124.418056, 37.380556], [124.835833, 37.389722], [125.233056, 37.396944], [125.651389, 37.403333], [126.51, 37.411667], [126.928333, 37.413611], [127.379444, 37.4875], [127.664444, 37.533056], [128.135278, 37.606944], [128.584444, 37.675556], [128.753889, 37.700833], [129.291944, 37.441944], [129.8475, 37.170556], [130.678889, 36.755833], [131.428333, 36.373333]]}}, {"type": "Feature", "properties": {"id": "Y711", "type": "RNAV 2", "dir": "fwd", "fixes": ["MONSI", "BULTI", "MEKIL", "GONAX", "BEDES", "ELPOS", "MANGI", "DALSU", "NULDI", "DOTOL", "KIDOS", "REMOS", "PANSI", "DOMKO", "PONIK", "IKEDO", "KANKA", "BONSO", "MUGUS"]}, "geometry": {"type": "LineString", "coordinates": [[126.8375, 37.213056], [126.825, 36.722778], [126.831389, 36.556111], [126.837778, 36.386389], [126.812222, 36.151389], [126.785278, 35.902778], [126.742222, 35.503056], [126.701667, 35.125278], [126.6275, 34.420556], [126.610278, 34.254167], [126.567222, 33.841111], [126.391389, 33.434722], [126.206944, 33.003889], [125.983056, 32.48], [125.783056, 32.005833], [125.663333, 31.720556], [125.584444, 31.531944], [125.1475, 30.477778], [124.953333, 30.001667]]}}, {"type": "Feature", "properties": {"id": "Y722", "type": "RNAV 2", "dir": "rev", "fixes": ["SOT", "OLMEN", "GUNKU", "PEBRI", "ATASO", "MAKSA", "SAMUL", "KAMIT", "GUKSU", "LOSNI", "CJU", "SOSDO", "SAMLO", "NIRAT", "ELGEP", "TESIM", "ATOTI(FIR BDRY)"]}, "geometry": {"type": "LineString", "coordinates": [[127.031667, 37.094444], [126.991111, 36.736944], [126.996944, 36.570556], [127.003611, 36.386389], [126.949167, 35.895556], [126.906111, 35.503056], [126.865, 35.126667], [126.771667, 34.253889], [126.7325, 33.880833], [126.698056, 33.554167], [126.624167, 33.384722], [126.459722, 33.003333], [126.26, 32.539722], [126.058056, 32.065], [125.938056, 31.781389], [125.857778, 31.590556], [125.198333, 30.003611]]}}, {"type": "Feature", "properties": {"id": "Y744", "type": "RNAV 2", "dir": "both", "fixes": ["PILIT", "NOBUT", "OSVOM", "LOSTO", "KPO", "APARU", "PSN"]}, "geometry": {"type": "LineString", "coordinates": [[129.291944, 37.441944], [129.3325, 37.120833], [129.391944, 36.645556], [129.43, 36.337778], [129.474444, 35.977222], [129.158889, 35.411667], [128.999444, 35.1225]]}}, {"type": "Feature", "properties": {"id": "Y781", "type": "RNAV 2", "dir": "fwd", "fixes": ["TGU", "MASTA", "ANKUS", "OMOTU", "BESNA(FIR BDRY)"]}, "geometry": {"type": "LineString", "coordinates": [[128.590833, 35.809722], [128.561111, 35.479722], [128.771111, 35.125], [128.839444, 35.009167], [129.130833, 34.621667]]}}, {"type": "Feature", "properties": {"id": "Y782", "type": "RNAV 2", "dir": "both", "fixes": ["SEL", "POLEG", "SOT", "OSPOT", "VASLI", "MAKDU", "BITUX", "TGU", "KALOD", "PSN", "APELA"]}, "geometry": {"type": "LineString", "coordinates": [[126.928333, 37.413611], [126.993056, 37.213611], [127.031667, 37.094444], [127.348611, 36.838333], [127.500833, 36.714444], [127.819167, 36.453333], [128.03, 36.279167], [128.590833, 35.809722], [128.773889, 35.503333], [128.999444, 35.1225], [129.233333, 34.723056]]}}, {"type": "Feature", "properties": {"id": "Z50", "type": "RNAV 2", "dir": "both", "fixes": ["EGOBA", "SOT", "BULTI"]}, "geometry": {"type": "LineString", "coordinates": [[127.379444, 37.4875], [127.031667, 37.094444], [126.825, 36.722778]]}}, {"type": "Feature", "properties": {"id": "Y437", "type": "RNAV2", "dir": "both", "fixes": ["KAE", "LESBU", "UGOVI", "BUSKO", "TENAS", "MALSO", "KANSU(FIR BDRY)"]}, "geometry": {"type": "LineString", "coordinates": [[128.753889, 37.700833], [129.684444, 37.687778], [129.8475, 37.684722], [130.269444, 37.675833], [131.574167, 37.638889], [131.817778, 37.911111], [132.475, 38.633333]]}}, {"type": "Feature", "properties": {"id": "Y571", "type": "RNAV2", "dir": "fwd", "fixes": ["SOSDO", "OMKIM", "PAPLU", "AKPON", "NISAV", "ANROD", "POVEM", "PSN"]}, "geometry": {"type": "LineString", "coordinates": [[126.459722, 33.003333], [126.687222, 33.222222], [127.060278, 33.578056], [127.331389, 33.780556], [127.976389, 34.255278], [128.497778, 34.632778], [128.904444, 34.923056], [128.999444, 35.1225]]}}, {"type": "Feature", "properties": {"id": "Y572", "type": "RNAV2", "dir": "both", "fixes": ["PSN", "OLMUD", "ENGOT", "POVOR", "UPGOS", "BILUM", "BEPKO", "CJU", "OMKIM", "TOSAN", "RUGMA(FIR BDRY)"]}, "geometry": {"type": "LineString", "coordinates": [[128.999444, 35.1225], [128.821111, 35.040278], [128.497778, 34.809444], [127.733333, 34.255556], [127.331389, 33.959167], [127.0775, 33.770278], [126.920556, 33.652778], [126.624167, 33.384722], [126.687222, 33.222222], [126.771944, 33.003333], [126.964722, 32.503333]]}}, {"type": "Feature", "properties": {"id": "Y579", "type": "RNAV2", "dir": "both", "fixes": ["TENAS", "AGSUS", "DABIK", "BULGA", "BEDOM", "PSN"]}, "geometry": {"type": "LineString", "coordinates": [[131.574167, 37.638889], [130.678889, 36.755833], [130.195278, 36.295278], [129.823333, 35.935833], [129.298333, 35.420278], [128.999444, 35.1225]]}}, {"type": "Feature", "properties": {"id": "Z51", "type": "RNAV 2", "dir": "fwd", "fixes": ["BOPTA", "MOXID", "BEDES"]}, "geometry": {"type": "LineString", "coordinates": [[126.616111, 36.735], [126.733056, 36.386389], [126.812222, 36.151389]]}}, {"type": "Feature", "properties": {"id": "Z52", "type": "RNAV 2", "dir": "both", "fixes": ["OLMEN", "POSAN", "KAKSO"]}, "geometry": {"type": "LineString", "coordinates": [[126.991111, 36.736944], [127.221111, 36.9375], [127.443611, 37.129167]]}}, {"type": "Feature", "properties": {"id": "Z53", "type": "RNAV2", "dir": "both", "fixes": ["BITUX", "TEBEX", "BASEM"]}, "geometry": {"type": "LineString", "coordinates": [[128.03, 36.279167], [127.991389, 36.561389], [127.952778, 36.843611]]}}, {"type": "Feature", "properties": {"id": "Z54", "type": "RNAV 2", "dir": "both", "fixes": ["SOT", "MONSI", "GOGET"]}, "geometry": {"type": "LineString", "coordinates": [[127.031667, 37.094444], [126.8375, 37.213056], [126.51, 37.411667]]}}, {"type": "Feature", "properties": {"id": "Z55", "type": "RNAV2", "dir": "rev", "fixes": ["AGAVO", "NONOS"]}, "geometry": {"type": "LineString", "coordinates": [[124.0, 37.166667], [124.414722, 36.679444]]}}, {"type": "Feature", "properties": {"id": "Z56", "type": "RNAV2", "dir": "both", "fixes": ["KANSU(FIR BDRY)", "PALDU", "SABET", "IGRAS(FIR BDRY)"]}, "geometry": {"type": "LineString", "coordinates": [[132.475, 38.633333], [132.606944, 37.970278], [132.671944, 37.641389], [132.736389, 37.312778]]}}, {"type": "Feature", "properties": {"id": "Z57", "type": "RNAV2", "dir": "fwd", "fixes": ["RILRO", "DALPO"]}, "geometry": {"type": "LineString", "coordinates": [[124.245, 37.175833], [124.414722, 36.976389]]}}, {"type": "Feature", "properties": {"id": "Z63", "type": "RNAV2", "dir": "both", "fixes": ["PILIT", "LESBU"]}, "geometry": {"type": "LineString", "coordinates": [[129.291944, 37.441944], [129.684444, 37.687778]]}}, {"type": "Feature", "properties": {"id": "Z81", "type": "RNAV 2", "dir": "fwd", "fixes": ["KIDOS", "CJU"]}, "geometry": {"type": "LineString", "coordinates": [[126.567222, 33.841111], [126.624167, 33.384722]]}}, {"type": "Feature", "properties": {"id": "Z82", "type": "RNAV2", "dir": "both", "fixes": ["CJU", "PANSI"]}, "geometry": {"type": "LineString", "coordinates": [[126.624167, 33.384722], [126.206944, 33.003889]]}}, {"type": "Feature", "properties": {"id": "Z83", "type": "RNAV 2", "dir": "both", "fixes": ["TGU", "MASTA", "SARAM", "ENGOT", "ANROD"]}, "geometry": {"type": "LineString", "coordinates": [[128.590833, 35.809722], [128.561111, 35.479722], [128.529722, 35.126667], [128.497778, 34.809444], [128.497778, 34.632778]]}}, {"type": "Feature", "properties": {"id": "Z84", "type": "RNAV 2", "dir": "both", "fixes": ["PSN", "KALEK(FIR BDRY)"]}, "geometry": {"type": "LineString", "coordinates": [[128.999444, 35.1225], [129.884722, 35.208889]]}}, {"type": "Feature", "properties": {"id": "Z85", "type": "RNAV2", "dir": "both", "fixes": ["BILUM", "PAPLU", "RUGMA(FIR BDRY)"]}, "geometry": {"type": "LineString", "coordinates": [[127.0775, 33.770278], [127.060278, 33.578056], [126.964722, 32.503333]]}}, {"type": "Feature", "properties": {"id": "Z86", "type": "RNAV2", "dir": "fwd", "fixes": ["BONSO", "ATOTI(FIR BDRY)"]}, "geometry": {"type": "LineString", "coordinates": [[125.1475, 30.477778], [125.198333, 30.003611]]}}, {"type": "Feature", "properties": {"id": "Z91", "type": "RNAV 2", "dir": "both", "fixes": ["PSN", "INVOK(FIR BDRY)"]}, "geometry": {"type": "LineString", "coordinates": [[128.999444, 35.1225], [129.323056, 34.788611]]}}, {"type": "Feature", "properties": {"id": "Y590", "type": "RNAV 2", "dir": "fwd", "fixes": ["BEDAR(FIR BDRY)", "ELGEP", "IKEDO", "SADLI"]}, "geometry": {"type": "LineString", "coordinates": [[126.486111, 31.900278], [125.938056, 31.781389], [125.663333, 31.720556], [125.0, 31.83]]}}, {"type": "Feature", "properties": {"id": "A582", "type": "", "dir": "both", "fixes": ["SEL", "POLEG", "SOT", "OSPOT", "VASLI", "MAKDU", "BITUX", "TGU", "KALOD", "PSN", "APELA"]}, "geometry": {"type": "LineString", "coordinates": [[126.928333, 37.413611], [126.993056, 37.213611], [127.031667, 37.094444], [127.348611, 36.838333], [127.500833, 36.714444], [127.819167, 36.453333], [128.03, 36.279167], [128.590833, 35.809722], [128.773889, 35.503333], [128.999444, 35.1225], [129.233333, 34.723056]]}}, {"type": "Feature", "properties": {"id": "A586*", "type": "", "dir": "both", "fixes": ["TENAS", "AGSUS", "DABIK", "BULGA", "BEDOM", "PSN", "OMOTU", "TOPAX", "GOSBO", "MAKET", "ATINA", "MANOL", "CJU", "TOSAN", "RUGMA(FIR BDRY)"]}, "geometry": {"type": "LineString", "coordinates": [[131.574167, 37.638889], [130.678889, 36.755833], [130.195278, 36.295278], [129.823333, 35.935833], [129.298333, 35.420278], [128.999444, 35.1225], [128.839444, 35.009167], [128.497778, 34.765278], [127.792778, 34.254722], [127.331389, 33.914444], [127.073056, 33.722222], [126.920556, 33.608056], [126.624167, 33.384722], [126.771944, 33.003333], [126.964722, 32.503333]]}}, {"type": "Feature", "properties": {"id": "A593", "type": "", "dir": "fwd", "fixes": ["ONIKU", "NIRAT", "PONIK", "SADLI", "LAMEN"]}, "geometry": {"type": "LineString", "coordinates": [[126.654722, 32.195], [126.058056, 32.065], [125.783056, 32.005833], [125.0, 31.83], [124.0, 31.61]]}}, {"type": "Feature", "properties": {"id": "A595", "type": "", "dir": "both", "fixes": ["CJU", "TAMNA", "SAMDO(FIR BDRY)"]}, "geometry": {"type": "LineString", "coordinates": [[126.624167, 33.384722], [127.331389, 33.470833], [128.315833, 33.584167]]}}, {"type": "Feature", "properties": {"id": "B332", "type": "", "dir": "both", "fixes": ["KANSU(FIR BDRY)", "PALDU", "SABET", "IGRAS(FIR BDRY)"]}, "geometry": {"type": "LineString", "coordinates": [[132.475, 38.633333], [132.606944, 37.970278], [132.671944, 37.641389], [132.736389, 37.312778]]}}, {"type": "Feature", "properties": {"id": "B467", "type": "", "dir": "both", "fixes": ["KAE", "LESBU", "UGOVI", "BUSKO", "TENAS", "MALSO", "KANSU(FIR BDRY)"]}, "geometry": {"type": "LineString", "coordinates": [[128.753889, 37.700833], [129.684444, 37.687778], [129.8475, 37.684722], [130.269444, 37.675833], [131.574167, 37.638889], [131.817778, 37.911111], [132.475, 38.633333]]}}, {"type": "Feature", "properties": {"id": "B576*", "type": "", "dir": "both", "fixes": ["SEL", "POLEG", "SOT", "OLMEN", "ENTEL", "RINBO", "LINTA", "KWA", "IPDAS", "CJU", "SOSDO", "SAMLO", "NIRAT", "ELGEP", "TESIM", "ATOTI(FIR BDRY)"]}, "geometry": {"type": "LineString", "coordinates": [[126.928333, 37.413611], [126.993056, 37.213611], [127.031667, 37.094444], [126.991111, 36.736944], [126.951389, 36.386389], [126.896944, 35.897778], [126.855278, 35.521111], [126.812222, 35.126111], [126.716944, 34.254167], [126.624167, 33.384722], [126.459722, 33.003333], [126.26, 32.539722], [126.058056, 32.065], [125.938056, 31.781389], [125.857778, 31.590556], [125.198333, 30.003611]]}}, {"type": "Feature", "properties": {"id": "G339", "type": "", "dir": "both", "fixes": ["PSN", "INVOK(FIR BDRY)"]}, "geometry": {"type": "LineString", "coordinates": [[128.999444, 35.1225], [129.323056, 34.788611]]}}, {"type": "Feature", "properties": {"id": "G585", "type": "", "dir": "both", "fixes": ["SEL", "KALMA", "KAKSO", "GUKDO", "ENSAL", "BASEM", "BIGOB", "CUN", "ELAPI", "KPO", "BULGA", "SAPRA"]}, "geometry": {"type": "LineString", "coordinates": [[126.928333, 37.413611], [127.1125, 37.3125], [127.443611, 37.129167], [127.639722, 37.019722], [127.796389, 36.931667], [127.952778, 36.843611], [128.164444, 36.723611], [128.325278, 36.631944], [128.8475, 36.337222], [129.474444, 35.977222], [129.823333, 35.935833], [130.723611, 35.823889]]}}, {"type": "Feature", "properties": {"id": "G597", "type": "", "dir": "both", "fixes": ["AGAVO(FIR BDRY)", "GONAV", "DANTI", "ANSIM", "BINIL", "NOPIK", "GOGET", "SEL", "EGOBA", "KARBU", "TORUS", "BIKSI", "KAE", "PILIT", "ESNEG", "AGSUS", "LANAT(FIR BDRY)"]}, "geometry": {"type": "LineString", "coordinates": [[124.0, 37.166667], [124.414722, 37.18], [124.658056, 37.301667], [124.835833, 37.389722], [125.233056, 37.396944], [125.651389, 37.403333], [126.51, 37.411667], [126.928333, 37.413611], [127.379444, 37.4875], [127.664444, 37.533056], [128.135278, 37.606944], [128.584444, 37.675556], [128.753889, 37.700833], [129.291944, 37.441944], [129.8475, 37.170556], [130.678889, 36.755833], [131.428333, 36.373333]]}}, {"type": "Feature", "properties": {"id": "V11", "type": "", "dir": "both", "fixes": ["PILIT", "NOBUT", "OSVOM", "LOSTO", "KPO", "APARU", "PSN"]}, "geometry": {"type": "LineString", "coordinates": [[129.291944, 37.441944], [129.3325, 37.120833], [129.391944, 36.645556], [129.43, 36.337778], [129.474444, 35.977222], [129.158889, 35.411667], [128.999444, 35.1225]]}}, {"type": "Feature", "properties": {"id": "V543", "type": "", "dir": "both", "fixes": ["DALSU", "KWA", "SAMUL", "TEDAN", "ANUBA", "SAPDI", "SARAM", "ANKUS", "PSN"]}, "geometry": {"type": "LineString", "coordinates": [[126.701667, 35.125278], [126.812222, 35.126111], [126.865, 35.126667], [127.314444, 35.128889], [127.589722, 35.129444], [128.497778, 35.126944], [128.529722, 35.126667], [128.771111, 35.125], [128.999444, 35.1225]]}}, {"type": "Feature", "properties": {"id": "V547", "type": "", "dir": "both", "fixes": ["KWA", "IGDOK", "TGU"]}, "geometry": {"type": "LineString", "coordinates": [[126.812222, 35.126111], [127.818611, 35.517778], [128.590833, 35.809722]]}}, {"type": "Feature", "properties": {"id": "V549", "type": "", "dir": "both", "fixes": ["KUZ", "ELPOS", "RINBO", "MELES", "OPEDA", "TGU", "LAPAL", "KPO"]}, "geometry": {"type": "LineString", "coordinates": [[126.611389, 35.910278], [126.785278, 35.902778], [126.896944, 35.897778], [127.261667, 35.880833], [127.614444, 35.863611], [128.590833, 35.809722], [129.081111, 35.903611], [129.474444, 35.977222]]}}, {"type": "Feature", "properties": {"id": "W45", "type": "", "dir": "both", "fixes": ["KWJ", "RIMPO", "RUNIT", "PSN"]}, "geometry": {"type": "LineString", "coordinates": [[126.802778, 35.123056], [127.583889, 35.1275], [128.497778, 35.126111], [128.999444, 35.1225]]}}, {"type": "Feature", "properties": {"id": "W61", "type": "", "dir": "both", "fixes": ["SOT", "MONSI", "GOGET"]}, "geometry": {"type": "LineString", "coordinates": [[127.031667, 37.094444], [126.8375, 37.213056], [126.51, 37.411667]]}}, {"type": "Feature", "properties": {"id": "W62", "type": "", "dir": "both", "fixes": ["SOT", "EGOBA"]}, "geometry": {"type": "LineString", "coordinates": [[127.031667, 37.094444], [127.379444, 37.4875]]}}, {"type": "Feature", "properties": {"id": "W526", "type": "", "dir": "both", "fixes": ["TGU", "MASTA", "SARAM", "TOPAX"]}, "geometry": {"type": "LineString", "coordinates": [[128.590833, 35.809722], [128.561111, 35.479722], [128.529722, 35.126667], [128.497778, 34.765278]]}}]}