{"type": "FeatureCollection", "features": [{"type": "Feature", "properties": {"level": 1, "name": "제주특별자치도", "name_eng": "Jeju-do"}, "geometry": {"type": "Point", "coordinates": [126.56992, 33.38021]}}, {"type": "Feature", "properties": {"level": 1, "name": "경상남도", "name_eng": "Gyeongsangnam-do"}, "geometry": {"type": "Point", "coordinates": [128.3217, 35.29825]}}, {"type": "Feature", "properties": {"level": 1, "name": "경상북도", "name_eng": "Gyeongsangbuk-do"}, "geometry": {"type": "Point", "coordinates": [128.6548, 36.2471]}}, {"type": "Feature", "properties": {"level": 1, "name": "전라남도", "name_eng": "Jeollanam-do"}, "geometry": {"type": "Point", "coordinates": [126.90998, 34.86352]}}, {"type": "Feature", "properties": {"level": 1, "name": "전라북도", "name_eng": "Jeollabuk-do"}, "geometry": {"type": "Point", "coordinates": [127.0952, 35.70836]}}, {"type": "Feature", "properties": {"level": 1, "name": "충청남도", "name_eng": "Chungcheongnam-do"}, "geometry": {"type": "Point", "coordinates": [126.83359, 36.53574]}}, {"type": "Feature", "properties": {"level": 1, "name": "충청북도", "name_eng": "Chungcheongbuk-do"}, "geometry": {"type": "Point", "coordinates": [127.86603, 36.71411]}}, {"type": "Feature", "properties": {"level": 1, "name": "강원도", "name_eng": "Gangwon-do"}, "geometry": {"type": "Point", "coordinates": [128.1684, 37.69707]}}, {"type": "Feature", "properties": {"level": 1, "name": "경기도", "name_eng": "Gyeonggi-do"}, "geometry": {"type": "Point", "coordinates": [127.09054, 37.57608]}}, {"type": "Feature", "properties": {"level": 1, "name": "세종특별자치시", "name_eng": "Sejongsi"}, "geometry": {"type": "Point", "coordinates": [127.26705, 36.56497]}}, {"type": "Feature", "properties": {"level": 1, "name": "울산광역시", "name_eng": "Ulsan"}, "geometry": {"type": "Point", "coordinates": [129.23163, 35.54429]}}, {"type": "Feature", "properties": {"level": 1, "name": "대전광역시", "name_eng": "Daejeon"}, "geometry": {"type": "Point", "coordinates": [127.39833, 36.33817]}}, {"type": "Feature", "properties": {"level": 1, "name": "광주광역시", "name_eng": "Gwangju"}, "geometry": {"type": "Point", "coordinates": [126.82678, 35.1579]}}, {"type": "Feature", "properties": {"level": 1, "name": "인천광역시", "name_eng": "Incheon"}, "geometry": {"type": "Point", "coordinates": [126.68136, 37.49894]}}, {"type": "Feature", "properties": {"level": 1, "name": "대구광역시", "name_eng": "Daegu"}, "geometry": {"type": "Point", "coordinates": [128.53795, 35.80182]}}, {"type": "Feature", "properties": {"level": 1, "name": "부산광역시", "name_eng": "Busan"}, "geometry": {"type": "Point", "coordinates": [129.03572, 35.1712]}}, {"type": "Feature", "properties": {"level": 1, "name": "서울특별시", "name_eng": "Seoul"}, "geometry": {"type": "Point", "coordinates": [126.98898, 37.55182]}}, {"type": "Feature", "properties": {"level": 2, "name": "서귀포시", "name_eng": "Seogwipo-si"}, "geometry": {"type": "Point", "coordinates": [126.55473, 33.31597]}}, {"type": "Feature", "properties": {"level": 2, "name": "제주시", "name_eng": "Jeju-si"}, "geometry": {"type": "Point", "coordinates": [126.53522, 33.4345]}}, {"type": "Feature", "properties": {"level": 2, "name": "합천군", "name_eng": "Hapcheon-gun"}, "geometry": {"type": "Point", "coordinates": [128.16477, 35.59242]}}, {"type": "Feature", "properties": {"level": 2, "name": "거창군", "name_eng": "Geochang-gun"}, "geometry": {"type": "Point", "coordinates": [127.90863, 35.73221]}}, {"type": "Feature", "properties": {"level": 2, "name": "함양군", "name_eng": "Hamyang-gun"}, "geometry": {"type": "Point", "coordinates": [127.71675, 35.5463]}}, {"type": "Feature", "properties": {"level": 2, "name": "산청군", "name_eng": "Sancheong-gun"}, "geometry": {"type": "Point", "coordinates": [127.8964, 35.36029]}}, {"type": "Feature", "properties": {"level": 2, "name": "하동군", "name_eng": "Hadong-gun"}, "geometry": {"type": "Point", "coordinates": [127.77392, 35.14416]}}, {"type": "Feature", "properties": {"level": 2, "name": "남해군", "name_eng": "Namhae-gun"}, "geometry": {"type": "Point", "coordinates": [127.9255, 34.80817]}}, {"type": "Feature", "properties": {"level": 2, "name": "고성군", "name_eng": "Goseong-gun"}, "geometry": {"type": "Point", "coordinates": [128.31514, 35.01031]}}, {"type": "Feature", "properties": {"level": 2, "name": "창녕군", "name_eng": "Changnyeong-gun"}, "geometry": {"type": "Point", "coordinates": [128.49209, 35.50797]}}, {"type": "Feature", "properties": {"level": 2, "name": "함안군", "name_eng": "Haman-gun"}, "geometry": {"type": "Point", "coordinates": [128.44237, 35.29279]}}, {"type": "Feature", "properties": {"level": 2, "name": "의령군", "name_eng": "Uiryeong-gun"}, "geometry": {"type": "Point", "coordinates": [128.28479, 35.38103]}}, {"type": "Feature", "properties": {"level": 2, "name": "창원시진해구", "name_eng": "Jinhaegu"}, "geometry": {"type": "Point", "coordinates": [128.73835, 35.13295]}}, {"type": "Feature", "properties": {"level": 2, "name": "창원시마산회원구", "name_eng": "Masanhoewongu"}, "geometry": {"type": "Point", "coordinates": [128.54606, 35.22665]}}, {"type": "Feature", "properties": {"level": 2, "name": "창원시마산합포구", "name_eng": "Masanhappogu"}, "geometry": {"type": "Point", "coordinates": [128.49262, 35.12543]}}, {"type": "Feature", "properties": {"level": 2, "name": "창원시성산구", "name_eng": "Seongsangu"}, "geometry": {"type": "Point", "coordinates": [128.67395, 35.19492]}}, {"type": "Feature", "properties": {"level": 2, "name": "창원시의창구", "name_eng": "Uichanggu"}, "geometry": {"type": "Point", "coordinates": [128.64856, 35.3017]}}, {"type": "Feature", "properties": {"level": 2, "name": "양산시", "name_eng": "Yangsan-si"}, "geometry": {"type": "Point", "coordinates": [129.04349, 35.39267]}}, {"type": "Feature", "properties": {"level": 2, "name": "거제시", "name_eng": "Geoje-si"}, "geometry": {"type": "Point", "coordinates": [128.6284, 34.87085]}}, {"type": "Feature", "properties": {"level": 2, "name": "밀양시", "name_eng": "Miryang-si"}, "geometry": {"type": "Point", "coordinates": [128.80079, 35.50093]}}, {"type": "Feature", "properties": {"level": 2, "name": "김해시", "name_eng": "Gimhae-si"}, "geometry": {"type": "Point", "coordinates": [128.84232, 35.26895]}}, {"type": "Feature", "properties": {"level": 2, "name": "사천시", "name_eng": "Sacheon-si"}, "geometry": {"type": "Point", "coordinates": [128.04455, 35.03757]}}, {"type": "Feature", "properties": {"level": 2, "name": "통영시", "name_eng": "Tongyeong-si"}, "geometry": {"type": "Point", "coordinates": [128.40393, 34.87407]}}, {"type": "Feature", "properties": {"level": 2, "name": "진주시", "name_eng": "Jinju-si"}, "geometry": {"type": "Point", "coordinates": [128.13328, 35.18993]}}, {"type": "Feature", "properties": {"level": 2, "name": "울릉군", "name_eng": "Ulleung-gun"}, "geometry": {"type": "Point", "coordinates": [130.85913, 37.50199]}}, {"type": "Feature", "properties": {"level": 2, "name": "울진군", "name_eng": "Uljin-gun"}, "geometry": {"type": "Point", "coordinates": [129.30957, 36.89327]}}, {"type": "Feature", "properties": {"level": 2, "name": "봉화군", "name_eng": "Bonghwa-gun"}, "geometry": {"type": "Point", "coordinates": [128.92241, 36.93258]}}, {"type": "Feature", "properties": {"level": 2, "name": "예천군", "name_eng": "Yecheon-gun"}, "geometry": {"type": "Point", "coordinates": [128.42214, 36.63886]}}, {"type": "Feature", "properties": {"level": 2, "name": "칠곡군", "name_eng": "Chilgok-gun"}, "geometry": {"type": "Point", "coordinates": [128.46081, 35.99365]}}, {"type": "Feature", "properties": {"level": 2, "name": "성주군", "name_eng": "Seongju-gun"}, "geometry": {"type": "Point", "coordinates": [128.22891, 35.88793]}}, {"type": "Feature", "properties": {"level": 2, "name": "고령군", "name_eng": "Goryeong-gun"}, "geometry": {"type": "Point", "coordinates": [128.31549, 35.73937]}}, {"type": "Feature", "properties": {"level": 2, "name": "청도군", "name_eng": "Cheongdo-gun"}, "geometry": {"type": "Point", "coordinates": [128.79396, 35.67972]}}, {"type": "Feature", "properties": {"level": 2, "name": "영덕군", "name_eng": "Yeongdeok-gun"}, "geometry": {"type": "Point", "coordinates": [129.30768, 36.45628]}}, {"type": "Feature", "properties": {"level": 2, "name": "영양군", "name_eng": "Yeongyang-gun"}, "geometry": {"type": "Point", "coordinates": [129.16616, 36.70296]}}, {"type": "Feature", "properties": {"level": 2, "name": "청송군", "name_eng": "Cheongsong-gun"}, "geometry": {"type": "Point", "coordinates": [129.06035, 36.35001]}}, {"type": "Feature", "properties": {"level": 2, "name": "의성군", "name_eng": "Uiseong-gun"}, "geometry": {"type": "Point", "coordinates": [128.57425, 36.36773]}}, {"type": "Feature", "properties": {"level": 2, "name": "군위군", "name_eng": "Gunwi-gun"}, "geometry": {"type": "Point", "coordinates": [128.63331, 36.17249]}}, {"type": "Feature", "properties": {"level": 2, "name": "경산시", "name_eng": "Gyeongsan-si"}, "geometry": {"type": "Point", "coordinates": [128.80396, 35.8518]}}, {"type": "Feature", "properties": {"level": 2, "name": "문경시", "name_eng": "Mungyeong-si"}, "geometry": {"type": "Point", "coordinates": [128.13661, 36.68052]}}, {"type": "Feature", "properties": {"level": 2, "name": "상주시", "name_eng": "Sangju-si"}, "geometry": {"type": "Point", "coordinates": [128.02852, 36.44269]}}, {"type": "Feature", "properties": {"level": 2, "name": "영천시", "name_eng": "Yeongcheon-si"}, "geometry": {"type": "Point", "coordinates": [128.93978, 36.00288]}}, {"type": "Feature", "properties": {"level": 2, "name": "영주시", "name_eng": "Yeongju-si"}, "geometry": {"type": "Point", "coordinates": [128.60808, 36.86643]}}, {"type": "Feature", "properties": {"level": 2, "name": "구미시", "name_eng": "Gumi-si"}, "geometry": {"type": "Point", "coordinates": [128.34666, 36.21278]}}, {"type": "Feature", "properties": {"level": 2, "name": "안동시", "name_eng": "Andong-si"}, "geometry": {"type": "Point", "coordinates": [128.75647, 36.572]}}, {"type": "Feature", "properties": {"level": 2, "name": "김천시", "name_eng": "Gimcheon-si"}, "geometry": {"type": "Point", "coordinates": [128.07805, 36.04498]}}, {"type": "Feature", "properties": {"level": 2, "name": "경주시", "name_eng": "Gyeongju-si"}, "geometry": {"type": "Point", "coordinates": [129.23098, 35.83752]}}, {"type": "Feature", "properties": {"level": 2, "name": "포항시북구", "name_eng": "Buk-gu"}, "geometry": {"type": "Point", "coordinates": [129.23642, 36.17171]}}, {"type": "Feature", "properties": {"level": 2, "name": "포항시남구", "name_eng": "Nam-gu"}, "geometry": {"type": "Point", "coordinates": [129.44267, 35.96384]}}, {"type": "Feature", "properties": {"level": 2, "name": "신안군", "name_eng": "Sinan-gun"}, "geometry": {"type": "Point", "coordinates": [126.12352, 34.73048]}}, {"type": "Feature", "properties": {"level": 2, "name": "진도군", "name_eng": "Jindo-gun"}, "geometry": {"type": "Point", "coordinates": [126.24545, 34.4553]}}, {"type": "Feature", "properties": {"level": 2, "name": "완도군", "name_eng": "Wando-gun"}, "geometry": {"type": "Point", "coordinates": [126.70797, 34.3372]}}, {"type": "Feature", "properties": {"level": 2, "name": "장성군", "name_eng": "Jangseong-gun"}, "geometry": {"type": "Point", "coordinates": [126.76375, 35.32146]}}, {"type": "Feature", "properties": {"level": 2, "name": "영광군", "name_eng": "Yeonggwang-gun"}, "geometry": {"type": "Point", "coordinates": [126.47244, 35.28057]}}, {"type": "Feature", "properties": {"level": 2, "name": "함평군", "name_eng": "Hampyeong-gun"}, "geometry": {"type": "Point", "coordinates": [126.53146, 35.10389]}}, {"type": "Feature", "properties": {"level": 2, "name": "무안군", "name_eng": "Muan-gun"}, "geometry": {"type": "Point", "coordinates": [126.39251, 34.98587]}}, {"type": "Feature", "properties": {"level": 2, "name": "영암군", "name_eng": "Yeongam-gun"}, "geometry": {"type": "Point", "coordinates": [126.60735, 34.80526]}}, {"type": "Feature", "properties": {"level": 2, "name": "해남군", "name_eng": "Haenam-gun"}, "geometry": {"type": "Point", "coordinates": [126.48074, 34.55361]}}, {"type": "Feature", "properties": {"level": 2, "name": "강진군", "name_eng": "Gangjin-gun"}, "geometry": {"type": "Point", "coordinates": [126.77201, 34.59621]}}, {"type": "Feature", "properties": {"level": 2, "name": "장흥군", "name_eng": "Jangheung-gun"}, "geometry": {"type": "Point", "coordinates": [126.92805, 34.65509]}}, {"type": "Feature", "properties": {"level": 2, "name": "화순군", "name_eng": "Hwasun-gun"}, "geometry": {"type": "Point", "coordinates": [127.01624, 34.9983]}}, {"type": "Feature", "properties": {"level": 2, "name": "보성군", "name_eng": "Boseong-gun"}, "geometry": {"type": "Point", "coordinates": [127.20134, 34.81997]}}, {"type": "Feature", "properties": {"level": 2, "name": "고흥군", "name_eng": "Goheung-gun"}, "geometry": {"type": "Point", "coordinates": [127.3206, 34.64329]}}, {"type": "Feature", "properties": {"level": 2, "name": "구례군", "name_eng": "Gurye-gun"}, "geometry": {"type": "Point", "coordinates": [127.51555, 35.20916]}}, {"type": "Feature", "properties": {"level": 2, "name": "곡성군", "name_eng": "Gokseong-gun"}, "geometry": {"type": "Point", "coordinates": [127.24925, 35.21985]}}, {"type": "Feature", "properties": {"level": 2, "name": "담양군", "name_eng": "Damyang-gun"}, "geometry": {"type": "Point", "coordinates": [127.00149, 35.28864]}}, {"type": "Feature", "properties": {"level": 2, "name": "광양시", "name_eng": "Gwangyang-si"}, "geometry": {"type": "Point", "coordinates": [127.64802, 35.02759]}}, {"type": "Feature", "properties": {"level": 2, "name": "나주시", "name_eng": "Naju-si"}, "geometry": {"type": "Point", "coordinates": [126.71543, 34.96151]}}, {"type": "Feature", "properties": {"level": 2, "name": "순천시", "name_eng": "Suncheon-si"}, "geometry": {"type": "Point", "coordinates": [127.40495, 34.98606]}}, {"type": "Feature", "properties": {"level": 2, "name": "여수시", "name_eng": "Yeosu-si"}, "geometry": {"type": "Point", "coordinates": [127.62739, 34.78353]}}, {"type": "Feature", "properties": {"level": 2, "name": "목포시", "name_eng": "Mokpo-si"}, "geometry": {"type": "Point", "coordinates": [126.41455, 34.8051]}}, {"type": "Feature", "properties": {"level": 2, "name": "부안군", "name_eng": "Buan-gun"}, "geometry": {"type": "Point", "coordinates": [126.65398, 35.66453]}}, {"type": "Feature", "properties": {"level": 2, "name": "고창군", "name_eng": "Gochang-gun"}, "geometry": {"type": "Point", "coordinates": [126.61678, 35.42913]}}, {"type": "Feature", "properties": {"level": 2, "name": "순창군", "name_eng": "Sunchang-gun"}, "geometry": {"type": "Point", "coordinates": [127.08202, 35.4362]}}, {"type": "Feature", "properties": {"level": 2, "name": "임실군", "name_eng": "Imsil-gun"}, "geometry": {"type": "Point", "coordinates": [127.23767, 35.60104]}}, {"type": "Feature", "properties": {"level": 2, "name": "장수군", "name_eng": "Jangsu-gun"}, "geometry": {"type": "Point", "coordinates": [127.54134, 35.64178]}}, {"type": "Feature", "properties": {"level": 2, "name": "무주군", "name_eng": "Muju-gun"}, "geometry": {"type": "Point", "coordinates": [127.70711, 35.95051]}}, {"type": "Feature", "properties": {"level": 2, "name": "진안군", "name_eng": "Jinan-gun"}, "geometry": {"type": "Point", "coordinates": [127.42596, 35.8277]}}, {"type": "Feature", "properties": {"level": 2, "name": "완주군", "name_eng": "Wanju-gun"}, "geometry": {"type": "Point", "coordinates": [127.20225, 35.87858]}}, {"type": "Feature", "properties": {"level": 2, "name": "김제시", "name_eng": "Gimje-si"}, "geometry": {"type": "Point", "coordinates": [126.90852, 35.79848]}}, {"type": "Feature", "properties": {"level": 2, "name": "남원시", "name_eng": "Namwon-si"}, "geometry": {"type": "Point", "coordinates": [127.44113, 35.42467]}}, {"type": "Feature", "properties": {"level": 2, "name": "정읍시", "name_eng": "Jeongeup-si"}, "geometry": {"type": "Point", "coordinates": [126.915, 35.58998]}}, {"type": "Feature", "properties": {"level": 2, "name": "익산시", "name_eng": "Iksan-si"}, "geometry": {"type": "Point", "coordinates": [126.98518, 36.00744]}}, {"type": "Feature", "properties": {"level": 2, "name": "군산시", "name_eng": "Gunsan-si"}, "geometry": {"type": "Point", "coordinates": [126.73898, 35.95655]}}, {"type": "Feature", "properties": {"level": 2, "name": "전주시덕진구", "name_eng": "Jeonjusideokjingu"}, "geometry": {"type": "Point", "coordinates": [127.11422, 35.84999]}}, {"type": "Feature", "properties": {"level": 2, "name": "전주시완산구", "name_eng": "Jeonjusiwansangu"}, "geometry": {"type": "Point", "coordinates": [127.12242, 35.79236]}}, {"type": "Feature", "properties": {"level": 2, "name": "태안군", "name_eng": "Taean-gun"}, "geometry": {"type": "Point", "coordinates": [126.25433, 36.78017]}}, {"type": "Feature", "properties": {"level": 2, "name": "예산군", "name_eng": "Yesan-gun"}, "geometry": {"type": "Point", "coordinates": [126.78068, 36.66953]}}, {"type": "Feature", "properties": {"level": 2, "name": "홍성군", "name_eng": "Hongseong-gun"}, "geometry": {"type": "Point", "coordinates": [126.619, 36.56853]}}, {"type": "Feature", "properties": {"level": 2, "name": "청양군", "name_eng": "Cheongyang-gun"}, "geometry": {"type": "Point", "coordinates": [126.84458, 36.43554]}}, {"type": "Feature", "properties": {"level": 2, "name": "서천군", "name_eng": "Seocheon-gun"}, "geometry": {"type": "Point", "coordinates": [126.68859, 36.11127]}}, {"type": "Feature", "properties": {"level": 2, "name": "부여군", "name_eng": "Buyeo-gun"}, "geometry": {"type": "Point", "coordinates": [126.85376, 36.24482]}}, {"type": "Feature", "properties": {"level": 2, "name": "금산군", "name_eng": "Geumsan-gun"}, "geometry": {"type": "Point", "coordinates": [127.47742, 36.12258]}}, {"type": "Feature", "properties": {"level": 2, "name": "당진시", "name_eng": "Dangjinsi"}, "geometry": {"type": "Point", "coordinates": [126.66514, 36.8792]}}, {"type": "Feature", "properties": {"level": 2, "name": "계룡시", "name_eng": "Gyeryongsi"}, "geometry": {"type": "Point", "coordinates": [127.24235, 36.29313]}}, {"type": "Feature", "properties": {"level": 2, "name": "논산시", "name_eng": "Nonsan-si"}, "geometry": {"type": "Point", "coordinates": [127.1572, 36.1891]}}, {"type": "Feature", "properties": {"level": 2, "name": "서산시", "name_eng": "Seosan-si"}, "geometry": {"type": "Point", "coordinates": [126.44692, 36.7964]}}, {"type": "Feature", "properties": {"level": 2, "name": "아산시", "name_eng": "Asan-si"}, "geometry": {"type": "Point", "coordinates": [126.96821, 36.78606]}}, {"type": "Feature", "properties": {"level": 2, "name": "보령시", "name_eng": "Boryeong-si"}, "geometry": {"type": "Point", "coordinates": [126.61317, 36.34024]}}, {"type": "Feature", "properties": {"level": 2, "name": "공주시", "name_eng": "Gongju-si"}, "geometry": {"type": "Point", "coordinates": [127.08429, 36.46574]}}, {"type": "Feature", "properties": {"level": 2, "name": "천안시서북구", "name_eng": "Cheonansiseobukgu"}, "geometry": {"type": "Point", "coordinates": [127.17228, 36.88513]}}, {"type": "Feature", "properties": {"level": 2, "name": "천안시동남구", "name_eng": "Cheonansidongnamgu"}, "geometry": {"type": "Point", "coordinates": [127.21781, 36.74334]}}, {"type": "Feature", "properties": {"level": 2, "name": "증평군", "name_eng": "Jeungpyeonggun"}, "geometry": {"type": "Point", "coordinates": [127.61167, 36.78845]}}, {"type": "Feature", "properties": {"level": 2, "name": "단양군", "name_eng": "Danyang-gun"}, "geometry": {"type": "Point", "coordinates": [128.40929, 36.99519]}}, {"type": "Feature", "properties": {"level": 2, "name": "음성군", "name_eng": "Eumseong-gun"}, "geometry": {"type": "Point", "coordinates": [127.63206, 36.97885]}}, {"type": "Feature", "properties": {"level": 2, "name": "괴산군", "name_eng": "Goesan-gun"}, "geometry": {"type": "Point", "coordinates": [127.84442, 36.75761]}}, {"type": "Feature", "properties": {"level": 2, "name": "진천군", "name_eng": "Jincheon-gun"}, "geometry": {"type": "Point", "coordinates": [127.44021, 36.87813]}}, {"type": "Feature", "properties": {"level": 2, "name": "영동군", "name_eng": "Yeongdong-gun"}, "geometry": {"type": "Point", "coordinates": [127.83283, 36.16272]}}, {"type": "Feature", "properties": {"level": 2, "name": "옥천군", "name_eng": "Okcheon-gun"}, "geometry": {"type": "Point", "coordinates": [127.67932, 36.32159]}}, {"type": "Feature", "properties": {"level": 2, "name": "보은군", "name_eng": "Boeun-gun"}, "geometry": {"type": "Point", "coordinates": [127.73087, 36.48547]}}, {"type": "Feature", "properties": {"level": 2, "name": "청원군", "name_eng": "Cheongwon-gun"}, "geometry": {"type": "Point", "coordinates": [127.50563, 36.60171]}}, {"type": "Feature", "properties": {"level": 2, "name": "제천시", "name_eng": "Jecheon-si"}, "geometry": {"type": "Point", "coordinates": [128.14241, 37.06414]}}, {"type": "Feature", "properties": {"level": 2, "name": "충주시", "name_eng": "Chungju-si"}, "geometry": {"type": "Point", "coordinates": [127.9125, 36.99214]}}, {"type": "Feature", "properties": {"level": 2, "name": "청주시흥덕구", "name_eng": "Cheongjusiheungdeokgu"}, "geometry": {"type": "Point", "coordinates": [127.42316, 36.62237]}}, {"type": "Feature", "properties": {"level": 2, "name": "청주시상당구", "name_eng": "Cheongjusisangdanggu"}, "geometry": {"type": "Point", "coordinates": [127.50711, 36.65283]}}, {"type": "Feature", "properties": {"level": 2, "name": "양양군", "name_eng": "Yangyang-gun"}, "geometry": {"type": "Point", "coordinates": [128.5752, 38.00759]}}, {"type": "Feature", "properties": {"level": 2, "name": "고성군", "name_eng": "Goseong-gun"}, "geometry": {"type": "Point", "coordinates": [128.40374, 38.36504]}}, {"type": "Feature", "properties": {"level": 2, "name": "인제군", "name_eng": "Inje-gun"}, "geometry": {"type": "Point", "coordinates": [128.2648, 38.06498]}}, {"type": "Feature", "properties": {"level": 2, "name": "양구군", "name_eng": "Yanggu-gun"}, "geometry": {"type": "Point", "coordinates": [128.00732, 38.16529]}}, {"type": "Feature", "properties": {"level": 2, "name": "화천군", "name_eng": "Hwacheon-gun"}, "geometry": {"type": "Point", "coordinates": [127.66926, 38.1379]}}, {"type": "Feature", "properties": {"level": 2, "name": "철원군", "name_eng": "Gongju-si"}, "geometry": {"type": "Point", "coordinates": [127.35127, 38.236]}}, {"type": "Feature", "properties": {"level": 2, "name": "정선군", "name_eng": "Jeongseon-gun"}, "geometry": {"type": "Point", "coordinates": [128.76141, 37.39335]}}, {"type": "Feature", "properties": {"level": 2, "name": "평창군", "name_eng": "Pyeongchang-gun"}, "geometry": {"type": "Point", "coordinates": [128.49085, 37.52581]}}, {"type": "Feature", "properties": {"level": 2, "name": "영월군", "name_eng": "Yeongwol-gun"}, "geometry": {"type": "Point", "coordinates": [128.48803, 37.20439]}}, {"type": "Feature", "properties": {"level": 2, "name": "횡성군", "name_eng": "Hoengseong-gun"}, "geometry": {"type": "Point", "coordinates": [128.06035, 37.485]}}, {"type": "Feature", "properties": {"level": 2, "name": "홍천군", "name_eng": "Hongcheon-gun"}, "geometry": {"type": "Point", "coordinates": [128.05878, 37.74635]}}, {"type": "Feature", "properties": {"level": 2, "name": "삼척시", "name_eng": "Samcheok-si"}, "geometry": {"type": "Point", "coordinates": [129.08892, 37.27347]}}, {"type": "Feature", "properties": {"level": 2, "name": "속초시", "name_eng": "Sokcho-si"}, "geometry": {"type": "Point", "coordinates": [128.52533, 38.17094]}}, {"type": "Feature", "properties": {"level": 2, "name": "태백시", "name_eng": "Taebaek-si"}, "geometry": {"type": "Point", "coordinates": [128.97528, 37.18243]}}, {"type": "Feature", "properties": {"level": 2, "name": "동해시", "name_eng": "Donghae-si"}, "geometry": {"type": "Point", "coordinates": [129.05141, 37.50378]}}, {"type": "Feature", "properties": {"level": 2, "name": "강릉시", "name_eng": "Gangneung-si"}, "geometry": {"type": "Point", "coordinates": [128.82633, 37.67139]}}, {"type": "Feature", "properties": {"level": 2, "name": "원주시", "name_eng": "Wonju-si"}, "geometry": {"type": "Point", "coordinates": [127.95663, 37.29707]}}, {"type": "Feature", "properties": {"level": 2, "name": "춘천시", "name_eng": "Chuncheon-si"}, "geometry": {"type": "Point", "coordinates": [127.7507, 37.90048]}}, {"type": "Feature", "properties": {"level": 2, "name": "양평군", "name_eng": "Yangpyeong-gun"}, "geometry": {"type": "Point", "coordinates": [127.57595, 37.52253]}}, {"type": "Feature", "properties": {"level": 2, "name": "가평군", "name_eng": "Gapyeong-gun"}, "geometry": {"type": "Point", "coordinates": [127.46196, 37.80114]}}, {"type": "Feature", "properties": {"level": 2, "name": "연천군", "name_eng": "Yeoncheon-gun"}, "geometry": {"type": "Point", "coordinates": [126.98092, 38.08578]}}, {"type": "Feature", "properties": {"level": 2, "name": "여주시", "name_eng": "Yeoju-si"}, "geometry": {"type": "Point", "coordinates": [127.59639, 37.30163]}}, {"type": "Feature", "properties": {"level": 2, "name": "포천시", "name_eng": "Pocheonsi"}, "geometry": {"type": "Point", "coordinates": [127.23939, 37.96604]}}, {"type": "Feature", "properties": {"level": 2, "name": "양주시", "name_eng": "Yangjusi"}, "geometry": {"type": "Point", "coordinates": [127.00076, 37.78837]}}, {"type": "Feature", "properties": {"level": 2, "name": "광주시", "name_eng": "Gwangju"}, "geometry": {"type": "Point", "coordinates": [127.29165, 37.39523]}}, {"type": "Feature", "properties": {"level": 2, "name": "화성시", "name_eng": "Hwaseongsi"}, "geometry": {"type": "Point", "coordinates": [126.88441, 37.15928]}}, {"type": "Feature", "properties": {"level": 2, "name": "김포시", "name_eng": "Gimpo-si"}, "geometry": {"type": "Point", "coordinates": [126.63404, 37.66664]}}, {"type": "Feature", "properties": {"level": 2, "name": "안성시", "name_eng": "Anseong-si"}, "geometry": {"type": "Point", "coordinates": [127.30935, 37.03771]}}, {"type": "Feature", "properties": {"level": 2, "name": "이천시", "name_eng": "Icheon-si"}, "geometry": {"type": "Point", "coordinates": [127.48984, 37.19421]}}, {"type": "Feature", "properties": {"level": 2, "name": "파주시", "name_eng": "Paju-si"}, "geometry": {"type": "Point", "coordinates": [126.81546, 37.86353]}}, {"type": "Feature", "properties": {"level": 2, "name": "용인시수지구", "name_eng": "Yonginsisujigu"}, "geometry": {"type": "Point", "coordinates": [127.08184, 37.32852]}}, {"type": "Feature", "properties": {"level": 2, "name": "용인시기흥구", "name_eng": "Yonginsigiheunggu"}, "geometry": {"type": "Point", "coordinates": [127.1168, 37.26543]}}, {"type": "Feature", "properties": {"level": 2, "name": "용인시처인구", "name_eng": "Yonginsicheoingu"}, "geometry": {"type": "Point", "coordinates": [127.2667, 37.19379]}}, {"type": "Feature", "properties": {"level": 2, "name": "하남시", "name_eng": "Hanam-si"}, "geometry": {"type": "Point", "coordinates": [127.20871, 37.51544]}}, {"type": "Feature", "properties": {"level": 2, "name": "의왕시", "name_eng": "Uiwang-si"}, "geometry": {"type": "Point", "coordinates": [126.98923, 37.35408]}}, {"type": "Feature", "properties": {"level": 2, "name": "군포시", "name_eng": "Gunpo-si"}, "geometry": {"type": "Point", "coordinates": [126.92422, 37.34045]}}, {"type": "Feature", "properties": {"level": 2, "name": "시흥시", "name_eng": "Siheung-si"}, "geometry": {"type": "Point", "coordinates": [126.79358, 37.38251]}}, {"type": "Feature", "properties": {"level": 2, "name": "오산시", "name_eng": "Osan-si"}, "geometry": {"type": "Point", "coordinates": [127.05776, 37.15755]}}, {"type": "Feature", "properties": {"level": 2, "name": "남양주시", "name_eng": "Namyangju-si"}, "geometry": {"type": "Point", "coordinates": [127.23518, 37.66139]}}, {"type": "Feature", "properties": {"level": 2, "name": "구리시", "name_eng": "Guri-si"}, "geometry": {"type": "Point", "coordinates": [127.12803, 37.60237]}}, {"type": "Feature", "properties": {"level": 2, "name": "과천시", "name_eng": "Gwacheon-si"}, "geometry": {"type": "Point", "coordinates": [127.00646, 37.4275]}}, {"type": "Feature", "properties": {"level": 2, "name": "고양시일산서구", "name_eng": "Goyangsiilsanseogu"}, "geometry": {"type": "Point", "coordinates": [126.73192, 37.677]}}, {"type": "Feature", "properties": {"level": 2, "name": "고양시일산동구", "name_eng": "Goyangsiilsandonggu"}, "geometry": {"type": "Point", "coordinates": [126.79429, 37.67798]}}, {"type": "Feature", "properties": {"level": 2, "name": "고양시덕양구", "name_eng": "Goyangsideogyanggu"}, "geometry": {"type": "Point", "coordinates": [126.90224, 37.66143]}}, {"type": "Feature", "properties": {"level": 2, "name": "안산시단원구", "name_eng": "Ansansidanwongu"}, "geometry": {"type": "Point", "coordinates": [126.7853, 37.32184]}}, {"type": "Feature", "properties": {"level": 2, "name": "안산시상록구", "name_eng": "Ansansisangnokgu"}, "geometry": {"type": "Point", "coordinates": [126.88491, 37.31655]}}, {"type": "Feature", "properties": {"level": 2, "name": "동두천시", "name_eng": "Dongducheon-si"}, "geometry": {"type": "Point", "coordinates": [127.08795, 37.90408]}}, {"type": "Feature", "properties": {"level": 2, "name": "평택시", "name_eng": "Pyeongtaek-si"}, "geometry": {"type": "Point", "coordinates": [126.99717, 37.02422]}}, {"type": "Feature", "properties": {"level": 2, "name": "광명시", "name_eng": "Gwangmyeong-si"}, "geometry": {"type": "Point", "coordinates": [126.85972, 37.44085]}}, {"type": "Feature", "properties": {"level": 2, "name": "부천시오정구", "name_eng": "Bucheonsiojeonggu"}, "geometry": {"type": "Point", "coordinates": [126.79293, 37.52289]}}, {"type": "Feature", "properties": {"level": 2, "name": "부천시소사구", "name_eng": "Bucheonsisosagu"}, "geometry": {"type": "Point", "coordinates": [126.798, 37.47454]}}, {"type": "Feature", "properties": {"level": 2, "name": "부천시원미구", "name_eng": "Bucheonsiwonmigu"}, "geometry": {"type": "Point", "coordinates": [126.78664, 37.49794]}}, {"type": "Feature", "properties": {"level": 2, "name": "안양시동안구", "name_eng": "Anyangsidongangu"}, "geometry": {"type": "Point", "coordinates": [126.95612, 37.40773]}}, {"type": "Feature", "properties": {"level": 2, "name": "안양시만안구", "name_eng": "Anyangsimanangu"}, "geometry": {"type": "Point", "coordinates": [126.91837, 37.40265]}}, {"type": "Feature", "properties": {"level": 2, "name": "의정부시", "name_eng": "Uijeongbu-si"}, "geometry": {"type": "Point", "coordinates": [127.06981, 37.73699]}}, {"type": "Feature", "properties": {"level": 2, "name": "성남시분당구", "name_eng": "Seongnamsibundanggu"}, "geometry": {"type": "Point", "coordinates": [127.11061, 37.37573]}}, {"type": "Feature", "properties": {"level": 2, "name": "성남시중원구", "name_eng": "Seongnamsijungwongu"}, "geometry": {"type": "Point", "coordinates": [127.16299, 37.43364]}}, {"type": "Feature", "properties": {"level": 2, "name": "성남시수정구", "name_eng": "Seongnamsisujeonggu"}, "geometry": {"type": "Point", "coordinates": [127.10197, 37.43466]}}, {"type": "Feature", "properties": {"level": 2, "name": "수원시영통구", "name_eng": "Suwonsiyeongtonggu"}, "geometry": {"type": "Point", "coordinates": [127.06136, 37.27621]}}, {"type": "Feature", "properties": {"level": 2, "name": "수원시팔달구", "name_eng": "Suwonsipaldalgu"}, "geometry": {"type": "Point", "coordinates": [127.02263, 37.27647]}}, {"type": "Feature", "properties": {"level": 2, "name": "수원시권선구", "name_eng": "Suwonsigwonseongu"}, "geometry": {"type": "Point", "coordinates": [126.97754, 37.26155]}}, {"type": "Feature", "properties": {"level": 2, "name": "수원시장안구", "name_eng": "Suwonsijangangu"}, "geometry": {"type": "Point", "coordinates": [127.00951, 37.31121]}}, {"type": "Feature", "properties": {"level": 2, "name": "세종시", "name_eng": "Sejongsi"}, "geometry": {"type": "Point", "coordinates": [127.26619, 36.56529]}}, {"type": "Feature", "properties": {"level": 2, "name": "울주군", "name_eng": "Ulju-gun"}, "geometry": {"type": "Point", "coordinates": [129.20474, 35.52003]}}, {"type": "Feature", "properties": {"level": 2, "name": "북구", "name_eng": "Buk-gu"}, "geometry": {"type": "Point", "coordinates": [129.38568, 35.58735]}}, {"type": "Feature", "properties": {"level": 2, "name": "동구", "name_eng": "Dong-gu"}, "geometry": {"type": "Point", "coordinates": [129.42309, 35.51933]}}, {"type": "Feature", "properties": {"level": 2, "name": "남구", "name_eng": "Nam-gu"}, "geometry": {"type": "Point", "coordinates": [129.33491, 35.50996]}}, {"type": "Feature", "properties": {"level": 2, "name": "중구", "name_eng": "Jung-gu"}, "geometry": {"type": "Point", "coordinates": [129.31011, 35.57707]}}, {"type": "Feature", "properties": {"level": 2, "name": "대덕구", "name_eng": "Daedeok-gu"}, "geometry": {"type": "Point", "coordinates": [127.44009, 36.40728]}}, {"type": "Feature", "properties": {"level": 2, "name": "유성구", "name_eng": "Yuseong-gu"}, "geometry": {"type": "Point", "coordinates": [127.34419, 36.3839]}}, {"type": "Feature", "properties": {"level": 2, "name": "서구", "name_eng": "Seo-gu"}, "geometry": {"type": "Point", "coordinates": [127.34631, 36.28393]}}, {"type": "Feature", "properties": {"level": 2, "name": "중구", "name_eng": "Jung-gu"}, "geometry": {"type": "Point", "coordinates": [127.41583, 36.27232]}}, {"type": "Feature", "properties": {"level": 2, "name": "동구", "name_eng": "Dong-gu"}, "geometry": {"type": "Point", "coordinates": [127.47794, 36.31522]}}, {"type": "Feature", "properties": {"level": 2, "name": "광산구", "name_eng": "Gwangsan-gu"}, "geometry": {"type": "Point", "coordinates": [126.76169, 35.17001]}}, {"type": "Feature", "properties": {"level": 2, "name": "북구", "name_eng": "Buk-gu"}, "geometry": {"type": "Point", "coordinates": [126.93523, 35.18044]}}, {"type": "Feature", "properties": {"level": 2, "name": "남구", "name_eng": "Nam-gu"}, "geometry": {"type": "Point", "coordinates": [126.86696, 35.09796]}}, {"type": "Feature", "properties": {"level": 2, "name": "서구", "name_eng": "Seo-gu"}, "geometry": {"type": "Point", "coordinates": [126.85193, 35.13017]}}, {"type": "Feature", "properties": {"level": 2, "name": "동구", "name_eng": "Dong-gu"}, "geometry": {"type": "Point", "coordinates": [126.94747, 35.11631]}}, {"type": "Feature", "properties": {"level": 2, "name": "옹진군", "name_eng": "Ongjin-gun"}, "geometry": {"type": "Point", "coordinates": [124.67424, 37.95324]}}, {"type": "Feature", "properties": {"level": 2, "name": "강화군", "name_eng": "Ganghwa-gun"}, "geometry": {"type": "Point", "coordinates": [126.4429, 37.69091]}}, {"type": "Feature", "properties": {"level": 2, "name": "서구", "name_eng": "Seo-gu"}, "geometry": {"type": "Point", "coordinates": [126.66062, 37.55531]}}, {"type": "Feature", "properties": {"level": 2, "name": "계양구", "name_eng": "Gyeyang-gu"}, "geometry": {"type": "Point", "coordinates": [126.7306, 37.55899]}}, {"type": "Feature", "properties": {"level": 2, "name": "부평구", "name_eng": "Bupyeong-gu"}, "geometry": {"type": "Point", "coordinates": [126.72864, 37.49092]}}, {"type": "Feature", "properties": {"level": 2, "name": "남동구", "name_eng": "Namdong-gu"}, "geometry": {"type": "Point", "coordinates": [126.73268, 37.43656]}}, {"type": "Feature", "properties": {"level": 2, "name": "연수구", "name_eng": "Yeonsu-gu"}, "geometry": {"type": "Point", "coordinates": [126.65333, 37.39979]}}, {"type": "Feature", "properties": {"level": 2, "name": "남구", "name_eng": "Nam-gu"}, "geometry": {"type": "Point", "coordinates": [126.66918, 37.454]}}, {"type": "Feature", "properties": {"level": 2, "name": "동구", "name_eng": "Dong-gu"}, "geometry": {"type": "Point", "coordinates": [126.64726, 37.47892]}}, {"type": "Feature", "properties": {"level": 2, "name": "중구", "name_eng": "Jung-gu"}, "geometry": {"type": "Point", "coordinates": [126.47036, 37.47237]}}, {"type": "Feature", "properties": {"level": 2, "name": "달성군", "name_eng": "Dalseong-gun"}, "geometry": {"type": "Point", "coordinates": [128.50871, 35.71928]}}, {"type": "Feature", "properties": {"level": 2, "name": "달서구", "name_eng": "Dalseo-gu"}, "geometry": {"type": "Point", "coordinates": [128.53838, 35.82278]}}, {"type": "Feature", "properties": {"level": 2, "name": "수성구", "name_eng": "Suseong-gu"}, "geometry": {"type": "Point", "coordinates": [128.66597, 35.83613]}}, {"type": "Feature", "properties": {"level": 2, "name": "북구", "name_eng": "Buk-gu"}, "geometry": {"type": "Point", "coordinates": [128.57028, 35.92231]}}, {"type": "Feature", "properties": {"level": 2, "name": "남구", "name_eng": "Nam-gu"}, "geometry": {"type": "Point", "coordinates": [128.58888, 35.82892]}}, {"type": "Feature", "properties": {"level": 2, "name": "서구", "name_eng": "Seo-gu"}, "geometry": {"type": "Point", "coordinates": [128.55619, 35.87072]}}, {"type": "Feature", "properties": {"level": 2, "name": "동구", "name_eng": "Dong-gu"}, "geometry": {"type": "Point", "coordinates": [128.68345, 35.924]}}, {"type": "Feature", "properties": {"level": 2, "name": "중구", "name_eng": "Jung-gu"}, "geometry": {"type": "Point", "coordinates": [128.59598, 35.86364]}}, {"type": "Feature", "properties": {"level": 2, "name": "기장군", "name_eng": "Gijang-gun"}, "geometry": {"type": "Point", "coordinates": [129.20596, 35.28671]}}, {"type": "Feature", "properties": {"level": 2, "name": "사상구", "name_eng": "Sasang-gu"}, "geometry": {"type": "Point", "coordinates": [128.9927, 35.1509]}}, {"type": "Feature", "properties": {"level": 2, "name": "수영구", "name_eng": "Suyeong-gu"}, "geometry": {"type": "Point", "coordinates": [129.1183, 35.16006]}}, {"type": "Feature", "properties": {"level": 2, "name": "연제구", "name_eng": "Yeonje-gu"}, "geometry": {"type": "Point", "coordinates": [129.08668, 35.1763]}}, {"type": "Feature", "properties": {"level": 2, "name": "강서구", "name_eng": "Gangseo-gu"}, "geometry": {"type": "Point", "coordinates": [128.87475, 35.11676]}}, {"type": "Feature", "properties": {"level": 2, "name": "금정구", "name_eng": "Geumjeong-gu"}, "geometry": {"type": "Point", "coordinates": [129.09594, 35.25574]}}, {"type": "Feature", "properties": {"level": 2, "name": "사하구", "name_eng": "Saha-gu"}, "geometry": {"type": "Point", "coordinates": [128.97576, 35.08261]}}, {"type": "Feature", "properties": {"level": 2, "name": "해운대구", "name_eng": "Haeundae-gu"}, "geometry": {"type": "Point", "coordinates": [129.15654, 35.18454]}}, {"type": "Feature", "properties": {"level": 2, "name": "북구", "name_eng": "Buk-gu"}, "geometry": {"type": "Point", "coordinates": [129.02975, 35.22576]}}, {"type": "Feature", "properties": {"level": 2, "name": "남구", "name_eng": "Nam-gu"}, "geometry": {"type": "Point", "coordinates": [129.09463, 35.12395]}}, {"type": "Feature", "properties": {"level": 2, "name": "동래구", "name_eng": "Dongnae-gu"}, "geometry": {"type": "Point", "coordinates": [129.08358, 35.20011]}}, {"type": "Feature", "properties": {"level": 2, "name": "부산진구", "name_eng": "Busanjin-gu"}, "geometry": {"type": "Point", "coordinates": [129.04178, 35.16114]}}, {"type": "Feature", "properties": {"level": 2, "name": "영도구", "name_eng": "Yeongdo-gu"}, "geometry": {"type": "Point", "coordinates": [129.05274, 35.08451]}}, {"type": "Feature", "properties": {"level": 2, "name": "동구", "name_eng": "Dong-gu"}, "geometry": {"type": "Point", "coordinates": [129.0462, 35.12668]}}, {"type": "Feature", "properties": {"level": 2, "name": "서구", "name_eng": "Seo-gu"}, "geometry": {"type": "Point", "coordinates": [129.01808, 35.10212]}}, {"type": "Feature", "properties": {"level": 2, "name": "중구", "name_eng": "Jung-gu"}, "geometry": {"type": "Point", "coordinates": [129.03761, 35.09732]}}, {"type": "Feature", "properties": {"level": 2, "name": "강동구", "name_eng": "Gangdong-gu"}, "geometry": {"type": "Point", "coordinates": [127.14444, 37.54496]}}, {"type": "Feature", "properties": {"level": 2, "name": "송파구", "name_eng": "Songpa-gu"}, "geometry": {"type": "Point", "coordinates": [127.11626, 37.50459]}}, {"type": "Feature", "properties": {"level": 2, "name": "강남구", "name_eng": "Gangnam-gu"}, "geometry": {"type": "Point", "coordinates": [127.06811, 37.49412]}}, {"type": "Feature", "properties": {"level": 2, "name": "서초구", "name_eng": "Seocho-gu"}, "geometry": {"type": "Point", "coordinates": [127.04118, 37.46613]}}, {"type": "Feature", "properties": {"level": 2, "name": "관악구", "name_eng": "Gwanak-gu"}, "geometry": {"type": "Point", "coordinates": [126.94659, 37.46294]}}, {"type": "Feature", "properties": {"level": 2, "name": "동작구", "name_eng": "Dongjak-gu"}, "geometry": {"type": "Point", "coordinates": [126.94943, 37.49432]}}, {"type": "Feature", "properties": {"level": 2, "name": "영등포구", "name_eng": "Yeongdeungpo-gu"}, "geometry": {"type": "Point", "coordinates": [126.91233, 37.51567]}}, {"type": "Feature", "properties": {"level": 2, "name": "금천구", "name_eng": "Geumcheon-gu"}, "geometry": {"type": "Point", "coordinates": [126.90572, 37.45939]}}, {"type": "Feature", "properties": {"level": 2, "name": "구로구", "name_eng": "Guro-gu"}, "geometry": {"type": "Point", "coordinates": [126.86189, 37.49029]}}, {"type": "Feature", "properties": {"level": 2, "name": "강서구", "name_eng": "Gangseo-gu"}, "geometry": {"type": "Point", "coordinates": [126.83396, 37.55522]}}, {"type": "Feature", "properties": {"level": 2, "name": "양천구", "name_eng": "Yangcheon-gu"}, "geometry": {"type": "Point", "coordinates": [126.85657, 37.52821]}}, {"type": "Feature", "properties": {"level": 2, "name": "마포구", "name_eng": "Mapo-gu"}, "geometry": {"type": "Point", "coordinates": [126.91924, 37.55814]}}, {"type": "Feature", "properties": {"level": 2, "name": "서대문구", "name_eng": "Seodaemun-gu"}, "geometry": {"type": "Point", "coordinates": [126.94744, 37.57113]}}, {"type": "Feature", "properties": {"level": 2, "name": "은평구", "name_eng": "Eunpyeong-gu"}, "geometry": {"type": "Point", "coordinates": [126.92758, 37.61279]}}, {"type": "Feature", "properties": {"level": 2, "name": "노원구", "name_eng": "Nowon-gu"}, "geometry": {"type": "Point", "coordinates": [127.07765, 37.64752]}}, {"type": "Feature", "properties": {"level": 2, "name": "도봉구", "name_eng": "Dobong-gu"}, "geometry": {"type": "Point", "coordinates": [127.03116, 37.66467]}}, {"type": "Feature", "properties": {"level": 2, "name": "강북구", "name_eng": "Gangbuk-gu"}, "geometry": {"type": "Point", "coordinates": [127.01554, 37.64346]}}, {"type": "Feature", "properties": {"level": 2, "name": "성북구", "name_eng": "Seongbuk-gu"}, "geometry": {"type": "Point", "coordinates": [127.02412, 37.60839]}}, {"type": "Feature", "properties": {"level": 2, "name": "중랑구", "name_eng": "Jungnang-gu"}, "geometry": {"type": "Point", "coordinates": [127.09317, 37.59609]}}, {"type": "Feature", "properties": {"level": 2, "name": "동대문구", "name_eng": "Dongdaemun-gu"}, "geometry": {"type": "Point", "coordinates": [127.05318, 37.57636]}}, {"type": "Feature", "properties": {"level": 2, "name": "광진구", "name_eng": "Gwangjin-gu"}, "geometry": {"type": "Point", "coordinates": [127.08918, 37.54609]}}, {"type": "Feature", "properties": {"level": 2, "name": "성동구", "name_eng": "Seongdong-gu"}, "geometry": {"type": "Point", "coordinates": [127.04036, 37.54893]}}, {"type": "Feature", "properties": {"level": 2, "name": "용산구", "name_eng": "Yongsan-gu"}, "geometry": {"type": "Point", "coordinates": [126.98502, 37.53142]}}, {"type": "Feature", "properties": {"level": 2, "name": "중구", "name_eng": "Jung-gu"}, "geometry": {"type": "Point", "coordinates": [126.98675, 37.55483]}}, {"type": "Feature", "properties": {"level": 2, "name": "종로구", "name_eng": "Jongno-gu"}, "geometry": {"type": "Point", "coordinates": [126.98152, 37.59691]}}]}