{"type": "FeatureCollection", "features": [{"type": "Feature", "properties": {"name": "Muan CTR", "kind": "circle", "icao": "RKJB", "note": null, "vert": "SFC-3000ftAGL", "cls": "D"}, "geometry": {"type": "Polygon", "coordinates": [[[126.34583, 35.1525], [126.35912, 35.15179], [126.37219, 35.14966], [126.3848, 35.14616], [126.39674, 35.14134], [126.40782, 35.13528], [126.41783, 35.12809], [126.42661, 35.1199], [126.43401, 35.11083], [126.4399, 35.10106], [126.44418, 35.09073], [126.44678, 35.08004], [126.44765, 35.06917], [126.44678, 35.05829], [126.44418, 35.0476], [126.4399, 35.03728], [126.43401, 35.0275], [126.42661, 35.01844], [126.41783, 35.01024], [126.40782, 35.00305], [126.39674, 34.997], [126.3848, 34.99218], [126.37219, 34.98867], [126.35912, 34.98655], [126.34583, 34.98583], [126.33254, 34.98655], [126.31948, 34.98867], [126.30687, 34.99218], [126.29492, 34.997], [126.28385, 35.00305], [126.27384, 35.01024], [126.26506, 35.01844], [126.25766, 35.0275], [126.25177, 35.03728], [126.24749, 35.0476], [126.24489, 35.05829], [126.24402, 35.06917], [126.24489, 35.08004], [126.24749, 35.09073], [126.25177, 35.10106], [126.25766, 35.11083], [126.26506, 35.1199], [126.27384, 35.12809], [126.28385, 35.13528], [126.29492, 35.14134], [126.30687, 35.14616], [126.31948, 35.14966], [126.33254, 35.15179], [126.34583, 35.1525]]]}}, {"type": "Feature", "properties": {"name": "Gwangju CTR", "kind": "circle", "icao": "RKJJ", "note": null, "vert": "SFC-4000ftAGL", "cls": "C"}, "geometry": {"type": "Polygon", "coordinates": [[[126.80889, 35.20972], [126.82219, 35.20901], [126.83526, 35.20688], [126.84788, 35.20338], [126.85983, 35.19856], [126.87091, 35.1925], [126.88094, 35.18531], [126.88972, 35.17712], [126.89713, 35.16806], [126.90302, 35.15828], [126.90731, 35.14796], [126.90991, 35.13727], [126.91078, 35.12639], [126.90991, 35.11551], [126.90731, 35.10482], [126.90302, 35.0945], [126.89713, 35.08472], [126.88972, 35.07566], [126.88094, 35.06746], [126.87091, 35.06028], [126.85983, 35.05422], [126.84788, 35.0494], [126.83526, 35.0459], [126.82219, 35.04377], [126.80889, 35.04306], [126.79559, 35.04377], [126.78252, 35.0459], [126.7699, 35.0494], [126.75794, 35.05422], [126.74686, 35.06028], [126.73684, 35.06746], [126.72806, 35.07566], [126.72065, 35.08472], [126.71476, 35.0945], [126.71047, 35.10482], [126.70787, 35.11551], [126.707, 35.12639], [126.70787, 35.13727], [126.71047, 35.14796], [126.71476, 35.15828], [126.72065, 35.16806], [126.72806, 35.17712], [126.73684, 35.18531], [126.74686, 35.1925], [126.75794, 35.19856], [126.7699, 35.20338], [126.78252, 35.20688], [126.79559, 35.20901], [126.80889, 35.20972]]]}}, {"type": "Feature", "properties": {"name": "Gunsan CTR", "kind": "circle", "icao": "RKJK", "note": null, "vert": "SFC-5000ftAGL", "cls": "C"}, "geometry": {"type": "Polygon", "coordinates": [[[126.61583, 35.98722], [126.62926, 35.98651], [126.64246, 35.98438], [126.6552, 35.98088], [126.66727, 35.97606], [126.67846, 35.97], [126.68858, 35.96281], [126.69745, 35.95462], [126.70493, 35.94556], [126.71088, 35.93578], [126.71521, 35.92546], [126.71783, 35.91477], [126.71871, 35.90389], [126.71783, 35.89301], [126.71521, 35.88232], [126.71088, 35.872], [126.70493, 35.86222], [126.69745, 35.85316], [126.68858, 35.84496], [126.67846, 35.83778], [126.66727, 35.83172], [126.6552, 35.8269], [126.64246, 35.8234], [126.62926, 35.82127], [126.61583, 35.82056], [126.6024, 35.82127], [126.58921, 35.8234], [126.57646, 35.8269], [126.56439, 35.83172], [126.5532, 35.83778], [126.54309, 35.84496], [126.53421, 35.85316], [126.52674, 35.86222], [126.52078, 35.872], [126.51646, 35.88232], [126.51383, 35.89301], [126.51295, 35.90389], [126.51383, 35.91477], [126.51646, 35.92546], [126.52078, 35.93578], [126.52674, 35.94556], [126.53421, 35.95462], [126.54309, 35.96281], [126.5532, 35.97], [126.56439, 35.97606], [126.57646, 35.98088], [126.58921, 35.98438], [126.6024, 35.98651], [126.61583, 35.98722]]]}}, {"type": "Feature", "properties": {"name": "Yeosu CTR", "kind": "circle", "icao": "RKJY", "note": null, "vert": "SFC-3000ftAGL", "cls": "D"}, "geometry": {"type": "Polygon", "coordinates": [[[127.61722, 34.92556], [127.63048, 34.92484], [127.6435, 34.92272], [127.65608, 34.91921], [127.66799, 34.91439], [127.67903, 34.90834], [127.68902, 34.90115], [127.69778, 34.89295], [127.70515, 34.88389], [127.71103, 34.87411], [127.7153, 34.86379], [127.71789, 34.8531], [127.71876, 34.84222], [127.71789, 34.83135], [127.7153, 34.82065], [127.71103, 34.81033], [127.70515, 34.80056], [127.69778, 34.79149], [127.68902, 34.7833], [127.67903, 34.77611], [127.66799, 34.77005], [127.65608, 34.76523], [127.6435, 34.76173], [127.63048, 34.7596], [127.61722, 34.75889], [127.60397, 34.7596], [127.59094, 34.76173], [127.57837, 34.76523], [127.56645, 34.77005], [127.55541, 34.77611], [127.54543, 34.7833], [127.53667, 34.79149], [127.52929, 34.80056], [127.52342, 34.81033], [127.51915, 34.82065], [127.51656, 34.83135], [127.51569, 34.84222], [127.51656, 34.8531], [127.51915, 34.86379], [127.52342, 34.87411], [127.52929, 34.88389], [127.53667, 34.89295], [127.54543, 34.90115], [127.55541, 34.90834], [127.56645, 34.91439], [127.57837, 34.91921], [127.59094, 34.92272], [127.60397, 34.92484], [127.61722, 34.92556]]]}}, {"type": "Feature", "properties": {"name": "Wonju CTR", "kind": "circle", "icao": "RKNW", "note": null, "vert": "SFC-5000ftAGL", "cls": "C"}, "geometry": {"type": "Polygon", "coordinates": [[[127.96028, 37.52139], [127.97398, 37.52068], [127.98744, 37.51855], [128.00044, 37.51505], [128.01275, 37.51022], [128.02417, 37.50417], [128.03449, 37.49698], [128.04354, 37.48879], [128.05117, 37.47972], [128.05724, 37.46995], [128.06165, 37.45962], [128.06433, 37.44893], [128.06523, 37.43806], [128.06433, 37.42718], [128.06165, 37.41649], [128.05724, 37.40617], [128.05117, 37.39639], [128.04354, 37.38733], [128.03449, 37.37913], [128.02417, 37.37194], [128.01275, 37.36589], [128.00044, 37.36107], [127.98744, 37.35756], [127.97398, 37.35544], [127.96028, 37.35472], [127.94658, 37.35544], [127.93311, 37.35756], [127.92011, 37.36107], [127.9078, 37.36589], [127.89639, 37.37194], [127.88607, 37.37913], [127.87701, 37.38733], [127.86939, 37.39639], [127.86331, 37.40617], [127.8589, 37.41649], [127.85622, 37.42718], [127.85533, 37.43806], [127.85622, 37.44893], [127.8589, 37.45962], [127.86331, 37.46995], [127.86939, 37.47972], [127.87701, 37.48879], [127.88607, 37.49698], [127.89639, 37.50417], [127.9078, 37.51022], [127.92011, 37.51505], [127.93311, 37.51855], [127.94658, 37.52068], [127.96028, 37.52139]]]}}, {"type": "Feature", "properties": {"name": "Yangyang CTR", "kind": "circle", "icao": "RKNY", "note": null, "vert": "SFC-3000ftAGL", "cls": "D"}, "geometry": {"type": "Polygon", "coordinates": [[[128.66917, 38.14472], [128.68298, 38.14401], [128.69656, 38.14188], [128.70967, 38.13838], [128.72209, 38.13356], [128.7336, 38.1275], [128.74401, 38.12031], [128.75314, 38.11212], [128.76083, 38.10306], [128.76695, 38.09328], [128.7714, 38.08296], [128.7741, 38.07227], [128.77501, 38.06139], [128.7741, 38.05051], [128.7714, 38.03982], [128.76695, 38.0295], [128.76083, 38.01972], [128.75314, 38.01066], [128.74401, 38.00246], [128.7336, 37.99528], [128.72209, 37.98922], [128.70967, 37.9844], [128.69656, 37.9809], [128.68298, 37.97877], [128.66917, 37.97806], [128.65535, 37.97877], [128.64177, 37.9809], [128.62866, 37.9844], [128.61625, 37.98922], [128.60474, 37.99528], [128.59433, 38.00246], [128.5852, 38.01066], [128.57751, 38.01972], [128.57138, 38.0295], [128.56693, 38.03982], [128.56423, 38.05051], [128.56333, 38.06139], [128.56423, 38.07227], [128.56693, 38.08296], [128.57138, 38.09328], [128.57751, 38.10306], [128.5852, 38.11212], [128.59433, 38.12031], [128.60474, 38.1275], [128.61625, 38.13356], [128.62866, 38.13838], [128.64177, 38.14188], [128.65535, 38.14401], [128.66917, 38.14472]]]}}, {"type": "Feature", "properties": {"name": "Jeju CTR", "kind": "circle", "icao": "RKPC", "note": null, "vert": "SFC-3000ftAGL", "cls": "B"}, "geometry": {"type": "Polygon", "coordinates": [[[126.49278, 33.59556], [126.50582, 33.59484], [126.51865, 33.59272], [126.53103, 33.58921], [126.54275, 33.58439], [126.55362, 33.57834], [126.56345, 33.57115], [126.57207, 33.56295], [126.57934, 33.55389], [126.58512, 33.54411], [126.58932, 33.53379], [126.59187, 33.5231], [126.59273, 33.51222], [126.59187, 33.50135], [126.58932, 33.49065], [126.58512, 33.48033], [126.57934, 33.47056], [126.57207, 33.46149], [126.56345, 33.4533], [126.55362, 33.44611], [126.54275, 33.44005], [126.53103, 33.43523], [126.51865, 33.43173], [126.50582, 33.4296], [126.49278, 33.42889], [126.47973, 33.4296], [126.46691, 33.43173], [126.45453, 33.43523], [126.4428, 33.44005], [126.43193, 33.44611], [126.4221, 33.4533], [126.41348, 33.46149], [126.40622, 33.47056], [126.40044, 33.48033], [126.39624, 33.49065], [126.39368, 33.50135], [126.39283, 33.51222], [126.39368, 33.5231], [126.39624, 33.53379], [126.40044, 33.54411], [126.40622, 33.55389], [126.41348, 33.56295], [126.4221, 33.57115], [126.43193, 33.57834], [126.4428, 33.58439], [126.45453, 33.58921], [126.46691, 33.59272], [126.47973, 33.59484], [126.49278, 33.59556]]]}}, {"type": "Feature", "properties": {"name": "Jeongseok CTR", "kind": "circle", "icao": "RKPD", "note": null, "vert": "SFC-3000ftAGL", "cls": "D"}, "geometry": {"type": "Polygon", "coordinates": [[[126.71306, 33.48167], [126.72608, 33.48095], [126.73889, 33.47883], [126.75125, 33.47532], [126.76296, 33.4705], [126.77382, 33.46445], [126.78364, 33.45726], [126.79225, 33.44906], [126.7995, 33.44], [126.80527, 33.43022], [126.80947, 33.4199], [126.81202, 33.40921], [126.81287, 33.39833], [126.81202, 33.38746], [126.80947, 33.37677], [126.80527, 33.36644], [126.7995, 33.35667], [126.79225, 33.3476], [126.78364, 33.33941], [126.77382, 33.33222], [126.76296, 33.32616], [126.75125, 33.32134], [126.73889, 33.31784], [126.72608, 33.31571], [126.71306, 33.315], [126.70003, 33.31571], [126.68722, 33.31784], [126.67486, 33.32134], [126.66315, 33.32616], [126.65229, 33.33222], [126.64247, 33.33941], [126.63387, 33.3476], [126.62661, 33.35667], [126.62084, 33.36644], [126.61664, 33.37677], [126.61409, 33.38746], [126.61324, 33.39833], [126.61409, 33.40921], [126.61664, 33.4199], [126.62084, 33.43022], [126.62661, 33.44], [126.63387, 33.44906], [126.64247, 33.45726], [126.65229, 33.46445], [126.66315, 33.4705], [126.67486, 33.47532], [126.68722, 33.47883], [126.70003, 33.48095], [126.71306, 33.48167]]]}}, {"type": "Feature", "properties": {"name": "Gimhae CTR", "kind": "circle", "icao": "RKPK", "note": null, "vert": "SFC-3000ftAGL", "cls": "C"}, "geometry": {"type": "Polygon", "coordinates": [[[128.93806, 35.26389], [128.95136, 35.26318], [128.96444, 35.26105], [128.97707, 35.25755], [128.98903, 35.25272], [129.00012, 35.24667], [129.01015, 35.23948], [129.01894, 35.23129], [129.02635, 35.22222], [129.03225, 35.21245], [129.03654, 35.20212], [129.03914, 35.19143], [129.04001, 35.18056], [129.03914, 35.16968], [129.03654, 35.15899], [129.03225, 35.14867], [129.02635, 35.13889], [129.01894, 35.12983], [129.01015, 35.12163], [129.00012, 35.11444], [128.98903, 35.10839], [128.97707, 35.10357], [128.96444, 35.10006], [128.95136, 35.09794], [128.93806, 35.09722], [128.92475, 35.09794], [128.91167, 35.10006], [128.89904, 35.10357], [128.88708, 35.10839], [128.87599, 35.11444], [128.86596, 35.12163], [128.85717, 35.12983], [128.84976, 35.13889], [128.84386, 35.14867], [128.83957, 35.15899], [128.83697, 35.16968], [128.8361, 35.18056], [128.83697, 35.19143], [128.83957, 35.20212], [128.84386, 35.21245], [128.84976, 35.22222], [128.85717, 35.23129], [128.86596, 35.23948], [128.87599, 35.24667], [128.88708, 35.25272], [128.89904, 35.25755], [128.91167, 35.26105], [128.92475, 35.26318], [128.93806, 35.26389]]]}}, {"type": "Feature", "properties": {"name": "Sacheon CTR", "kind": "circle", "icao": "RKPS", "note": null, "vert": "SFC-4000ftAGL", "cls": "C"}, "geometry": {"type": "Polygon", "coordinates": [[[128.07056, 35.17194], [128.08385, 35.17123], [128.09691, 35.1691], [128.10953, 35.1656], [128.12148, 35.16078], [128.13255, 35.15472], [128.14257, 35.14754], [128.15135, 35.13934], [128.15875, 35.13028], [128.16464, 35.1205], [128.16893, 35.11018], [128.17153, 35.09949], [128.1724, 35.08861], [128.17153, 35.07773], [128.16893, 35.06704], [128.16464, 35.05672], [128.15875, 35.04694], [128.15135, 35.03788], [128.14257, 35.02969], [128.13255, 35.0225], [128.12148, 35.01644], [128.10953, 35.01162], [128.09691, 35.00812], [128.08385, 35.00599], [128.07056, 35.00528], [128.05726, 35.00599], [128.0442, 35.00812], [128.03158, 35.01162], [128.01963, 35.01644], [128.00856, 35.0225], [127.99854, 35.02969], [127.98976, 35.03788], [127.98236, 35.04694], [127.97647, 35.05672], [127.97218, 35.06704], [127.96959, 35.07773], [127.96871, 35.08861], [127.96959, 35.09949], [127.97218, 35.11018], [127.97647, 35.1205], [127.98236, 35.13028], [127.98976, 35.13934], [127.99854, 35.14754], [128.00856, 35.15472], [128.01963, 35.16078], [128.03158, 35.1656], [128.0442, 35.1691], [128.05726, 35.17123], [128.07056, 35.17194]]]}}, {"type": "Feature", "properties": {"name": "Ulsan CTR", "kind": "circle", "icao": "RKPU", "note": null, "vert": "SFC-3000ftAGL", "cls": "D"}, "geometry": {"type": "Polygon", "coordinates": [[[129.35222, 35.67667], [129.3656, 35.67595], [129.37875, 35.67383], [129.39144, 35.67032], [129.40346, 35.6655], [129.41461, 35.65945], [129.42469, 35.65226], [129.43352, 35.64406], [129.44097, 35.635], [129.4469, 35.62522], [129.45121, 35.6149], [129.45383, 35.60421], [129.4547, 35.59333], [129.45383, 35.58246], [129.45121, 35.57177], [129.4469, 35.56144], [129.44097, 35.55167], [129.43352, 35.5426], [129.42469, 35.53441], [129.41461, 35.52722], [129.40346, 35.52116], [129.39144, 35.51634], [129.37875, 35.51284], [129.3656, 35.51071], [129.35222, 35.51], [129.33885, 35.51071], [129.3257, 35.51284], [129.313, 35.51634], [129.30098, 35.52116], [129.28984, 35.52722], [129.27976, 35.53441], [129.27092, 35.5426], [129.26347, 35.55167], [129.25754, 35.56144], [129.25323, 35.57177], [129.25062, 35.58246], [129.24974, 35.59333], [129.25062, 35.60421], [129.25323, 35.6149], [129.25754, 35.62522], [129.26347, 35.635], [129.27092, 35.64406], [129.27976, 35.65226], [129.28984, 35.65945], [129.30098, 35.6655], [129.313, 35.67032], [129.3257, 35.67383], [129.33885, 35.67595], [129.35222, 35.67667]]]}}, {"type": "Feature", "properties": {"name": "Incheon CTR", "kind": "circle", "icao": "RKSI", "note": null, "vert": "SFC-3000ftAGL", "cls": "B"}, "geometry": {"type": "Polygon", "coordinates": [[[126.43917, 37.54583], [126.45287, 37.54512], [126.46634, 37.54299], [126.47934, 37.53949], [126.49166, 37.53467], [126.50308, 37.52861], [126.5134, 37.52143], [126.52246, 37.51323], [126.53009, 37.50417], [126.53616, 37.49439], [126.54058, 37.48407], [126.54326, 37.47338], [126.54415, 37.4625], [126.54326, 37.45162], [126.54058, 37.44093], [126.53616, 37.43061], [126.53009, 37.42083], [126.52246, 37.41177], [126.5134, 37.40357], [126.50308, 37.39639], [126.49166, 37.39033], [126.47934, 37.38551], [126.46634, 37.38201], [126.45287, 37.37988], [126.43917, 37.37917], [126.42546, 37.37988], [126.41199, 37.38201], [126.39899, 37.38551], [126.38667, 37.39033], [126.37525, 37.39639], [126.36493, 37.40357], [126.35588, 37.41177], [126.34825, 37.42083], [126.34217, 37.43061], [126.33776, 37.44093], [126.33508, 37.45162], [126.33418, 37.4625], [126.33508, 37.47338], [126.33776, 37.48407], [126.34217, 37.49439], [126.34825, 37.50417], [126.35588, 37.51323], [126.36493, 37.52143], [126.37525, 37.52861], [126.38667, 37.53467], [126.39899, 37.53949], [126.41199, 37.54299], [126.42546, 37.54512], [126.43917, 37.54583]]]}}, {"type": "Feature", "properties": {"name": "Seoul CTR", "kind": "circle", "icao": "RKSM", "note": null, "vert": "SFC-4000ftAGL", "cls": "D"}, "geometry": {"type": "Polygon", "coordinates": [[[127.11417, 37.52917], [127.12787, 37.52845], [127.14133, 37.52633], [127.15433, 37.52282], [127.16665, 37.518], [127.17806, 37.51195], [127.18839, 37.50476], [127.19744, 37.49656], [127.20507, 37.4875], [127.21114, 37.47772], [127.21555, 37.4674], [127.21823, 37.45671], [127.21913, 37.44583], [127.21823, 37.43496], [127.21555, 37.42427], [127.21114, 37.41394], [127.20507, 37.40417], [127.19744, 37.3951], [127.18839, 37.38691], [127.17806, 37.37972], [127.16665, 37.37366], [127.15433, 37.36884], [127.14133, 37.36534], [127.12787, 37.36321], [127.11417, 37.3625], [127.10047, 37.36321], [127.087, 37.36534], [127.074, 37.36884], [127.06169, 37.37366], [127.05027, 37.37972], [127.03995, 37.38691], [127.03089, 37.3951], [127.02327, 37.40417], [127.01719, 37.41394], [127.01278, 37.42427], [127.0101, 37.43496], [127.0092, 37.44583], [127.0101, 37.45671], [127.01278, 37.4674], [127.01719, 37.47772], [127.02327, 37.4875], [127.03089, 37.49656], [127.03995, 37.50476], [127.05027, 37.51195], [127.06169, 37.518], [127.074, 37.52282], [127.087, 37.52633], [127.10047, 37.52845], [127.11417, 37.52917]]]}}, {"type": "Feature", "properties": {"name": "Gimpo CTR", "kind": "circle", "icao": "RKSS", "note": null, "vert": "SFC-3000ftAGL", "cls": "B"}, "geometry": {"type": "Polygon", "coordinates": [[[126.7975, 37.64028], [126.81122, 37.63956], [126.82471, 37.63744], [126.83773, 37.63393], [126.85006, 37.62911], [126.86149, 37.62306], [126.87183, 37.61587], [126.8809, 37.60767], [126.88854, 37.59861], [126.89462, 37.58883], [126.89904, 37.57851], [126.90172, 37.56782], [126.90262, 37.55694], [126.90172, 37.54607], [126.89904, 37.53538], [126.89462, 37.52505], [126.88854, 37.51528], [126.8809, 37.50621], [126.87183, 37.49802], [126.86149, 37.49083], [126.85006, 37.48478], [126.83773, 37.47995], [126.82471, 37.47645], [126.81122, 37.47432], [126.7975, 37.47361], [126.78378, 37.47432], [126.77029, 37.47645], [126.75727, 37.47995], [126.74494, 37.48478], [126.73351, 37.49083], [126.72317, 37.49802], [126.7141, 37.50621], [126.70646, 37.51528], [126.70038, 37.52505], [126.69596, 37.53538], [126.69328, 37.54607], [126.69238, 37.55694], [126.69328, 37.56782], [126.69596, 37.57851], [126.70038, 37.58883], [126.70646, 37.59861], [126.7141, 37.60767], [126.72317, 37.61587], [126.73351, 37.62306], [126.74494, 37.62911], [126.75727, 37.63393], [126.77029, 37.63744], [126.78378, 37.63956], [126.7975, 37.64028]]]}}, {"type": "Feature", "properties": {"name": "Pohang CTR", "kind": "circle", "icao": "RKTH", "note": null, "vert": "SFC-3000ftAGL", "cls": "C"}, "geometry": {"type": "Polygon", "coordinates": [[[129.41861, 36.07111], [129.43205, 36.0704], [129.44527, 36.06827], [129.45802, 36.06477], [129.47011, 36.05995], [129.48131, 36.05389], [129.49144, 36.0467], [129.50032, 36.03851], [129.5078, 36.02944], [129.51376, 36.01967], [129.51809, 36.00935], [129.52072, 35.99865], [129.5216, 35.98778], [129.52072, 35.9769], [129.51809, 35.96621], [129.51376, 35.95589], [129.5078, 35.94611], [129.50032, 35.93705], [129.49144, 35.92885], [129.48131, 35.92166], [129.47011, 35.91561], [129.45802, 35.91079], [129.44527, 35.90728], [129.43205, 35.90516], [129.41861, 35.90444], [129.40517, 35.90516], [129.39196, 35.90728], [129.3792, 35.91079], [129.36712, 35.91561], [129.35591, 35.92166], [129.34579, 35.92885], [129.3369, 35.93705], [129.32942, 35.94611], [129.32346, 35.95589], [129.31913, 35.96621], [129.3165, 35.9769], [129.31562, 35.98778], [129.3165, 35.99865], [129.31913, 36.00935], [129.32346, 36.01967], [129.32942, 36.02944], [129.3369, 36.03851], [129.34579, 36.0467], [129.35591, 36.05389], [129.36712, 36.05995], [129.3792, 36.06477], [129.39196, 36.06827], [129.40517, 36.0704], [129.41861, 36.07111]]]}}, {"type": "Feature", "properties": {"name": "Uljin CTR", "kind": "circle", "icao": "RKTL", "note": null, "vert": "SFC-2500ftAGL", "cls": "D"}, "geometry": {"type": "Polygon", "coordinates": [[[129.39389, 36.92333], [129.40748, 36.92262], [129.42084, 36.92049], [129.43374, 36.91699], [129.44595, 36.91217], [129.45728, 36.90611], [129.46752, 36.89893], [129.4765, 36.89073], [129.48406, 36.88167], [129.49009, 36.87189], [129.49447, 36.86157], [129.49712, 36.85088], [129.49801, 36.84], [129.49712, 36.82912], [129.49447, 36.81843], [129.49009, 36.80811], [129.48406, 36.79833], [129.4765, 36.78927], [129.46752, 36.78107], [129.45728, 36.77389], [129.44595, 36.76783], [129.43374, 36.76301], [129.42084, 36.75951], [129.40748, 36.75738], [129.39389, 36.75667], [129.3803, 36.75738], [129.36694, 36.75951], [129.35404, 36.76301], [129.34183, 36.76783], [129.3305, 36.77389], [129.32026, 36.78107], [129.31128, 36.78927], [129.30371, 36.79833], [129.29769, 36.80811], [129.29331, 36.81843], [129.29065, 36.82912], [129.28976, 36.84], [129.29065, 36.85088], [129.29331, 36.86157], [129.29769, 36.87189], [129.30371, 36.88167], [129.31128, 36.89073], [129.32026, 36.89893], [129.3305, 36.90611], [129.34183, 36.91217], [129.35404, 36.91699], [129.36694, 36.92049], [129.3803, 36.92262], [129.39389, 36.92333]]]}}, {"type": "Feature", "properties": {"name": "Daegu CTR", "kind": "circle", "icao": "RKTN", "note": null, "vert": "SFC-4000ftAGL", "cls": "C"}, "geometry": {"type": "Polygon", "coordinates": [[[128.65889, 35.9775], [128.67232, 35.97679], [128.68551, 35.97466], [128.69825, 35.97116], [128.71032, 35.96634], [128.72151, 35.96028], [128.73163, 35.95309], [128.7405, 35.9449], [128.74798, 35.93583], [128.75393, 35.92606], [128.75825, 35.91573], [128.76088, 35.90504], [128.76176, 35.89417], [128.76088, 35.88329], [128.75825, 35.8726], [128.75393, 35.86228], [128.74798, 35.8525], [128.7405, 35.84344], [128.73163, 35.83524], [128.72151, 35.82805], [128.71032, 35.822], [128.69825, 35.81718], [128.68551, 35.81367], [128.67232, 35.81155], [128.65889, 35.81083], [128.64546, 35.81155], [128.63226, 35.81367], [128.61952, 35.81718], [128.60745, 35.822], [128.59627, 35.82805], [128.58615, 35.83524], [128.57728, 35.84344], [128.5698, 35.8525], [128.56385, 35.86228], [128.55953, 35.8726], [128.5569, 35.88329], [128.55602, 35.89417], [128.5569, 35.90504], [128.55953, 35.91573], [128.56385, 35.92606], [128.5698, 35.93583], [128.57728, 35.9449], [128.58615, 35.95309], [128.59627, 35.96028], [128.60745, 35.96634], [128.61952, 35.97116], [128.63226, 35.97466], [128.64546, 35.97679], [128.65889, 35.9775]]]}}, {"type": "Feature", "properties": {"name": "Cheongju CTR", "kind": "circle", "icao": "RKTU", "note": null, "vert": "SFC-5000ftAGL", "cls": "C"}, "geometry": {"type": "Polygon", "coordinates": [[[127.49917, 36.79972], [127.51274, 36.79901], [127.52607, 36.79688], [127.53895, 36.79338], [127.55115, 36.78856], [127.56245, 36.7825], [127.57268, 36.77531], [127.58164, 36.76712], [127.5892, 36.75806], [127.59521, 36.74828], [127.59958, 36.73796], [127.60224, 36.72727], [127.60312, 36.71639], [127.60224, 36.70551], [127.59958, 36.69482], [127.59521, 36.6845], [127.5892, 36.67472], [127.58164, 36.66566], [127.57268, 36.65746], [127.56245, 36.65028], [127.55115, 36.64422], [127.53895, 36.6394], [127.52607, 36.6359], [127.51274, 36.63377], [127.49917, 36.63306], [127.4856, 36.63377], [127.47226, 36.6359], [127.45938, 36.6394], [127.44719, 36.64422], [127.43588, 36.65028], [127.42566, 36.65746], [127.41669, 36.66566], [127.40914, 36.67472], [127.40312, 36.6845], [127.39875, 36.69482], [127.3961, 36.70551], [127.39521, 36.71639], [127.3961, 36.72727], [127.39875, 36.73796], [127.40312, 36.74828], [127.40914, 36.75806], [127.41669, 36.76712], [127.42566, 36.77531], [127.43588, 36.7825], [127.44719, 36.78856], [127.45938, 36.79338], [127.47226, 36.79688], [127.4856, 36.79901], [127.49917, 36.79972]]]}}, {"type": "Feature", "properties": {"name": "Osan CTR", "kind": "circle", "note": "Excluding the area that overlap with the Suwon control zone) SFC - 2 200 ft AGL Class D", "vert": "SFC-2200ftAGL", "cls": "D"}, "geometry": {"type": "Polygon", "coordinates": [[[127.02972, 37.17389], [127.04336, 37.17318], [127.05676, 37.17105], [127.0697, 37.16755], [127.08196, 37.16272], [127.09332, 37.15667], [127.10359, 37.14948], [127.1126, 37.14129], [127.1202, 37.13222], [127.12624, 37.12245], [127.13063, 37.11212], [127.1333, 37.10143], [127.13419, 37.09056], [127.1333, 37.07968], [127.13063, 37.06899], [127.12624, 37.05867], [127.1202, 37.04889], [127.1126, 37.03983], [127.10359, 37.03163], [127.09332, 37.02444], [127.08196, 37.01839], [127.0697, 37.01357], [127.05676, 37.01006], [127.04336, 37.00794], [127.02972, 37.00722], [127.01609, 37.00794], [127.00268, 37.01006], [126.98974, 37.01357], [126.97749, 37.01839], [126.96613, 37.02444], [126.95585, 37.03163], [126.94684, 37.03983], [126.93925, 37.04889], [126.93321, 37.05867], [126.92881, 37.06899], [126.92615, 37.07968], [126.92525, 37.09056], [126.92615, 37.10143], [126.92881, 37.11212], [126.93321, 37.12245], [126.93925, 37.13222], [126.94684, 37.14129], [126.95585, 37.14948], [126.96613, 37.15667], [126.97749, 37.16272], [126.98974, 37.16755], [127.00268, 37.17105], [127.01609, 37.17318], [127.02972, 37.17389]]]}}, {"type": "Feature", "properties": {"name": "Mokpo CTR", "kind": "circle", "note": null, "vert": "SFC-3000ftAGL", "cls": "D"}, "geometry": {"type": "Polygon", "coordinates": [[[126.38111, 34.84222], [126.39435, 34.84151], [126.40736, 34.83938], [126.41993, 34.83588], [126.43183, 34.83106], [126.44286, 34.825], [126.45284, 34.81781], [126.46158, 34.80962], [126.46895, 34.80056], [126.47482, 34.79078], [126.47909, 34.78046], [126.48168, 34.76977], [126.48254, 34.75889], [126.48168, 34.74801], [126.47909, 34.73732], [126.47482, 34.727], [126.46895, 34.71722], [126.46158, 34.70816], [126.45284, 34.69996], [126.44286, 34.69278], [126.43183, 34.68672], [126.41993, 34.6819], [126.40736, 34.6784], [126.39435, 34.67627], [126.38111, 34.67556], [126.36787, 34.67627], [126.35486, 34.6784], [126.34229, 34.6819], [126.33039, 34.68672], [126.31936, 34.69278], [126.30939, 34.69996], [126.30064, 34.70816], [126.29327, 34.71722], [126.2874, 34.727], [126.28313, 34.73732], [126.28055, 34.74801], [126.27968, 34.75889], [126.28055, 34.76977], [126.28313, 34.78046], [126.2874, 34.79078], [126.29327, 34.80056], [126.30064, 34.80962], [126.30939, 34.81781], [126.31936, 34.825], [126.33039, 34.83106], [126.34229, 34.83588], [126.35486, 34.83938], [126.36787, 34.84151], [126.38111, 34.84222]]]}}, {"type": "Feature", "properties": {"name": "Jinhae CTR", "kind": "circle", "note": null, "vert": "SFC-3000ftAGL", "cls": "D"}, "geometry": {"type": "Polygon", "coordinates": [[[128.69417, 35.22806], [128.70747, 35.22734], [128.72054, 35.22522], [128.73317, 35.22171], [128.74512, 35.21689], [128.75621, 35.21084], [128.76623, 35.20365], [128.77502, 35.19545], [128.78242, 35.18639], [128.78832, 35.17661], [128.79261, 35.16629], [128.79521, 35.1556], [128.79608, 35.14472], [128.79521, 35.13385], [128.79261, 35.12315], [128.78832, 35.11283], [128.78242, 35.10306], [128.77502, 35.09399], [128.76623, 35.0858], [128.75621, 35.07861], [128.74512, 35.07255], [128.73317, 35.06773], [128.72054, 35.06423], [128.70747, 35.0621], [128.69417, 35.06139], [128.68086, 35.0621], [128.66779, 35.06423], [128.65517, 35.06773], [128.64321, 35.07255], [128.63213, 35.07861], [128.6221, 35.0858], [128.61331, 35.09399], [128.60591, 35.10306], [128.60001, 35.11283], [128.59573, 35.12315], [128.59313, 35.13385], [128.59225, 35.14472], [128.59313, 35.1556], [128.59573, 35.16629], [128.60001, 35.17661], [128.60591, 35.18639], [128.61331, 35.19545], [128.6221, 35.20365], [128.63213, 35.21084], [128.64321, 35.21689], [128.65517, 35.22171], [128.66779, 35.22522], [128.68086, 35.22734], [128.69417, 35.22806]]]}}, {"type": "Feature", "properties": {"name": "Pyeongtaek CTR", "kind": "circle", "note": null, "vert": "SFC-3000ftAGL", "cls": "D"}, "geometry": {"type": "Polygon", "coordinates": [[[127.03333, 37.04333], [127.04695, 37.04262], [127.06033, 37.04049], [127.07324, 37.03699], [127.08548, 37.03217], [127.09682, 37.02611], [127.10708, 37.01893], [127.11607, 37.01073], [127.12365, 37.00167], [127.12968, 36.99189], [127.13407, 36.98157], [127.13673, 36.97088], [127.13762, 36.96], [127.13673, 36.94912], [127.13407, 36.93843], [127.12968, 36.92811], [127.12365, 36.91833], [127.11607, 36.90927], [127.10708, 36.90107], [127.09682, 36.89389], [127.08548, 36.88783], [127.07324, 36.88301], [127.06033, 36.87951], [127.04695, 36.87738], [127.03333, 36.87667], [127.01972, 36.87738], [127.00634, 36.87951], [126.99342, 36.88301], [126.98119, 36.88783], [126.96985, 36.89389], [126.95959, 36.90107], [126.95059, 36.90927], [126.94302, 36.91833], [126.93698, 36.92811], [126.9326, 36.93843], [126.92994, 36.94912], [126.92904, 36.96], [126.92994, 36.97088], [126.9326, 36.98157], [126.93698, 36.99189], [126.94302, 37.00167], [126.95059, 37.01073], [126.95959, 37.01893], [126.96985, 37.02611], [126.98119, 37.03217], [126.99342, 37.03699], [127.00634, 37.04049], [127.01972, 37.04262], [127.03333, 37.04333]]]}}, {"type": "Feature", "properties": {"name": "Nonsan CTR", "kind": "circle", "note": null, "vert": "SFC-2000ftAGL", "cls": "D"}, "geometry": {"type": "Polygon", "coordinates": [[[127.11389, 36.35278], [127.12738, 36.35206], [127.14064, 36.34994], [127.15344, 36.34643], [127.16557, 36.34161], [127.17681, 36.33556], [127.18698, 36.32837], [127.19589, 36.32017], [127.2034, 36.31111], [127.20938, 36.30133], [127.21373, 36.29101], [127.21636, 36.28032], [127.21725, 36.26944], [127.21636, 36.25857], [127.21373, 36.24788], [127.20938, 36.23755], [127.2034, 36.22778], [127.19589, 36.21871], [127.18698, 36.21052], [127.17681, 36.20333], [127.16557, 36.19728], [127.15344, 36.19245], [127.14064, 36.18895], [127.12738, 36.18682], [127.11389, 36.18611], [127.1004, 36.18682], [127.08714, 36.18895], [127.07433, 36.19245], [127.06221, 36.19728], [127.05097, 36.20333], [127.0408, 36.21052], [127.03189, 36.21871], [127.02438, 36.22778], [127.0184, 36.23755], [127.01405, 36.24788], [127.01141, 36.25857], [127.01053, 36.26944], [127.01141, 36.28032], [127.01405, 36.29101], [127.0184, 36.30133], [127.02438, 36.31111], [127.03189, 36.32017], [127.0408, 36.32837], [127.05097, 36.33556], [127.06221, 36.34161], [127.07433, 36.34643], [127.08714, 36.34994], [127.1004, 36.35206], [127.11389, 36.35278]]]}}, {"type": "Feature", "properties": {"name": "Icheon CTR", "kind": "circle", "note": null, "vert": "SFC-3000ftAGL", "cls": "D"}, "geometry": {"type": "Polygon", "coordinates": [[[127.47194, 37.28444], [127.4856, 37.28373], [127.49902, 37.2816], [127.51198, 37.2781], [127.52426, 37.27328], [127.53563, 37.26722], [127.54592, 37.26004], [127.55495, 37.25184], [127.56255, 37.24278], [127.5686, 37.233], [127.573, 37.22268], [127.57567, 37.21199], [127.57657, 37.20111], [127.57567, 37.19023], [127.573, 37.17954], [127.5686, 37.16922], [127.56255, 37.15944], [127.55495, 37.15038], [127.54592, 37.14219], [127.53563, 37.135], [127.52426, 37.12894], [127.51198, 37.12412], [127.49902, 37.12062], [127.4856, 37.11849], [127.47194, 37.11778], [127.45829, 37.11849], [127.44487, 37.12062], [127.43191, 37.12412], [127.41963, 37.12894], [127.40825, 37.135], [127.39797, 37.14219], [127.38894, 37.15038], [127.38134, 37.15944], [127.37529, 37.16922], [127.37089, 37.17954], [127.36822, 37.19023], [127.36732, 37.20111], [127.36822, 37.21199], [127.37089, 37.22268], [127.37529, 37.233], [127.38134, 37.24278], [127.38894, 37.25184], [127.39797, 37.26004], [127.40825, 37.26722], [127.41963, 37.27328], [127.43191, 37.2781], [127.44487, 37.2816], [127.45829, 37.28373], [127.47194, 37.28444]]]}}, {"type": "Feature", "properties": {"name": "Suwon CTR", "kind": "circle", "note": null, "vert": "SFC-4000ftAGL", "cls": "D"}, "geometry": {"type": "Polygon", "coordinates": [[[127.00694, 37.32278], [127.02061, 37.32206], [127.03404, 37.31994], [127.047, 37.31643], [127.05928, 37.31161], [127.07067, 37.30556], [127.08096, 37.29837], [127.08999, 37.29017], [127.0976, 37.28111], [127.10365, 37.27133], [127.10805, 37.26101], [127.11072, 37.25032], [127.11162, 37.23944], [127.11072, 37.22857], [127.10805, 37.21788], [127.10365, 37.20755], [127.0976, 37.19778], [127.08999, 37.18871], [127.08096, 37.18052], [127.07067, 37.17333], [127.05928, 37.16728], [127.047, 37.16245], [127.03404, 37.15895], [127.02061, 37.15682], [127.00694, 37.15611], [126.99328, 37.15682], [126.97985, 37.15895], [126.96689, 37.16245], [126.95461, 37.16728], [126.94322, 37.17333], [126.93293, 37.18052], [126.9239, 37.18871], [126.91629, 37.19778], [126.91024, 37.20755], [126.90584, 37.21788], [126.90316, 37.22857], [126.90227, 37.23944], [126.90316, 37.25032], [126.90584, 37.26101], [126.91024, 37.27133], [126.91629, 37.28111], [126.9239, 37.29017], [126.93293, 37.29837], [126.94322, 37.30556], [126.95461, 37.31161], [126.96689, 37.31643], [126.97985, 37.31994], [126.99328, 37.32206], [127.00694, 37.32278]]]}}, {"type": "Feature", "properties": {"name": "Gangneung CTR", "kind": "circle", "note": null, "vert": "SFC-4000ftAGL", "cls": "C"}, "geometry": {"type": "Polygon", "coordinates": [[[128.945, 37.83722], [128.95876, 37.83651], [128.97228, 37.83438], [128.98533, 37.83088], [128.9977, 37.82606], [129.00916, 37.82], [129.01953, 37.81281], [129.02862, 37.80462], [129.03628, 37.79556], [129.04238, 37.78578], [129.04681, 37.77546], [129.0495, 37.76477], [129.0504, 37.75389], [129.0495, 37.74301], [129.04681, 37.73232], [129.04238, 37.722], [129.03628, 37.71222], [129.02862, 37.70316], [129.01953, 37.69496], [129.00916, 37.68778], [128.9977, 37.68172], [128.98533, 37.6769], [128.97228, 37.6734], [128.95876, 37.67127], [128.945, 37.67056], [128.93124, 37.67127], [128.91772, 37.6734], [128.90467, 37.6769], [128.8923, 37.68172], [128.88084, 37.68778], [128.87047, 37.69496], [128.86138, 37.70316], [128.85372, 37.71222], [128.84762, 37.722], [128.84319, 37.73232], [128.8405, 37.74301], [128.8396, 37.75389], [128.8405, 37.76477], [128.84319, 37.77546], [128.84762, 37.78578], [128.85372, 37.79556], [128.86138, 37.80462], [128.87047, 37.81281], [128.88084, 37.82], [128.8923, 37.82606], [128.90467, 37.83088], [128.91772, 37.83438], [128.93124, 37.83651], [128.945, 37.83722]]]}}, {"type": "Feature", "properties": {"name": "Haemi CTR", "kind": "circle", "note": null, "vert": "SFC-4000ftAGL", "cls": "C"}, "geometry": {"type": "Polygon", "coordinates": [[[126.48611, 36.78778], [126.49968, 36.78706], [126.51301, 36.78494], [126.52589, 36.78143], [126.53808, 36.77661], [126.54939, 36.77056], [126.55961, 36.76337], [126.56857, 36.75517], [126.57613, 36.74611], [126.58214, 36.73633], [126.58651, 36.72601], [126.58916, 36.71532], [126.59005, 36.70444], [126.58916, 36.69357], [126.58651, 36.68288], [126.58214, 36.67255], [126.57613, 36.66278], [126.56857, 36.65371], [126.55961, 36.64552], [126.54939, 36.63833], [126.53808, 36.63228], [126.52589, 36.62745], [126.51301, 36.62395], [126.49968, 36.62182], [126.48611, 36.62111], [126.47254, 36.62182], [126.45921, 36.62395], [126.44633, 36.62745], [126.43414, 36.63228], [126.42284, 36.63833], [126.41261, 36.64552], [126.40365, 36.65371], [126.39609, 36.66278], [126.39008, 36.67255], [126.38571, 36.68288], [126.38306, 36.69357], [126.38217, 36.70444], [126.38306, 36.71532], [126.38571, 36.72601], [126.39008, 36.73633], [126.39609, 36.74611], [126.40365, 36.75517], [126.41261, 36.76337], [126.42284, 36.77056], [126.43414, 36.77661], [126.44633, 36.78143], [126.45921, 36.78494], [126.47254, 36.78706], [126.48611, 36.78778]]]}}, {"type": "Feature", "properties": {"name": "Jungwon CTR", "kind": "circle", "note": null, "vert": "SFC-4000ftAGL", "cls": "C"}, "geometry": {"type": "Polygon", "coordinates": [[[127.88583, 37.11361], [127.89946, 37.1129], [127.91285, 37.11077], [127.92578, 37.10727], [127.93803, 37.10245], [127.94938, 37.09639], [127.95965, 37.0892], [127.96865, 37.08101], [127.97623, 37.07194], [127.98227, 37.06217], [127.98666, 37.05185], [127.98933, 37.04115], [127.99022, 37.03028], [127.98933, 37.0194], [127.98666, 37.00871], [127.98227, 36.99839], [127.97623, 36.98861], [127.96865, 36.97955], [127.95965, 36.97135], [127.94938, 36.96416], [127.93803, 36.95811], [127.92578, 36.95329], [127.91285, 36.94978], [127.89946, 36.94766], [127.88583, 36.94694], [127.87221, 36.94766], [127.85882, 36.94978], [127.84589, 36.95329], [127.83364, 36.95811], [127.82229, 36.96416], [127.81202, 36.97135], [127.80302, 36.97955], [127.79543, 36.98861], [127.78939, 36.99839], [127.785, 37.00871], [127.78234, 37.0194], [127.78145, 37.03028], [127.78234, 37.04115], [127.785, 37.05185], [127.78939, 37.06217], [127.79543, 37.07194], [127.80302, 37.08101], [127.81202, 37.0892], [127.82229, 37.09639], [127.83364, 37.10245], [127.84589, 37.10727], [127.85882, 37.11077], [127.87221, 37.1129], [127.88583, 37.11361]]]}}, {"type": "Feature", "properties": {"name": "Seongmu CTR", "kind": "circle", "note": "Excluding the area that overlap with the Cheongju control zone) SFC - 4 000 ft AGL Class D", "vert": "SFC-4000ftAGL", "cls": "D"}, "geometry": {"type": "Polygon", "coordinates": [[[127.5, 36.65139], [127.51354, 36.65068], [127.52685, 36.64855], [127.53971, 36.64505], [127.55188, 36.64022], [127.56316, 36.63417], [127.57337, 36.62698], [127.58232, 36.61879], [127.58986, 36.60972], [127.59586, 36.59995], [127.60022, 36.58962], [127.60287, 36.57893], [127.60376, 36.56806], [127.60287, 36.55718], [127.60022, 36.54649], [127.59586, 36.53617], [127.58986, 36.52639], [127.58232, 36.51733], [127.57337, 36.50913], [127.56316, 36.50194], [127.55188, 36.49589], [127.53971, 36.49107], [127.52685, 36.48756], [127.51354, 36.48544], [127.5, 36.48472], [127.48646, 36.48544], [127.47315, 36.48756], [127.46029, 36.49107], [127.44812, 36.49589], [127.43684, 36.50194], [127.42663, 36.50913], [127.41768, 36.51733], [127.41014, 36.52639], [127.40414, 36.53617], [127.39978, 36.54649], [127.39713, 36.55718], [127.39624, 36.56806], [127.39713, 36.57893], [127.39978, 36.58962], [127.40414, 36.59995], [127.41014, 36.60972], [127.41768, 36.61879], [127.42663, 36.62698], [127.43684, 36.63417], [127.44812, 36.64022], [127.46029, 36.64505], [127.47315, 36.64855], [127.48646, 36.65068], [127.5, 36.65139]]]}}, {"type": "Feature", "properties": {"name": "Yecheon CTR", "kind": "circle", "note": null, "vert": "SFC-4000ftAGL", "cls": "C"}, "geometry": {"type": "Polygon", "coordinates": [[[128.355, 36.715], [128.36855, 36.71429], [128.38188, 36.71216], [128.39474, 36.70866], [128.40692, 36.70384], [128.41822, 36.69778], [128.42843, 36.69059], [128.43738, 36.6824], [128.44493, 36.67333], [128.45094, 36.66356], [128.45531, 36.65323], [128.45796, 36.64254], [128.45884, 36.63167], [128.45796, 36.62079], [128.45531, 36.6101], [128.45094, 36.59978], [128.44493, 36.59], [128.43738, 36.58094], [128.42843, 36.57274], [128.41822, 36.56555], [128.40692, 36.5595], [128.39474, 36.55468], [128.38188, 36.55117], [128.36855, 36.54905], [128.355, 36.54833], [128.34145, 36.54905], [128.32812, 36.55117], [128.31526, 36.55468], [128.30308, 36.5595], [128.29178, 36.56555], [128.28157, 36.57274], [128.27262, 36.58094], [128.26507, 36.59], [128.25906, 36.59978], [128.25469, 36.6101], [128.25204, 36.62079], [128.25116, 36.63167], [128.25204, 36.64254], [128.25469, 36.65323], [128.25906, 36.66356], [128.26507, 36.67333], [128.27262, 36.6824], [128.28157, 36.69059], [128.29178, 36.69778], [128.30308, 36.70384], [128.31526, 36.70866], [128.32812, 36.71216], [128.34145, 36.71429], [128.355, 36.715]]]}}, {"type": "Feature", "properties": {"name": "Sokcho CTR", "kind": "circle", "note": "Excluding(the overlapping area of) P518 and Yangyang control zone Class D", "vert": "SFC-2500ftAGL", "cls": "D"}, "geometry": {"type": "Polygon", "coordinates": [[[128.60278, 38.2275], [128.61661, 38.22679], [128.6302, 38.22466], [128.64333, 38.22116], [128.65576, 38.21634], [128.66728, 38.21028], [128.6777, 38.20309], [128.68684, 38.1949], [128.69454, 38.18583], [128.70067, 38.17606], [128.70513, 38.16573], [128.70783, 38.15504], [128.70874, 38.14417], [128.70783, 38.13329], [128.70513, 38.1226], [128.70067, 38.11228], [128.69454, 38.1025], [128.68684, 38.09344], [128.6777, 38.08524], [128.66728, 38.07805], [128.65576, 38.072], [128.64333, 38.06718], [128.6302, 38.06367], [128.61661, 38.06155], [128.60278, 38.06083], [128.58895, 38.06155], [128.57535, 38.06367], [128.56223, 38.06718], [128.5498, 38.072], [128.53827, 38.07805], [128.52785, 38.08524], [128.51871, 38.09344], [128.51101, 38.1025], [128.50488, 38.11228], [128.50043, 38.1226], [128.49772, 38.13329], [128.49682, 38.14417], [128.49772, 38.15504], [128.50043, 38.16573], [128.50488, 38.17606], [128.51101, 38.18583], [128.51871, 38.1949], [128.52785, 38.20309], [128.53827, 38.21028], [128.5498, 38.21634], [128.56223, 38.22116], [128.57535, 38.22466], [128.58895, 38.22679], [128.60278, 38.2275]]]}}]}