{"type": "FeatureCollection", "features": [{"type": "Feature", "properties": {"name": "INCHEON FIR", "units": [{"unit": "Daegu ACC", "callsign": "Daegu Control", "sectors": [{"name": "West-sea High", "freqs": ["132.80", "120.525", "290.60", "335.45"]}, {"name": "West-sea Low", "freqs": ["128.70", "118.925", "270.50", "263.60"]}, {"name": "East-sea", "freqs": ["122.25", "125.925", "263.35", "263.85"]}, {"name": "East-sea Low", "freqs": ["134.175", "123.65", "272.40", "233.60"]}, {"name": "Pohang", "freqs": ["120.575", "119.375", "134.375", "254.70", "335.75"]}, {"name": "Daegu", "freqs": ["125.375", "125.775", "124.575", "234.15", "317.35", "335.50"]}, {"name": "South-sea", "freqs": ["128.175", "128.325", "335.50", "275.20"]}], "common": ["122.75", "262.75"], "emerg": ["121.50", "243.00"]}, {"unit": "Incheon ACC", "callsign": "Incheon Control", "sectors": [{"name": "Gunsan Low", "freqs": ["126.175", "134.375", "317.85", "335.55"]}, {"name": "Gunsan High", "freqs": ["132.15", "123.55", "263.15", "272.60"]}, {"name": "Gwangju Low", "freqs": ["120.725", "128.30", "263.90", "272.75"]}, {"name": "Gwangju High", "freqs": ["123.725", "124.50", "239.25", "275.40"]}, {"name": "Jeju North", "freqs": ["124.525", "132.425", "255.40", "348.10", "233.50"]}, {"name": "Jeju South High", "freqs": ["133.425", "134.15", "234.35", "234.65"]}, {"name": "Jeju South Low", "freqs": ["125.725", "132.825", "128.375", "232.95", "233.15"]}], "common": ["132.20", "355.50"], "emerg": ["121.50", "243.00"]}, {"unit": "Daegu FIC", "callsign": "Daegu Information", "sectors": [], "common": ["126.90", "135.725", "250.80", "258.50", "317.55", "127.10"], "emerg": ["121.50", "243.00"]}]}, "geometry": {"type": "LineString", "coordinates": [[124.0, 38.0], [124.85, 38.0], [124.855, 37.9301], [124.859, 37.8741], [124.8667, 37.7667], [124.9775, 37.6874], [125.0472, 37.6375], [125.2444, 37.5833], [125.4263, 37.6492], [125.5167, 37.6819], [125.6667, 37.6903], [125.695, 37.6917], [125.75, 37.7147], [126.0144, 37.68], [126.1028, 37.7077], [126.1111, 37.7125], [126.1362, 37.7147], [126.1607, 37.7175], [126.1666, 37.7285], [126.1775, 37.7336], [126.1872, 37.749], [126.1841, 37.7613], [126.184, 37.7705], [126.1837, 37.7784], [126.1884, 37.7838], [126.1912, 37.7971], [126.1941, 37.8085], [126.198, 37.8155], [126.2061, 37.8233], [126.2229, 37.8298], [126.228, 37.8304], [126.2375, 37.8317], [126.2648, 37.8279], [126.2758, 37.8255], [126.2936, 37.8254], [126.3084, 37.8291], [126.3581, 37.8365], [126.4136, 37.8447], [126.4251, 37.8413], [126.4422, 37.837], [126.4532, 37.828], [126.4568, 37.8199], [126.4685, 37.8119], [126.4856, 37.806], [126.4942, 37.8023], [126.5017, 37.7991], [126.52, 37.792], [126.529, 37.7902], [126.5497, 37.7813], [126.5632, 37.7717], [126.571, 37.7651], [126.5797, 37.762], [126.5913, 37.7631], [126.6035, 37.7653], [126.6134, 37.7741], [126.6252, 37.7821], [126.6376, 37.7838], [126.6475, 37.7829], [126.6626, 37.7807], [126.6642, 37.7896], [126.6631, 37.8037], [126.665, 37.8167], [126.6714, 37.8293], [126.6834, 37.8366], [126.6913, 37.8394], [126.6892, 37.8489], [126.6855, 37.8604], [126.6833, 37.8734], [126.6833, 37.9], [126.6885, 37.9119], [126.6785, 37.9202], [126.6684, 37.9316], [126.6693, 37.9435], [126.6698, 37.955], [126.6819, 37.9565], [126.6928, 37.9569], [126.7031, 37.9527], [126.7154, 37.9546], [126.7286, 37.9591], [126.7363, 37.9647], [126.7455, 37.9696], [126.7581, 37.972], [126.767, 37.9785], [126.7807, 37.9795], [126.7858, 37.9902], [126.7914, 37.9969], [126.8028, 37.9971], [126.8124, 37.9991], [126.8188, 38.0032], [126.8234, 38.0121], [126.8283, 38.0202], [126.8372, 38.0293], [126.8469, 38.0333], [126.8555, 38.0392], [126.8591, 38.0536], [126.8623, 38.0651], [126.868, 38.0724], [126.8692, 38.0836], [126.8735, 38.0929], [126.8781, 38.1006], [126.8904, 38.1022], [126.9003, 38.1027], [126.9046, 38.1107], [126.9147, 38.1172], [126.9226, 38.1193], [126.9344, 38.1268], [126.9399, 38.1336], [126.9495, 38.1344], [126.9601, 38.1333], [126.9662, 38.1376], [126.9691, 38.1466], [126.9599, 38.1517], [126.9496, 38.1575], [126.9555, 38.1628], [126.9647, 38.169], [126.9665, 38.1775], [126.9679, 38.1868], [126.9761, 38.1992], [126.9828, 38.2094], [126.9883, 38.2161], [127.0, 38.2161], [127.0056, 38.2225], [127.0128, 38.2296], [127.0197, 38.2372], [127.0283, 38.2425], [127.0329, 38.2494], [127.0421, 38.2588], [127.0569, 38.2583], [127.0686, 38.2638], [127.0735, 38.2698], [127.0774, 38.2773], [127.0949, 38.2787], [127.1014, 38.2842], [127.1074, 38.2915], [127.1163, 38.2979], [127.1264, 38.2991], [127.1307, 38.3081], [127.1395, 38.3149], [127.1473, 38.31], [127.1683, 38.3088], [127.2234, 38.3282], [127.2346, 38.3317], [127.2508, 38.3281], [127.2603, 38.3266], [127.2826, 38.3226], [127.2913, 38.3203], [127.2978, 38.3141], [127.3061, 38.3173], [127.3244, 38.3201], [127.334, 38.3211], [127.345, 38.3269], [127.3583, 38.3259], [127.3799, 38.3345], [127.3963, 38.3348], [127.4115, 38.3298], [127.4169, 38.325], [127.4256, 38.3233], [127.4375, 38.3178], [127.4508, 38.3125], [127.4594, 38.3173], [127.47, 38.316], [127.4816, 38.3069], [127.4894, 38.3047], [127.5027, 38.3017], [127.5181, 38.306], [127.5303, 38.3129], [127.5391, 38.3183], [127.5469, 38.3244], [127.5575, 38.3273], [127.5704, 38.3312], [127.5828, 38.3335], [127.6163, 38.3336], [127.6175, 38.3247], [127.6318, 38.3253], [127.644, 38.3261], [127.6538, 38.3255], [127.6689, 38.3229], [127.6827, 38.3266], [127.6937, 38.3298], [127.7002, 38.3366], [127.7135, 38.3353], [127.7214, 38.3315], [127.7299, 38.3353], [127.7358, 38.34], [127.7525, 38.3347], [127.762, 38.3374], [127.7726, 38.3408], [127.779, 38.3464], [127.7876, 38.3428], [127.7929, 38.3304], [127.7967, 38.3232], [127.8028, 38.3182], [127.8108, 38.3141], [127.8207, 38.3066], [127.8353, 38.3095], [127.8474, 38.3145], [127.8571, 38.3114], [127.8694, 38.316], [127.8822, 38.3309], [127.8967, 38.3302], [127.9167, 38.3234], [127.9387, 38.3212], [127.947, 38.3176], [127.9583, 38.3156], [127.9675, 38.319], [127.9789, 38.3207], [127.9865, 38.316], [128.0021, 38.3145], [128.0162, 38.3156], [128.0334, 38.3151], [128.0469, 38.3076], [128.0618, 38.3073], [128.0729, 38.3106], [128.0826, 38.3167], [128.0937, 38.3219], [128.1008, 38.3277], [128.1071, 38.3336], [128.1137, 38.3417], [128.1208, 38.3463], [128.1303, 38.3456], [128.1403, 38.3443], [128.1502, 38.3416], [128.1578, 38.3449], [128.1677, 38.355], [128.1764, 38.3637], [128.1843, 38.36], [128.1903, 38.3679], [128.195, 38.377], [128.2029, 38.3818], [128.2084, 38.3724], [128.2151, 38.3783], [128.2191, 38.3851], [128.2256, 38.3917], [128.2328, 38.4005], [128.2439, 38.4037], [128.2447, 38.4131], [128.2526, 38.4182], [128.2624, 38.4224], [128.2701, 38.4301], [128.2798, 38.4337], [128.2861, 38.4423], [128.2892, 38.4517], [128.2953, 38.4598], [128.2989, 38.4711], [128.3053, 38.478], [128.3014, 38.4862], [128.3037, 38.4948], [128.3074, 38.5057], [128.3132, 38.5124], [128.3127, 38.5245], [128.3107, 38.5371], [128.3122, 38.5518], [128.3155, 38.5604], [128.3121, 38.5701], [128.3135, 38.5797], [128.3091, 38.5865], [128.3124, 38.5941], [128.3226, 38.5975], [128.3323, 38.6012], [128.3429, 38.6082], [128.3558, 38.6138], [128.3768, 38.6155], [128.3932, 38.6156], [128.36667, 38.63333], [133.65, 38.63333], [133.0, 38.0], [133.0, 37.5], [129.16667, 34.66667], [127.5, 32.5], [126.83333, 32.5], [125.41667, 30.0], [124.0, 30.0], [124.0, 38.0]]}}]}