{"type": "FeatureCollection", "features": [{"type": "Feature", "properties": {"name": "TENAS", "routes": ["A586", "A586*", "B467", "L512", "Y437", "Y579"], "onRoute": true}, "geometry": {"type": "Point", "coordinates": [131.574167, 37.638889]}}, {"type": "Feature", "properties": {"name": "SABET", "routes": ["B332", "L512", "Z56"], "onRoute": true}, "geometry": {"type": "Point", "coordinates": [132.671944, 37.641389]}}, {"type": "Feature", "properties": {"name": "ANDOL(FIR BDRY)", "routes": ["L512"], "onRoute": true}, "geometry": {"type": "Point", "coordinates": [133.0, 37.666111]}}, {"type": "Feature", "properties": {"name": "BUSKO", "routes": ["B467", "Y233", "Y437"], "onRoute": true}, "geometry": {"type": "Point", "coordinates": [130.269444, 37.675833]}}, {"type": "Feature", "properties": {"name": "SELPA", "routes": ["Y233"], "onRoute": true}, "geometry": {"type": "Point", "coordinates": [130.819722, 37.920833]}}, {"type": "Feature", "properties": {"name": "ONATA", "routes": ["Y233"], "onRoute": true}, "geometry": {"type": "Point", "coordinates": [132.100556, 38.475556]}}, {"type": "Feature", "properties": {"name": "KANSU(FIR BDRY)", "routes": ["B332", "B467", "Y233", "Y437", "Z56"], "onRoute": true}, "geometry": {"type": "Point", "coordinates": [132.475, 38.633333]}}, {"type": "Feature", "properties": {"name": "DALSU", "routes": ["V543", "Y253", "Y711"], "onRoute": true}, "geometry": {"type": "Point", "coordinates": [126.701667, 35.125278]}}, {"type": "Feature", "properties": {"name": "SAMUL", "routes": ["V543", "Y253", "Y722"], "onRoute": true}, "geometry": {"type": "Point", "coordinates": [126.865, 35.126667]}}, {"type": "Feature", "properties": {"name": "TEDAN", "routes": ["V543", "Y253"], "onRoute": true}, "geometry": {"type": "Point", "coordinates": [127.314444, 35.128889]}}, {"type": "Feature", "properties": {"name": "ANUBA", "routes": ["V543", "Y253"], "onRoute": true}, "geometry": {"type": "Point", "coordinates": [127.589722, 35.129444]}}, {"type": "Feature", "properties": {"name": "SAPDI", "routes": ["V543", "Y253"], "onRoute": true}, "geometry": {"type": "Point", "coordinates": [128.497778, 35.126944]}}, {"type": "Feature", "properties": {"name": "SARAM", "routes": ["V543", "W526", "Y253", "Z83"], "onRoute": true}, "geometry": {"type": "Point", "coordinates": [128.529722, 35.126667]}}, {"type": "Feature", "properties": {"name": "ANKUS", "routes": ["V543", "Y253", "Y781"], "onRoute": true}, "geometry": {"type": "Point", "coordinates": [128.771111, 35.125]}}, {"type": "Feature", "properties": {"name": "AGAVO(FIR BDRY)", "routes": ["G597", "Y644", "Y697"], "onRoute": true}, "geometry": {"type": "Point", "coordinates": [124.0, 37.166667]}}, {"type": "Feature", "properties": {"name": "RILRO", "routes": ["Y644", "Z57"], "onRoute": true}, "geometry": {"type": "Point", "coordinates": [124.245, 37.175833]}}, {"type": "Feature", "properties": {"name": "GONAV", "routes": ["G597", "Y644", "Y655"], "onRoute": true}, "geometry": {"type": "Point", "coordinates": [124.414722, 37.18]}}, {"type": "Feature", "properties": {"name": "BODOL", "routes": ["Y644"], "onRoute": true}, "geometry": {"type": "Point", "coordinates": [124.831667, 37.189444]}}, {"type": "Feature", "properties": {"name": "REBIT", "routes": ["Y644"], "onRoute": true}, "geometry": {"type": "Point", "coordinates": [125.486944, 37.200833]}}, {"type": "Feature", "properties": {"name": "BELTU", "routes": ["Y644"], "onRoute": true}, "geometry": {"type": "Point", "coordinates": [125.799722, 37.205]}}, {"type": "Feature", "properties": {"name": "BOGAN", "routes": ["Y644"], "onRoute": true}, "geometry": {"type": "Point", "coordinates": [126.47, 37.211389]}}, {"type": "Feature", "properties": {"name": "MONSI", "routes": ["W61", "Y644", "Y711", "Z54"], "onRoute": true}, "geometry": {"type": "Point", "coordinates": [126.8375, 37.213056]}}, {"type": "Feature", "properties": {"name": "POLEG", "routes": ["A582", "B576", "B576*", "Y644", "Y782"], "onRoute": true}, "geometry": {"type": "Point", "coordinates": [126.993056, 37.213611]}}, {"type": "Feature", "properties": {"name": "EGOBA", "routes": ["G597", "W62", "Y644", "Y697", "Z50"], "onRoute": true}, "geometry": {"type": "Point", "coordinates": [127.379444, 37.4875]}}, {"type": "Feature", "properties": {"name": "DALPO", "routes": ["Y655", "Z57"], "onRoute": true}, "geometry": {"type": "Point", "coordinates": [124.414722, 36.976389]}}, {"type": "Feature", "properties": {"name": "NONOS", "routes": ["Y655", "Z55"], "onRoute": true}, "geometry": {"type": "Point", "coordinates": [124.414722, 36.679444]}}, {"type": "Feature", "properties": {"name": "BIDRI", "routes": ["Y655"], "onRoute": true}, "geometry": {"type": "Point", "coordinates": [124.414722, 36.335278]}}, {"type": "Feature", "properties": {"name": "DANPA", "routes": ["Y655"], "onRoute": true}, "geometry": {"type": "Point", "coordinates": [124.414722, 35.51]}}, {"type": "Feature", "properties": {"name": "PALSA", "routes": ["Y655"], "onRoute": true}, "geometry": {"type": "Point", "coordinates": [124.414722, 34.025278]}}, {"type": "Feature", "properties": {"name": "TOLIS", "routes": ["Y655", "Y677"], "onRoute": true}, "geometry": {"type": "Point", "coordinates": [124.414722, 33.841667]}}, {"type": "Feature", "properties": {"name": "ENSUM", "routes": ["Y655"], "onRoute": true}, "geometry": {"type": "Point", "coordinates": [124.776389, 32.217222]}}, {"type": "Feature", "properties": {"name": "BONSO", "routes": ["Y655", "Y711", "Z86"], "onRoute": true}, "geometry": {"type": "Point", "coordinates": [125.1475, 30.477778]}}, {"type": "Feature", "properties": {"name": "ATOTI(FIR BDRY)", "routes": ["B576*", "Y655", "Y722", "Z86"], "onRoute": true}, "geometry": {"type": "Point", "coordinates": [125.198333, 30.003611]}}, {"type": "Feature", "properties": {"name": "IGDOK", "routes": ["V547", "Y657"], "onRoute": true}, "geometry": {"type": "Point", "coordinates": [127.818611, 35.517778]}}, {"type": "Feature", "properties": {"name": "ELPOS", "routes": ["V549", "Y659", "Y711"], "onRoute": true}, "geometry": {"type": "Point", "coordinates": [126.785278, 35.902778]}}, {"type": "Feature", "properties": {"name": "RINBO", "routes": ["B576", "B576*", "V549", "Y659"], "onRoute": true}, "geometry": {"type": "Point", "coordinates": [126.896944, 35.897778]}}, {"type": "Feature", "properties": {"name": "MELES", "routes": ["V549", "Y659"], "onRoute": true}, "geometry": {"type": "Point", "coordinates": [127.261667, 35.880833]}}, {"type": "Feature", "properties": {"name": "OPEDA", "routes": ["V549", "Y659"], "onRoute": true}, "geometry": {"type": "Point", "coordinates": [127.614444, 35.863611]}}, {"type": "Feature", "properties": {"name": "LAPAL", "routes": ["V549", "Y659"], "onRoute": true}, "geometry": {"type": "Point", "coordinates": [129.081111, 35.903611]}}, {"type": "Feature", "properties": {"name": "LIMDI", "routes": ["Y677"], "onRoute": true}, "geometry": {"type": "Point", "coordinates": [125.831389, 33.553611]}}, {"type": "Feature", "properties": {"name": "REMOS", "routes": ["Y677", "Y711"], "onRoute": true}, "geometry": {"type": "Point", "coordinates": [126.391389, 33.434722]}}, {"type": "Feature", "properties": {"name": "TAMNA", "routes": ["A595", "Y677"], "onRoute": true}, "geometry": {"type": "Point", "coordinates": [127.331389, 33.470833]}}, {"type": "Feature", "properties": {"name": "SAMDO(FIR BDRY)", "routes": ["A595", "Y677"], "onRoute": true}, "geometry": {"type": "Point", "coordinates": [128.315833, 33.584167]}}, {"type": "Feature", "properties": {"name": "KALMA", "routes": ["G585", "Y685"], "onRoute": true}, "geometry": {"type": "Point", "coordinates": [127.1125, 37.3125]}}, {"type": "Feature", "properties": {"name": "KAKSO", "routes": ["G585", "Y685", "Z52"], "onRoute": true}, "geometry": {"type": "Point", "coordinates": [127.443611, 37.129167]}}, {"type": "Feature", "properties": {"name": "GUKDO", "routes": ["G585", "Y685"], "onRoute": true}, "geometry": {"type": "Point", "coordinates": [127.639722, 37.019722]}}, {"type": "Feature", "properties": {"name": "ENSAL", "routes": ["G585", "Y685"], "onRoute": true}, "geometry": {"type": "Point", "coordinates": [127.796389, 36.931667]}}, {"type": "Feature", "properties": {"name": "BASEM", "routes": ["G585", "Y685", "Z53"], "onRoute": true}, "geometry": {"type": "Point", "coordinates": [127.952778, 36.843611]}}, {"type": "Feature", "properties": {"name": "BIGOB", "routes": ["G585", "Y685"], "onRoute": true}, "geometry": {"type": "Point", "coordinates": [128.164444, 36.723611]}}, {"type": "Feature", "properties": {"name": "ELAPI", "routes": ["G585", "Y685"], "onRoute": true}, "geometry": {"type": "Point", "coordinates": [128.8475, 36.337222]}}, {"type": "Feature", "properties": {"name": "BULGA", "routes": ["A586", "A586*", "G585", "Y579", "Y685"], "onRoute": true}, "geometry": {"type": "Point", "coordinates": [129.823333, 35.935833]}}, {"type": "Feature", "properties": {"name": "SAPRA", "routes": ["G585", "Y685"], "onRoute": true}, "geometry": {"type": "Point", "coordinates": [130.723611, 35.823889]}}, {"type": "Feature", "properties": {"name": "OLBIM", "routes": ["Y697"], "onRoute": true}, "geometry": {"type": "Point", "coordinates": [124.130833, 37.236389]}}, {"type": "Feature", "properties": {"name": "NOGON", "routes": ["Y697"], "onRoute": true}, "geometry": {"type": "Point", "coordinates": [124.418056, 37.380556]}}, {"type": "Feature", "properties": {"name": "ANSIM", "routes": ["G597", "Y697"], "onRoute": true}, "geometry": {"type": "Point", "coordinates": [124.835833, 37.389722]}}, {"type": "Feature", "properties": {"name": "BINIL", "routes": ["G597", "Y697"], "onRoute": true}, "geometry": {"type": "Point", "coordinates": [125.233056, 37.396944]}}, {"type": "Feature", "properties": {"name": "NOPIK", "routes": ["G597", "Y697"], "onRoute": true}, "geometry": {"type": "Point", "coordinates": [125.651389, 37.403333]}}, {"type": "Feature", "properties": {"name": "GOGET", "routes": ["G597", "W61", "Y697", "Z54"], "onRoute": true}, "geometry": {"type": "Point", "coordinates": [126.51, 37.411667]}}, {"type": "Feature", "properties": {"name": "KARBU", "routes": ["G597", "Y697"], "onRoute": true}, "geometry": {"type": "Point", "coordinates": [127.664444, 37.533056]}}, {"type": "Feature", "properties": {"name": "TORUS", "routes": ["G597", "Y697"], "onRoute": true}, "geometry": {"type": "Point", "coordinates": [128.135278, 37.606944]}}, {"type": "Feature", "properties": {"name": "BIKSI", "routes": ["G597", "Y697"], "onRoute": true}, "geometry": {"type": "Point", "coordinates": [128.584444, 37.675556]}}, {"type": "Feature", "properties": {"name": "PILIT", "routes": ["G597", "V11", "Y697", "Y744", "Z63"], "onRoute": true}, "geometry": {"type": "Point", "coordinates": [129.291944, 37.441944]}}, {"type": "Feature", "properties": {"name": "ESNEG", "routes": ["G597", "Y697"], "onRoute": true}, "geometry": {"type": "Point", "coordinates": [129.8475, 37.170556]}}, {"type": "Feature", "properties": {"name": "AGSUS", "routes": ["A586", "A586*", "G597", "Y579", "Y697"], "onRoute": true}, "geometry": {"type": "Point", "coordinates": [130.678889, 36.755833]}}, {"type": "Feature", "properties": {"name": "LANAT(FIR BDRY)", "routes": ["G597", "Y697"], "onRoute": true}, "geometry": {"type": "Point", "coordinates": [131.428333, 36.373333]}}, {"type": "Feature", "properties": {"name": "BULTI", "routes": ["Y711", "Z50"], "onRoute": true}, "geometry": {"type": "Point", "coordinates": [126.825, 36.722778]}}, {"type": "Feature", "properties": {"name": "MEKIL", "routes": ["Y711"], "onRoute": true}, "geometry": {"type": "Point", "coordinates": [126.831389, 36.556111]}}, {"type": "Feature", "properties": {"name": "GONAX", "routes": ["Y711"], "onRoute": true}, "geometry": {"type": "Point", "coordinates": [126.837778, 36.386389]}}, {"type": "Feature", "properties": {"name": "BEDES", "routes": ["Y711", "Z51"], "onRoute": true}, "geometry": {"type": "Point", "coordinates": [126.812222, 36.151389]}}, {"type": "Feature", "properties": {"name": "MANGI", "routes": ["Y711"], "onRoute": true}, "geometry": {"type": "Point", "coordinates": [126.742222, 35.503056]}}, {"type": "Feature", "properties": {"name": "NULDI", "routes": ["Y711"], "onRoute": true}, "geometry": {"type": "Point", "coordinates": [126.6275, 34.420556]}}, {"type": "Feature", "properties": {"name": "DOTOL", "routes": ["Y711"], "onRoute": true}, "geometry": {"type": "Point", "coordinates": [126.610278, 34.254167]}}, {"type": "Feature", "properties": {"name": "KIDOS", "routes": ["Y711", "Z81"], "onRoute": true}, "geometry": {"type": "Point", "coordinates": [126.567222, 33.841111]}}, {"type": "Feature", "properties": {"name": "PANSI", "routes": ["Y711", "Z82"], "onRoute": true}, "geometry": {"type": "Point", "coordinates": [126.206944, 33.003889]}}, {"type": "Feature", "properties": {"name": "DOMKO", "routes": ["Y711"], "onRoute": true}, "geometry": {"type": "Point", "coordinates": [125.983056, 32.48]}}, {"type": "Feature", "properties": {"name": "PONIK", "routes": ["A593", "Y711"], "onRoute": true}, "geometry": {"type": "Point", "coordinates": [125.783056, 32.005833]}}, {"type": "Feature", "properties": {"name": "IKEDO", "routes": ["Y590", "Y711"], "onRoute": true}, "geometry": {"type": "Point", "coordinates": [125.663333, 31.720556]}}, {"type": "Feature", "properties": {"name": "KANKA", "routes": ["Y711"], "onRoute": true}, "geometry": {"type": "Point", "coordinates": [125.584444, 31.531944]}}, {"type": "Feature", "properties": {"name": "MUGUS", "routes": ["Y711"], "onRoute": true}, "geometry": {"type": "Point", "coordinates": [124.953333, 30.001667]}}, {"type": "Feature", "properties": {"name": "OLMEN", "routes": ["B576", "B576*", "Y722", "Z52"], "onRoute": true}, "geometry": {"type": "Point", "coordinates": [126.991111, 36.736944]}}, {"type": "Feature", "properties": {"name": "GUNKU", "routes": ["Y722"], "onRoute": true}, "geometry": {"type": "Point", "coordinates": [126.996944, 36.570556]}}, {"type": "Feature", "properties": {"name": "PEBRI", "routes": ["Y722"], "onRoute": true}, "geometry": {"type": "Point", "coordinates": [127.003611, 36.386389]}}, {"type": "Feature", "properties": {"name": "ATASO", "routes": ["Y722"], "onRoute": true}, "geometry": {"type": "Point", "coordinates": [126.949167, 35.895556]}}, {"type": "Feature", "properties": {"name": "MAKSA", "routes": ["Y722"], "onRoute": true}, "geometry": {"type": "Point", "coordinates": [126.906111, 35.503056]}}, {"type": "Feature", "properties": {"name": "KAMIT", "routes": ["Y722"], "onRoute": true}, "geometry": {"type": "Point", "coordinates": [126.771667, 34.253889]}}, {"type": "Feature", "properties": {"name": "GUKSU", "routes": ["Y722"], "onRoute": true}, "geometry": {"type": "Point", "coordinates": [126.7325, 33.880833]}}, {"type": "Feature", "properties": {"name": "LOSNI", "routes": ["Y722"], "onRoute": true}, "geometry": {"type": "Point", "coordinates": [126.698056, 33.554167]}}, {"type": "Feature", "properties": {"name": "SOSDO", "routes": ["B576", "B576*", "Y571", "Y722"], "onRoute": true}, "geometry": {"type": "Point", "coordinates": [126.459722, 33.003333]}}, {"type": "Feature", "properties": {"name": "SAMLO", "routes": ["B576", "B576*", "Y722"], "onRoute": true}, "geometry": {"type": "Point", "coordinates": [126.26, 32.539722]}}, {"type": "Feature", "properties": {"name": "NIRAT", "routes": ["A593", "B576", "B576*", "Y722"], "onRoute": true}, "geometry": {"type": "Point", "coordinates": [126.058056, 32.065]}}, {"type": "Feature", "properties": {"name": "ELGEP", "routes": ["B576", "B576*", "Y590", "Y722"], "onRoute": true}, "geometry": {"type": "Point", "coordinates": [125.938056, 31.781389]}}, {"type": "Feature", "properties": {"name": "TESIM", "routes": ["B576", "B576*", "Y722"], "onRoute": true}, "geometry": {"type": "Point", "coordinates": [125.857778, 31.590556]}}, {"type": "Feature", "properties": {"name": "NOBUT", "routes": ["V11", "Y744"], "onRoute": true}, "geometry": {"type": "Point", "coordinates": [129.3325, 37.120833]}}, {"type": "Feature", "properties": {"name": "OSVOM", "routes": ["V11", "Y744"], "onRoute": true}, "geometry": {"type": "Point", "coordinates": [129.391944, 36.645556]}}, {"type": "Feature", "properties": {"name": "LOSTO", "routes": ["V11", "Y744"], "onRoute": true}, "geometry": {"type": "Point", "coordinates": [129.43, 36.337778]}}, {"type": "Feature", "properties": {"name": "APARU", "routes": ["V11", "Y744"], "onRoute": true}, "geometry": {"type": "Point", "coordinates": [129.158889, 35.411667]}}, {"type": "Feature", "properties": {"name": "MASTA", "routes": ["W526", "Y781", "Z83"], "onRoute": true}, "geometry": {"type": "Point", "coordinates": [128.561111, 35.479722]}}, {"type": "Feature", "properties": {"name": "OMOTU", "routes": ["A586", "A586*", "Y781"], "onRoute": true}, "geometry": {"type": "Point", "coordinates": [128.839444, 35.009167]}}, {"type": "Feature", "properties": {"name": "BESNA(FIR BDRY)", "routes": ["Y781"], "onRoute": true}, "geometry": {"type": "Point", "coordinates": [129.130833, 34.621667]}}, {"type": "Feature", "properties": {"name": "OSPOT", "routes": ["A582", "Y782"], "onRoute": true}, "geometry": {"type": "Point", "coordinates": [127.348611, 36.838333]}}, {"type": "Feature", "properties": {"name": "VASLI", "routes": ["A582", "Y782"], "onRoute": true}, "geometry": {"type": "Point", "coordinates": [127.500833, 36.714444]}}, {"type": "Feature", "properties": {"name": "MAKDU", "routes": ["A582", "Y782"], "onRoute": true}, "geometry": {"type": "Point", "coordinates": [127.819167, 36.453333]}}, {"type": "Feature", "properties": {"name": "BITUX", "routes": ["A582", "Y782", "Z53"], "onRoute": true}, "geometry": {"type": "Point", "coordinates": [128.03, 36.279167]}}, {"type": "Feature", "properties": {"name": "KALOD", "routes": ["A582", "Y782"], "onRoute": true}, "geometry": {"type": "Point", "coordinates": [128.773889, 35.503333]}}, {"type": "Feature", "properties": {"name": "APELA", "routes": ["A582", "Y782"], "onRoute": true}, "geometry": {"type": "Point", "coordinates": [129.233333, 34.723056]}}, {"type": "Feature", "properties": {"name": "LESBU", "routes": ["B467", "Y437", "Z63"], "onRoute": true}, "geometry": {"type": "Point", "coordinates": [129.684444, 37.687778]}}, {"type": "Feature", "properties": {"name": "UGOVI", "routes": ["B467", "Y437"], "onRoute": true}, "geometry": {"type": "Point", "coordinates": [129.8475, 37.684722]}}, {"type": "Feature", "properties": {"name": "MALSO", "routes": ["B467", "Y437"], "onRoute": true}, "geometry": {"type": "Point", "coordinates": [131.817778, 37.911111]}}, {"type": "Feature", "properties": {"name": "OMKIM", "routes": ["Y571", "Y572"], "onRoute": true}, "geometry": {"type": "Point", "coordinates": [126.687222, 33.222222]}}, {"type": "Feature", "properties": {"name": "PAPLU", "routes": ["Y571", "Z85"], "onRoute": true}, "geometry": {"type": "Point", "coordinates": [127.060278, 33.578056]}}, {"type": "Feature", "properties": {"name": "AKPON", "routes": ["Y571"], "onRoute": true}, "geometry": {"type": "Point", "coordinates": [127.331389, 33.780556]}}, {"type": "Feature", "properties": {"name": "NISAV", "routes": ["Y571"], "onRoute": true}, "geometry": {"type": "Point", "coordinates": [127.976389, 34.255278]}}, {"type": "Feature", "properties": {"name": "ANROD", "routes": ["Y571", "Z83"], "onRoute": true}, "geometry": {"type": "Point", "coordinates": [128.497778, 34.632778]}}, {"type": "Feature", "properties": {"name": "POVEM", "routes": ["Y571"], "onRoute": true}, "geometry": {"type": "Point", "coordinates": [128.904444, 34.923056]}}, {"type": "Feature", "properties": {"name": "OLMUD", "routes": ["Y572"], "onRoute": true}, "geometry": {"type": "Point", "coordinates": [128.821111, 35.040278]}}, {"type": "Feature", "properties": {"name": "ENGOT", "routes": ["Y572", "Z83"], "onRoute": true}, "geometry": {"type": "Point", "coordinates": [128.497778, 34.809444]}}, {"type": "Feature", "properties": {"name": "UPGOS", "routes": ["Y572"], "onRoute": true}, "geometry": {"type": "Point", "coordinates": [127.331389, 33.959167]}}, {"type": "Feature", "properties": {"name": "BILUM", "routes": ["Y572", "Z85"], "onRoute": true}, "geometry": {"type": "Point", "coordinates": [127.0775, 33.770278]}}, {"type": "Feature", "properties": {"name": "BEPKO", "routes": ["Y572"], "onRoute": true}, "geometry": {"type": "Point", "coordinates": [126.920556, 33.652778]}}, {"type": "Feature", "properties": {"name": "TOSAN", "routes": ["A586", "A586*", "Y572"], "onRoute": true}, "geometry": {"type": "Point", "coordinates": [126.771944, 33.003333]}}, {"type": "Feature", "properties": {"name": "RUGMA(FIR BDRY)", "routes": ["A586*", "Y572", "Z85"], "onRoute": true}, "geometry": {"type": "Point", "coordinates": [126.964722, 32.503333]}}, {"type": "Feature", "properties": {"name": "DABIK", "routes": ["A586", "A586*", "Y579"], "onRoute": true}, "geometry": {"type": "Point", "coordinates": [130.195278, 36.295278]}}, {"type": "Feature", "properties": {"name": "BEDOM", "routes": ["A586", "A586*", "Y579"], "onRoute": true}, "geometry": {"type": "Point", "coordinates": [129.298333, 35.420278]}}, {"type": "Feature", "properties": {"name": "BOPTA", "routes": ["Z51"], "onRoute": true}, "geometry": {"type": "Point", "coordinates": [126.616111, 36.735]}}, {"type": "Feature", "properties": {"name": "MOXID", "routes": ["Z51"], "onRoute": true}, "geometry": {"type": "Point", "coordinates": [126.733056, 36.386389]}}, {"type": "Feature", "properties": {"name": "POSAN", "routes": ["Z52"], "onRoute": true}, "geometry": {"type": "Point", "coordinates": [127.221111, 36.9375]}}, {"type": "Feature", "properties": {"name": "TEBEX", "routes": ["Z53"], "onRoute": true}, "geometry": {"type": "Point", "coordinates": [127.991389, 36.561389]}}, {"type": "Feature", "properties": {"name": "AGAVO", "routes": ["Z55"], "onRoute": true}, "geometry": {"type": "Point", "coordinates": [124.0, 37.166667]}}, {"type": "Feature", "properties": {"name": "PALDU", "routes": ["B332", "Z56"], "onRoute": true}, "geometry": {"type": "Point", "coordinates": [132.606944, 37.970278]}}, {"type": "Feature", "properties": {"name": "IGRAS(FIR BDRY)", "routes": ["B332", "Z56"], "onRoute": true}, "geometry": {"type": "Point", "coordinates": [132.736389, 37.312778]}}, {"type": "Feature", "properties": {"name": "KALEK(FIR BDRY)", "routes": ["Z84"], "onRoute": true}, "geometry": {"type": "Point", "coordinates": [129.884722, 35.208889]}}, {"type": "Feature", "properties": {"name": "INVOK(FIR BDRY)", "routes": ["G339", "Z91"], "onRoute": true}, "geometry": {"type": "Point", "coordinates": [129.323056, 34.788611]}}, {"type": "Feature", "properties": {"name": "BEDAR(FIR BDRY)", "routes": ["Y590"], "onRoute": true}, "geometry": {"type": "Point", "coordinates": [126.486111, 31.900278]}}, {"type": "Feature", "properties": {"name": "SADLI", "routes": ["A593", "Y590"], "onRoute": true}, "geometry": {"type": "Point", "coordinates": [125.0, 31.83]}}, {"type": "Feature", "properties": {"name": "TOPAX", "routes": ["A586", "A586*", "W526"], "onRoute": true}, "geometry": {"type": "Point", "coordinates": [128.497778, 34.765278]}}, {"type": "Feature", "properties": {"name": "GOSBO", "routes": ["A586", "A586*"], "onRoute": true}, "geometry": {"type": "Point", "coordinates": [127.792778, 34.254722]}}, {"type": "Feature", "properties": {"name": "MAKET", "routes": ["A586", "A586*"], "onRoute": true}, "geometry": {"type": "Point", "coordinates": [127.331389, 33.914444]}}, {"type": "Feature", "properties": {"name": "ATINA", "routes": ["A586", "A586*"], "onRoute": true}, "geometry": {"type": "Point", "coordinates": [127.073056, 33.722222]}}, {"type": "Feature", "properties": {"name": "MANOL", "routes": ["A586", "A586*"], "onRoute": true}, "geometry": {"type": "Point", "coordinates": [126.920556, 33.608056]}}, {"type": "Feature", "properties": {"name": "ONIKU", "routes": ["A593"], "onRoute": true}, "geometry": {"type": "Point", "coordinates": [126.654722, 32.195]}}, {"type": "Feature", "properties": {"name": "LAMEN", "routes": ["A593"], "onRoute": true}, "geometry": {"type": "Point", "coordinates": [124.0, 31.61]}}, {"type": "Feature", "properties": {"name": "ENTEL", "routes": ["B576", "B576*"], "onRoute": true}, "geometry": {"type": "Point", "coordinates": [126.951389, 36.386389]}}, {"type": "Feature", "properties": {"name": "LINTA", "routes": ["B576", "B576*"], "onRoute": true}, "geometry": {"type": "Point", "coordinates": [126.855278, 35.521111]}}, {"type": "Feature", "properties": {"name": "IPDAS", "routes": ["B576", "B576*"], "onRoute": true}, "geometry": {"type": "Point", "coordinates": [126.716944, 34.254167]}}, {"type": "Feature", "properties": {"name": "DANTI", "routes": ["G597"], "onRoute": true}, "geometry": {"type": "Point", "coordinates": [124.658056, 37.301667]}}, {"type": "Feature", "properties": {"name": "RIMPO", "routes": ["W45"], "onRoute": true}, "geometry": {"type": "Point", "coordinates": [127.583889, 35.1275]}}, {"type": "Feature", "properties": {"name": "RUNIT", "routes": ["W45"], "onRoute": true}, "geometry": {"type": "Point", "coordinates": [128.497778, 35.126111]}}, {"type": "Feature", "properties": {"name": "OROGA", "routes": [], "onRoute": false}, "geometry": {"type": "Point", "coordinates": [127.455, 36.748889]}}, {"type": "Feature", "properties": {"name": "SAKTI", "routes": [], "onRoute": false}, "geometry": {"type": "Point", "coordinates": [127.766667, 36.85]}}, {"type": "Feature", "properties": {"name": "ANBOG", "routes": [], "onRoute": false}, "geometry": {"type": "Point", "coordinates": [126.342222, 37.5875]}}, {"type": "Feature", "properties": {"name": "ANPEM", "routes": [], "onRoute": false}, "geometry": {"type": "Point", "coordinates": [126.630278, 37.628889]}}, {"type": "Feature", "properties": {"name": "ATKON", "routes": [], "onRoute": false}, "geometry": {"type": "Point", "coordinates": [126.306389, 37.566667]}}, {"type": "Feature", "properties": {"name": "ATNER", "routes": [], "onRoute": false}, "geometry": {"type": "Point", "coordinates": [126.314722, 37.104444]}}, {"type": "Feature", "properties": {"name": "BATAP", "routes": [], "onRoute": false}, "geometry": {"type": "Point", "coordinates": [126.554722, 37.348611]}}, {"type": "Feature", "properties": {"name": "BIRIN", "routes": [], "onRoute": false}, "geometry": {"type": "Point", "coordinates": [126.652778, 37.243889]}}, {"type": "Feature", "properties": {"name": "BITIM", "routes": [], "onRoute": false}, "geometry": {"type": "Point", "coordinates": [126.41, 37.68]}}, {"type": "Feature", "properties": {"name": "BOBIB", "routes": [], "onRoute": false}, "geometry": {"type": "Point", "coordinates": [127.066389, 37.092222]}}, {"type": "Feature", "properties": {"name": "BODEK", "routes": [], "onRoute": false}, "geometry": {"type": "Point", "coordinates": [126.495, 37.376944]}}, {"type": "Feature", "properties": {"name": "BOPKI", "routes": [], "onRoute": false}, "geometry": {"type": "Point", "coordinates": [126.775, 36.908889]}}, {"type": "Feature", "properties": {"name": "DALKA", "routes": [], "onRoute": false}, "geometry": {"type": "Point", "coordinates": [126.575, 37.293333]}}, {"type": "Feature", "properties": {"name": "EKITO", "routes": [], "onRoute": false}, "geometry": {"type": "Point", "coordinates": [126.4475, 37.670278]}}, {"type": "Feature", "properties": {"name": "ELGUK", "routes": [], "onRoute": false}, "geometry": {"type": "Point", "coordinates": [125.756944, 37.333056]}}, {"type": "Feature", "properties": {"name": "ELMAP", "routes": [], "onRoute": false}, "geometry": {"type": "Point", "coordinates": [127.1875, 37.271111]}}, {"type": "Feature", "properties": {"name": "EMSOS", "routes": [], "onRoute": false}, "geometry": {"type": "Point", "coordinates": [126.261944, 37.267778]}}, {"type": "Feature", "properties": {"name": "ENBUK", "routes": [], "onRoute": false}, "geometry": {"type": "Point", "coordinates": [126.521944, 37.391944]}}, {"type": "Feature", "properties": {"name": "ENPIL", "routes": [], "onRoute": false}, "geometry": {"type": "Point", "coordinates": [126.726111, 37.160833]}}, {"type": "Feature", "properties": {"name": "EXUTO", "routes": [], "onRoute": false}, "geometry": {"type": "Point", "coordinates": [126.624722, 36.885833]}}, {"type": "Feature", "properties": {"name": "GOKAK", "routes": [], "onRoute": false}, "geometry": {"type": "Point", "coordinates": [126.558611, 37.350556]}}, {"type": "Feature", "properties": {"name": "HANEE", "routes": [], "onRoute": false}, "geometry": {"type": "Point", "coordinates": [126.308056, 37.518056]}}, {"type": "Feature", "properties": {"name": "IGPER", "routes": [], "onRoute": false}, "geometry": {"type": "Point", "coordinates": [126.402778, 37.525833]}}, {"type": "Feature", "properties": {"name": "IPKOL", "routes": [], "onRoute": false}, "geometry": {"type": "Point", "coordinates": [126.285278, 37.618611]}}, {"type": "Feature", "properties": {"name": "KAGOK", "routes": [], "onRoute": false}, "geometry": {"type": "Point", "coordinates": [126.626111, 37.228889]}}, {"type": "Feature", "properties": {"name": "KIDAB", "routes": [], "onRoute": false}, "geometry": {"type": "Point", "coordinates": [126.518056, 37.389722]}}, {"type": "Feature", "properties": {"name": "LAPOP", "routes": [], "onRoute": false}, "geometry": {"type": "Point", "coordinates": [126.121389, 37.093611]}}, {"type": "Feature", "properties": {"name": "LASIG", "routes": [], "onRoute": false}, "geometry": {"type": "Point", "coordinates": [126.745833, 37.545556]}}, {"type": "Feature", "properties": {"name": "LEGOP", "routes": [], "onRoute": false}, "geometry": {"type": "Point", "coordinates": [126.561389, 36.9875]}}, {"type": "Feature", "properties": {"name": "LEGUN", "routes": [], "onRoute": false}, "geometry": {"type": "Point", "coordinates": [126.594167, 37.304167]}}, {"type": "Feature", "properties": {"name": "LENBI", "routes": [], "onRoute": false}, "geometry": {"type": "Point", "coordinates": [126.571111, 37.291111]}}, {"type": "Feature", "properties": {"name": "MABLO", "routes": [], "onRoute": false}, "geometry": {"type": "Point", "coordinates": [126.581944, 37.438611]}}, {"type": "Feature", "properties": {"name": "MUMUT", "routes": [], "onRoute": false}, "geometry": {"type": "Point", "coordinates": [126.3975, 37.525278]}}, {"type": "Feature", "properties": {"name": "MUNAN", "routes": [], "onRoute": false}, "geometry": {"type": "Point", "coordinates": [126.198056, 37.569167]}}, {"type": "Feature", "properties": {"name": "NIPUT", "routes": [], "onRoute": false}, "geometry": {"type": "Point", "coordinates": [126.63, 37.231111]}}, {"type": "Feature", "properties": {"name": "NODUN", "routes": [], "onRoute": false}, "geometry": {"type": "Point", "coordinates": [127.341111, 37.186111]}}, {"type": "Feature", "properties": {"name": "NOKEB", "routes": [], "onRoute": false}, "geometry": {"type": "Point", "coordinates": [126.310278, 37.213333]}}, {"type": "Feature", "properties": {"name": "NOPEN", "routes": [], "onRoute": false}, "geometry": {"type": "Point", "coordinates": [126.383056, 37.548333]}}, {"type": "Feature", "properties": {"name": "NUTBO", "routes": [], "onRoute": false}, "geometry": {"type": "Point", "coordinates": [126.416389, 37.510556]}}, {"type": "Feature", "properties": {"name": "OLKIK", "routes": [], "onRoute": false}, "geometry": {"type": "Point", "coordinates": [126.281667, 37.616667]}}, {"type": "Feature", "properties": {"name": "OLTEM", "routes": [], "onRoute": false}, "geometry": {"type": "Point", "coordinates": [126.346111, 37.671667]}}, {"type": "Feature", "properties": {"name": "OSERI", "routes": [], "onRoute": false}, "geometry": {"type": "Point", "coordinates": [126.356111, 37.533056]}}, {"type": "Feature", "properties": {"name": "PAMBI", "routes": [], "onRoute": false}, "geometry": {"type": "Point", "coordinates": [126.542778, 37.181667]}}, {"type": "Feature", "properties": {"name": "PIBAK", "routes": [], "onRoute": false}, "geometry": {"type": "Point", "coordinates": [126.597778, 37.306111]}}, {"type": "Feature", "properties": {"name": "PIKAR", "routes": [], "onRoute": false}, "geometry": {"type": "Point", "coordinates": [126.412778, 37.509167]}}, {"type": "Feature", "properties": {"name": "PIPAN", "routes": [], "onRoute": false}, "geometry": {"type": "Point", "coordinates": [126.498889, 37.379167]}}, {"type": "Feature", "properties": {"name": "POMIM", "routes": [], "onRoute": false}, "geometry": {"type": "Point", "coordinates": [126.139444, 37.29]}}, {"type": "Feature", "properties": {"name": "POSEP", "routes": [], "onRoute": false}, "geometry": {"type": "Point", "coordinates": [126.222778, 37.472778]}}, {"type": "Feature", "properties": {"name": "POSOK", "routes": [], "onRoute": false}, "geometry": {"type": "Point", "coordinates": [126.649167, 37.241667]}}, {"type": "Feature", "properties": {"name": "PUDIM", "routes": [], "onRoute": false}, "geometry": {"type": "Point", "coordinates": [126.308333, 37.631667]}}, {"type": "Feature", "properties": {"name": "RUMRI", "routes": [], "onRoute": false}, "geometry": {"type": "Point", "coordinates": [126.358333, 37.536944]}}, {"type": "Feature", "properties": {"name": "SAKOS", "routes": [], "onRoute": false}, "geometry": {"type": "Point", "coordinates": [126.346111, 37.589444]}}, {"type": "Feature", "properties": {"name": "SANLA", "routes": [], "onRoute": false}, "geometry": {"type": "Point", "coordinates": [126.344167, 37.227778]}}, {"type": "Feature", "properties": {"name": "SEGBO", "routes": [], "onRoute": false}, "geometry": {"type": "Point", "coordinates": [126.366667, 37.522778]}}, {"type": "Feature", "properties": {"name": "TASUR", "routes": [], "onRoute": false}, "geometry": {"type": "Point", "coordinates": [126.304444, 37.629444]}}, {"type": "Feature", "properties": {"name": "TESIK", "routes": [], "onRoute": false}, "geometry": {"type": "Point", "coordinates": [126.909722, 37.271389]}}, {"type": "Feature", "properties": {"name": "UDIDA", "routes": [], "onRoute": false}, "geometry": {"type": "Point", "coordinates": [126.623056, 37.028889]}}, {"type": "Feature", "properties": {"name": "UPROR", "routes": [], "onRoute": false}, "geometry": {"type": "Point", "coordinates": [126.379167, 37.546111]}}, {"type": "Feature", "properties": {"name": "UPSOM", "routes": [], "onRoute": false}, "geometry": {"type": "Point", "coordinates": [127.317778, 37.4775]}}, {"type": "Feature", "properties": {"name": "VIMER", "routes": [], "onRoute": false}, "geometry": {"type": "Point", "coordinates": [126.623611, 36.984167]}}, {"type": "Feature", "properties": {"name": "APOMO", "routes": [], "onRoute": false}, "geometry": {"type": "Point", "coordinates": [127.184556, 37.455806]}}, {"type": "Feature", "properties": {"name": "BUMSI", "routes": [], "onRoute": false}, "geometry": {"type": "Point", "coordinates": [127.169333, 37.252833]}}, {"type": "Feature", "properties": {"name": "CAVOI", "routes": [], "onRoute": false}, "geometry": {"type": "Point", "coordinates": [126.560278, 37.533889]}}, {"type": "Feature", "properties": {"name": "DOKDO", "routes": [], "onRoute": false}, "geometry": {"type": "Point", "coordinates": [126.551972, 37.604722]}}, {"type": "Feature", "properties": {"name": "LEGAK", "routes": [], "onRoute": false}, "geometry": {"type": "Point", "coordinates": [124.830861, 37.055833]}}, {"type": "Feature", "properties": {"name": "MOBAK", "routes": [], "onRoute": false}, "geometry": {"type": "Point", "coordinates": [126.990333, 37.401306]}}, {"type": "Feature", "properties": {"name": "NOGUB", "routes": [], "onRoute": false}, "geometry": {"type": "Point", "coordinates": [127.057222, 37.347778]}}, {"type": "Feature", "properties": {"name": "PUDUB", "routes": [], "onRoute": false}, "geometry": {"type": "Point", "coordinates": [127.060278, 37.340833]}}, {"type": "Feature", "properties": {"name": "SUNEM", "routes": [], "onRoute": false}, "geometry": {"type": "Point", "coordinates": [126.839417, 37.2835]}}, {"type": "Feature", "properties": {"name": "SUPOM", "routes": [], "onRoute": false}, "geometry": {"type": "Point", "coordinates": [127.204722, 37.363056]}}, {"type": "Feature", "properties": {"name": "WONKO", "routes": [], "onRoute": false}, "geometry": {"type": "Point", "coordinates": [126.985556, 37.400556]}}, {"type": "Feature", "properties": {"name": "AKBIN", "routes": [], "onRoute": false}, "geometry": {"type": "Point", "coordinates": [126.248611, 33.522778]}}, {"type": "Feature", "properties": {"name": "ATIMO", "routes": [], "onRoute": false}, "geometry": {"type": "Point", "coordinates": [126.730833, 33.397778]}}, {"type": "Feature", "properties": {"name": "BIROM", "routes": [], "onRoute": false}, "geometry": {"type": "Point", "coordinates": [126.386111, 33.792778]}}, {"type": "Feature", "properties": {"name": "CHUJA", "routes": [], "onRoute": false}, "geometry": {"type": "Point", "coordinates": [126.583333, 33.996389]}}, {"type": "Feature", "properties": {"name": "DAKPI", "routes": [], "onRoute": false}, "geometry": {"type": "Point", "coordinates": [125.888611, 33.403333]}}, {"type": "Feature", "properties": {"name": "DOKVU", "routes": [], "onRoute": false}, "geometry": {"type": "Point", "coordinates": [127.005278, 33.913889]}}, {"type": "Feature", "properties": {"name": "DUKAL", "routes": [], "onRoute": false}, "geometry": {"type": "Point", "coordinates": [126.760833, 33.649722]}}, {"type": "Feature", "properties": {"name": "KIBEK", "routes": [], "onRoute": false}, "geometry": {"type": "Point", "coordinates": [127.1675, 34.056389]}}, {"type": "Feature", "properties": {"name": "LEDIN", "routes": [], "onRoute": false}, "geometry": {"type": "Point", "coordinates": [126.170833, 33.545]}}, {"type": "Feature", "properties": {"name": "LIDVO", "routes": [], "onRoute": false}, "geometry": {"type": "Point", "coordinates": [127.136944, 33.537778]}}, {"type": "Feature", "properties": {"name": "LIMSO", "routes": [], "onRoute": false}, "geometry": {"type": "Point", "coordinates": [126.308611, 33.4175]}}, {"type": "Feature", "properties": {"name": "LOTKA", "routes": [], "onRoute": false}, "geometry": {"type": "Point", "coordinates": [126.114444, 33.353056]}}, {"type": "Feature", "properties": {"name": "MANBA", "routes": [], "onRoute": false}, "geometry": {"type": "Point", "coordinates": [126.323333, 33.727778]}}, {"type": "Feature", "properties": {"name": "MEXER", "routes": [], "onRoute": false}, "geometry": {"type": "Point", "coordinates": [126.386667, 33.457778]}}, {"type": "Feature", "properties": {"name": "NUSLO", "routes": [], "onRoute": false}, "geometry": {"type": "Point", "coordinates": [126.67, 33.266667]}}, {"type": "Feature", "properties": {"name": "OLLEH", "routes": [], "onRoute": false}, "geometry": {"type": "Point", "coordinates": [126.740833, 33.961667]}}, {"type": "Feature", "properties": {"name": "OMKEL", "routes": [], "onRoute": false}, "geometry": {"type": "Point", "coordinates": [126.685556, 33.721111]}}, {"type": "Feature", "properties": {"name": "PALRI", "routes": [], "onRoute": false}, "geometry": {"type": "Point", "coordinates": [126.743611, 33.640833]}}, {"type": "Feature", "properties": {"name": "PETAA", "routes": [], "onRoute": false}, "geometry": {"type": "Point", "coordinates": [126.926111, 33.521667]}}, {"type": "Feature", "properties": {"name": "PIMIK", "routes": [], "onRoute": false}, "geometry": {"type": "Point", "coordinates": [125.980833, 33.257222]}}, {"type": "Feature", "properties": {"name": "RENEK", "routes": [], "onRoute": false}, "geometry": {"type": "Point", "coordinates": [126.586944, 33.560833]}}, {"type": "Feature", "properties": {"name": "TEWOO", "routes": [], "onRoute": false}, "geometry": {"type": "Point", "coordinates": [126.379722, 33.454167]}}, {"type": "Feature", "properties": {"name": "TOKIN", "routes": [], "onRoute": false}, "geometry": {"type": "Point", "coordinates": [126.675556, 33.606111]}}, {"type": "Feature", "properties": {"name": "TOREN", "routes": [], "onRoute": false}, "geometry": {"type": "Point", "coordinates": [126.666111, 33.810278]}}, {"type": "Feature", "properties": {"name": "VEKDI", "routes": [], "onRoute": false}, "geometry": {"type": "Point", "coordinates": [126.919167, 33.956389]}}, {"type": "Feature", "properties": {"name": "YUMIN", "routes": [], "onRoute": false}, "geometry": {"type": "Point", "coordinates": [126.221111, 33.457222]}}, {"type": "Feature", "properties": {"name": "AKEVI", "routes": [], "onRoute": false}, "geometry": {"type": "Point", "coordinates": [128.963333, 34.974722]}}, {"type": "Feature", "properties": {"name": "ARECO", "routes": [], "onRoute": false}, "geometry": {"type": "Point", "coordinates": [128.783056, 35.239444]}}, {"type": "Feature", "properties": {"name": "ATLAX", "routes": [], "onRoute": false}, "geometry": {"type": "Point", "coordinates": [129.075, 35.363611]}}, {"type": "Feature", "properties": {"name": "BAHDA", "routes": [], "onRoute": false}, "geometry": {"type": "Point", "coordinates": [128.951667, 34.892778]}}, {"type": "Feature", "properties": {"name": "BEVSI", "routes": [], "onRoute": false}, "geometry": {"type": "Point", "coordinates": [128.729444, 35.306667]}}, {"type": "Feature", "properties": {"name": "BOSPI", "routes": [], "onRoute": false}, "geometry": {"type": "Point", "coordinates": [128.965556, 34.975278]}}, {"type": "Feature", "properties": {"name": "BURIM", "routes": [], "onRoute": false}, "geometry": {"type": "Point", "coordinates": [128.946667, 34.997778]}}, {"type": "Feature", "properties": {"name": "GAYHA", "routes": [], "onRoute": false}, "geometry": {"type": "Point", "coordinates": [128.631667, 35.222778]}}, {"type": "Feature", "properties": {"name": "GEOJE", "routes": [], "onRoute": false}, "geometry": {"type": "Point", "coordinates": [128.728333, 35.015556]}}, {"type": "Feature", "properties": {"name": "HAEUN", "routes": [], "onRoute": false}, "geometry": {"type": "Point", "coordinates": [129.6825, 35.19]}}, {"type": "Feature", "properties": {"name": "IDIVU", "routes": [], "onRoute": false}, "geometry": {"type": "Point", "coordinates": [128.943333, 35.147778]}}, {"type": "Feature", "properties": {"name": "IKESI", "routes": [], "onRoute": false}, "geometry": {"type": "Point", "coordinates": [128.941111, 35.148611]}}, {"type": "Feature", "properties": {"name": "KEVOX", "routes": [], "onRoute": false}, "geometry": {"type": "Point", "coordinates": [128.729722, 35.014444]}}, {"type": "Feature", "properties": {"name": "NARAE", "routes": [], "onRoute": false}, "geometry": {"type": "Point", "coordinates": [129.124167, 35.0025]}}, {"type": "Feature", "properties": {"name": "NEIAN", "routes": [], "onRoute": false}, "geometry": {"type": "Point", "coordinates": [128.954444, 35.063056]}}, {"type": "Feature", "properties": {"name": "NOORI", "routes": [], "onRoute": false}, "geometry": {"type": "Point", "coordinates": [128.778333, 35.030556]}}, {"type": "Feature", "properties": {"name": "NUKBA", "routes": [], "onRoute": false}, "geometry": {"type": "Point", "coordinates": [128.593056, 34.891111]}}, {"type": "Feature", "properties": {"name": "OLMOG", "routes": [], "onRoute": false}, "geometry": {"type": "Point", "coordinates": [128.9525, 35.058889]}}, {"type": "Feature", "properties": {"name": "OPONO", "routes": [], "onRoute": false}, "geometry": {"type": "Point", "coordinates": [128.729444, 35.306667]}}, {"type": "Feature", "properties": {"name": "OVLIN", "routes": [], "onRoute": false}, "geometry": {"type": "Point", "coordinates": [128.75, 35.000278]}}, {"type": "Feature", "properties": {"name": "OVTUS", "routes": [], "onRoute": false}, "geometry": {"type": "Point", "coordinates": [128.65, 35.111111]}}, {"type": "Feature", "properties": {"name": "PEDLO", "routes": [], "onRoute": false}, "geometry": {"type": "Point", "coordinates": [129.1375, 34.989722]}}, {"type": "Feature", "properties": {"name": "SOORO", "routes": [], "onRoute": false}, "geometry": {"type": "Point", "coordinates": [128.718889, 35.291667]}}, {"type": "Feature", "properties": {"name": "UGIPO", "routes": [], "onRoute": false}, "geometry": {"type": "Point", "coordinates": [129.146111, 35.156667]}}, {"type": "Feature", "properties": {"name": "ULSUK", "routes": [], "onRoute": false}, "geometry": {"type": "Point", "coordinates": [128.740556, 35.006667]}}, {"type": "Feature", "properties": {"name": "WAYBI", "routes": [], "onRoute": false}, "geometry": {"type": "Point", "coordinates": [128.848889, 35.106389]}}, {"type": "Feature", "properties": {"name": "ZIKKO", "routes": [], "onRoute": false}, "geometry": {"type": "Point", "coordinates": [128.902222, 35.163333]}}, {"type": "Feature", "properties": {"name": "ANKIB", "routes": [], "onRoute": false}, "geometry": {"type": "Point", "coordinates": [127.391111, 36.650556]}}, {"type": "Feature", "properties": {"name": "APAKI", "routes": [], "onRoute": false}, "geometry": {"type": "Point", "coordinates": [127.606944, 36.784444]}}, {"type": "Feature", "properties": {"name": "ASORA", "routes": [], "onRoute": false}, "geometry": {"type": "Point", "coordinates": [127.472222, 36.711111]}}, {"type": "Feature", "properties": {"name": "BAKJO", "routes": [], "onRoute": false}, "geometry": {"type": "Point", "coordinates": [127.238889, 36.555556]}}, {"type": "Feature", "properties": {"name": "BUKIL", "routes": [], "onRoute": false}, "geometry": {"type": "Point", "coordinates": [127.642778, 36.806389]}}, {"type": "Feature", "properties": {"name": "COWON", "routes": [], "onRoute": false}, "geometry": {"type": "Point", "coordinates": [127.304167, 36.653889]}}, {"type": "Feature", "properties": {"name": "ESBOS", "routes": [], "onRoute": false}, "geometry": {"type": "Point", "coordinates": [127.787222, 36.779167]}}, {"type": "Feature", "properties": {"name": "HYEIN", "routes": [], "onRoute": false}, "geometry": {"type": "Point", "coordinates": [127.625, 36.963056]}}, {"type": "Feature", "properties": {"name": "IKAPO", "routes": [], "onRoute": false}, "geometry": {"type": "Point", "coordinates": [127.757222, 36.671389]}}, {"type": "Feature", "properties": {"name": "IKISO", "routes": [], "onRoute": false}, "geometry": {"type": "Point", "coordinates": [127.717222, 36.852222]}}, {"type": "Feature", "properties": {"name": "JIKJI", "routes": [], "onRoute": false}, "geometry": {"type": "Point", "coordinates": [127.656111, 36.689444]}}, {"type": "Feature", "properties": {"name": "KADEV", "routes": [], "onRoute": false}, "geometry": {"type": "Point", "coordinates": [127.461944, 36.694444]}}, {"type": "Feature", "properties": {"name": "MATIZ", "routes": [], "onRoute": false}, "geometry": {"type": "Point", "coordinates": [127.429444, 36.843056]}}, {"type": "Feature", "properties": {"name": "MENOL", "routes": [], "onRoute": false}, "geometry": {"type": "Point", "coordinates": [127.789722, 36.790278]}}, {"type": "Feature", "properties": {"name": "OSIVI", "routes": [], "onRoute": false}, "geometry": {"type": "Point", "coordinates": [127.369444, 36.723333]}}, {"type": "Feature", "properties": {"name": "OWING", "routes": [], "onRoute": false}, "geometry": {"type": "Point", "coordinates": [127.245556, 36.728889]}}, {"type": "Feature", "properties": {"name": "SAPUX", "routes": [], "onRoute": false}, "geometry": {"type": "Point", "coordinates": [127.389722, 36.649722]}}, {"type": "Feature", "properties": {"name": "SURAX", "routes": [], "onRoute": false}, "geometry": {"type": "Point", "coordinates": [127.524722, 36.733333]}}, {"type": "Feature", "properties": {"name": "SURSO", "routes": [], "onRoute": false}, "geometry": {"type": "Point", "coordinates": [127.266944, 36.735278]}}, {"type": "Feature", "properties": {"name": "TURTU", "routes": [], "onRoute": false}, "geometry": {"type": "Point", "coordinates": [127.725556, 36.8575]}}, {"type": "Feature", "properties": {"name": "TUTAE", "routes": [], "onRoute": false}, "geometry": {"type": "Point", "coordinates": [127.541389, 36.912222]}}, {"type": "Feature", "properties": {"name": "UPTIL", "routes": [], "onRoute": false}, "geometry": {"type": "Point", "coordinates": [127.39, 36.65]}}, {"type": "Feature", "properties": {"name": "YEJEE", "routes": [], "onRoute": false}, "geometry": {"type": "Point", "coordinates": [127.465, 36.696389]}}, {"type": "Feature", "properties": {"name": "ZENZA", "routes": [], "onRoute": false}, "geometry": {"type": "Point", "coordinates": [127.607222, 36.784722]}}, {"type": "Feature", "properties": {"name": "NIMAL", "routes": [], "onRoute": false}, "geometry": {"type": "Point", "coordinates": [128.766667, 38.072778]}}, {"type": "Feature", "properties": {"name": "DUBUN", "routes": [], "onRoute": false}, "geometry": {"type": "Point", "coordinates": [128.870556, 38.0875]}}, {"type": "Feature", "properties": {"name": "AVNIS", "routes": [], "onRoute": false}, "geometry": {"type": "Point", "coordinates": [126.383611, 34.894167]}}, {"type": "Feature", "properties": {"name": "AYEON", "routes": [], "onRoute": false}, "geometry": {"type": "Point", "coordinates": [126.208889, 35.152778]}}, {"type": "Feature", "properties": {"name": "BEMGA", "routes": [], "onRoute": false}, "geometry": {"type": "Point", "coordinates": [126.3825, 35.170556]}}, {"type": "Feature", "properties": {"name": "DOVRA", "routes": [], "onRoute": false}, "geometry": {"type": "Point", "coordinates": [126.522778, 35.132778]}}, {"type": "Feature", "properties": {"name": "DOWAN", "routes": [], "onRoute": false}, "geometry": {"type": "Point", "coordinates": [126.554444, 35.154444]}}, {"type": "Feature", "properties": {"name": "GUPLA", "routes": [], "onRoute": false}, "geometry": {"type": "Point", "coordinates": [126.238333, 35.127222]}}, {"type": "Feature", "properties": {"name": "IDVIT", "routes": [], "onRoute": false}, "geometry": {"type": "Point", "coordinates": [126.382222, 35.087778]}}, {"type": "Feature", "properties": {"name": "KASPU", "routes": [], "onRoute": false}, "geometry": {"type": "Point", "coordinates": [126.381667, 35.152222]}}, {"type": "Feature", "properties": {"name": "KEVAP", "routes": [], "onRoute": false}, "geometry": {"type": "Point", "coordinates": [126.384167, 34.803056]}}, {"type": "Feature", "properties": {"name": "NAKZY", "routes": [], "onRoute": false}, "geometry": {"type": "Point", "coordinates": [126.659722, 35.215]}}, {"type": "Feature", "properties": {"name": "OLBES", "routes": [], "onRoute": false}, "geometry": {"type": "Point", "coordinates": [126.375556, 34.602222]}}, {"type": "Feature", "properties": {"name": "OSROX", "routes": [], "onRoute": false}, "geometry": {"type": "Point", "coordinates": [126.715556, 35.255]}}, {"type": "Feature", "properties": {"name": "OVGEN", "routes": [], "onRoute": false}, "geometry": {"type": "Point", "coordinates": [126.196667, 34.772778]}}, {"type": "Feature", "properties": {"name": "PEGRO", "routes": [], "onRoute": false}, "geometry": {"type": "Point", "coordinates": [126.567222, 34.769167]}}, {"type": "Feature", "properties": {"name": "PINAS", "routes": [], "onRoute": false}, "geometry": {"type": "Point", "coordinates": [126.750278, 34.57]}}, {"type": "Feature", "properties": {"name": "RELEX", "routes": [], "onRoute": false}, "geometry": {"type": "Point", "coordinates": [126.384444, 34.719722]}}, {"type": "Feature", "properties": {"name": "VASVA", "routes": [], "onRoute": false}, "geometry": {"type": "Point", "coordinates": [126.679722, 34.916667]}}, {"type": "Feature", "properties": {"name": "ARIMU", "routes": [], "onRoute": false}, "geometry": {"type": "Point", "coordinates": [126.783889, 34.834444]}}, {"type": "Feature", "properties": {"name": "ELPEX", "routes": [], "onRoute": false}, "geometry": {"type": "Point", "coordinates": [126.978333, 35.375]}}, {"type": "Feature", "properties": {"name": "GOMUX", "routes": [], "onRoute": false}, "geometry": {"type": "Point", "coordinates": [126.878611, 35.223611]}}, {"type": "Feature", "properties": {"name": "GUMAK", "routes": [], "onRoute": false}, "geometry": {"type": "Point", "coordinates": [126.879444, 35.228611]}}, {"type": "Feature", "properties": {"name": "GUMAM", "routes": [], "onRoute": false}, "geometry": {"type": "Point", "coordinates": [127.426111, 35.366389]}}, {"type": "Feature", "properties": {"name": "IGBEM", "routes": [], "onRoute": false}, "geometry": {"type": "Point", "coordinates": [127.212778, 35.128611]}}, {"type": "Feature", "properties": {"name": "IPDUT", "routes": [], "onRoute": false}, "geometry": {"type": "Point", "coordinates": [126.968333, 35.354722]}}, {"type": "Feature", "properties": {"name": "JADOO", "routes": [], "onRoute": false}, "geometry": {"type": "Point", "coordinates": [127.231667, 35.4175]}}, {"type": "Feature", "properties": {"name": "JISUN", "routes": [], "onRoute": false}, "geometry": {"type": "Point", "coordinates": [127.015278, 35.1275]}}, {"type": "Feature", "properties": {"name": "KOTTY", "routes": [], "onRoute": false}, "geometry": {"type": "Point", "coordinates": [126.561667, 35.0575]}}, {"type": "Feature", "properties": {"name": "LILVI", "routes": [], "onRoute": false}, "geometry": {"type": "Point", "coordinates": [126.875, 35.218889]}}, {"type": "Feature", "properties": {"name": "LUVOL", "routes": [], "onRoute": false}, "geometry": {"type": "Point", "coordinates": [126.9475, 35.479444]}}, {"type": "Feature", "properties": {"name": "MARYO", "routes": [], "onRoute": false}, "geometry": {"type": "Point", "coordinates": [126.746389, 35.035278]}}, {"type": "Feature", "properties": {"name": "OPASI", "routes": [], "onRoute": false}, "geometry": {"type": "Point", "coordinates": [126.648611, 34.898611]}}, {"type": "Feature", "properties": {"name": "OPIBA", "routes": [], "onRoute": false}, "geometry": {"type": "Point", "coordinates": [126.97, 35.353889]}}, {"type": "Feature", "properties": {"name": "ORUSA", "routes": [], "onRoute": false}, "geometry": {"type": "Point", "coordinates": [127.104167, 35.290278]}}, {"type": "Feature", "properties": {"name": "PIGEL", "routes": [], "onRoute": false}, "geometry": {"type": "Point", "coordinates": [126.739722, 35.029167]}}, {"type": "Feature", "properties": {"name": "PUMEG", "routes": [], "onRoute": false}, "geometry": {"type": "Point", "coordinates": [127.065278, 35.225833]}}, {"type": "Feature", "properties": {"name": "TEPEL", "routes": [], "onRoute": false}, "geometry": {"type": "Point", "coordinates": [126.741667, 35.028333]}}, {"type": "Feature", "properties": {"name": "VADRO", "routes": [], "onRoute": false}, "geometry": {"type": "Point", "coordinates": [126.650556, 34.8975]}}, {"type": "Feature", "properties": {"name": "XEMIX", "routes": [], "onRoute": false}, "geometry": {"type": "Point", "coordinates": [126.515, 34.961389]}}, {"type": "Feature", "properties": {"name": "APDOP", "routes": [], "onRoute": false}, "geometry": {"type": "Point", "coordinates": [126.611111, 35.923611]}}, {"type": "Feature", "properties": {"name": "BEZEE", "routes": [], "onRoute": false}, "geometry": {"type": "Point", "coordinates": [126.620833, 35.883056]}}, {"type": "Feature", "properties": {"name": "BLAZZ", "routes": [], "onRoute": false}, "geometry": {"type": "Point", "coordinates": [126.555556, 36.156667]}}, {"type": "Feature", "properties": {"name": "BOREV", "routes": [], "onRoute": false}, "geometry": {"type": "Point", "coordinates": [126.695833, 35.669722]}}, {"type": "Feature", "properties": {"name": "BOXOL", "routes": [], "onRoute": false}, "geometry": {"type": "Point", "coordinates": [126.654167, 35.741667]}}, {"type": "Feature", "properties": {"name": "CIKRA", "routes": [], "onRoute": false}, "geometry": {"type": "Point", "coordinates": [126.664722, 35.798889]}}, {"type": "Feature", "properties": {"name": "COBET", "routes": [], "onRoute": false}, "geometry": {"type": "Point", "coordinates": [126.604167, 36.244167]}}, {"type": "Feature", "properties": {"name": "EKIVA", "routes": [], "onRoute": false}, "geometry": {"type": "Point", "coordinates": [126.536944, 36.238611]}}, {"type": "Feature", "properties": {"name": "HALUN", "routes": [], "onRoute": false}, "geometry": {"type": "Point", "coordinates": [126.671111, 35.740278]}}, {"type": "Feature", "properties": {"name": "HEDOD", "routes": [], "onRoute": false}, "geometry": {"type": "Point", "coordinates": [126.746667, 35.645833]}}, {"type": "Feature", "properties": {"name": "JINRO", "routes": [], "onRoute": false}, "geometry": {"type": "Point", "coordinates": [126.606111, 36.160833]}}, {"type": "Feature", "properties": {"name": "JULOP", "routes": [], "onRoute": false}, "geometry": {"type": "Point", "coordinates": [126.692778, 35.583056]}}, {"type": "Feature", "properties": {"name": "KIXIS", "routes": [], "onRoute": false}, "geometry": {"type": "Point", "coordinates": [126.609444, 35.998889]}}, {"type": "Feature", "properties": {"name": "LEBUX", "routes": [], "onRoute": false}, "geometry": {"type": "Point", "coordinates": [126.646389, 35.810833]}}, {"type": "Feature", "properties": {"name": "LUKKI", "routes": [], "onRoute": false}, "geometry": {"type": "Point", "coordinates": [126.594444, 35.993611]}}, {"type": "Feature", "properties": {"name": "PORIX", "routes": [], "onRoute": false}, "geometry": {"type": "Point", "coordinates": [126.761389, 35.6825]}}, {"type": "Feature", "properties": {"name": "RETAG", "routes": [], "onRoute": false}, "geometry": {"type": "Point", "coordinates": [126.611111, 35.923611]}}, {"type": "Feature", "properties": {"name": "ROCEE", "routes": [], "onRoute": false}, "geometry": {"type": "Point", "coordinates": [126.636111, 35.819167]}}, {"type": "Feature", "properties": {"name": "TRASK", "routes": [], "onRoute": false}, "geometry": {"type": "Point", "coordinates": [126.724167, 35.589444]}}, {"type": "Feature", "properties": {"name": "UPMAN", "routes": [], "onRoute": false}, "geometry": {"type": "Point", "coordinates": [126.555833, 36.155833]}}, {"type": "Feature", "properties": {"name": "VIPIR", "routes": [], "onRoute": false}, "geometry": {"type": "Point", "coordinates": [126.6725, 35.665]}}, {"type": "Feature", "properties": {"name": "WAROB", "routes": [], "onRoute": false}, "geometry": {"type": "Point", "coordinates": [126.897222, 35.697778]}}, {"type": "Feature", "properties": {"name": "WONAP", "routes": [], "onRoute": false}, "geometry": {"type": "Point", "coordinates": [126.621111, 35.883056]}}, {"type": "Feature", "properties": {"name": "WWOLF", "routes": [], "onRoute": false}, "geometry": {"type": "Point", "coordinates": [126.916944, 35.940556]}}, {"type": "Feature", "properties": {"name": "WYZRD", "routes": [], "onRoute": false}, "geometry": {"type": "Point", "coordinates": [126.306111, 35.879444]}}, {"type": "Feature", "properties": {"name": "ZUDUX", "routes": [], "onRoute": false}, "geometry": {"type": "Point", "coordinates": [126.620833, 35.883611]}}, {"type": "Feature", "properties": {"name": "ADGES", "routes": [], "onRoute": false}, "geometry": {"type": "Point", "coordinates": [127.587222, 34.634167]}}, {"type": "Feature", "properties": {"name": "AGUTI", "routes": [], "onRoute": false}, "geometry": {"type": "Point", "coordinates": [127.526111, 35.028056]}}, {"type": "Feature", "properties": {"name": "ANJAY", "routes": [], "onRoute": false}, "geometry": {"type": "Point", "coordinates": [127.656667, 34.761944]}}, {"type": "Feature", "properties": {"name": "AVMET", "routes": [], "onRoute": false}, "geometry": {"type": "Point", "coordinates": [127.774722, 34.452222]}}, {"type": "Feature", "properties": {"name": "BUGYO", "routes": [], "onRoute": false}, "geometry": {"type": "Point", "coordinates": [127.458056, 34.873889]}}, {"type": "Feature", "properties": {"name": "IDROL", "routes": [], "onRoute": false}, "geometry": {"type": "Point", "coordinates": [127.600833, 34.875833]}}, {"type": "Feature", "properties": {"name": "ISDOV", "routes": [], "onRoute": false}, "geometry": {"type": "Point", "coordinates": [127.498611, 34.798889]}}, {"type": "Feature", "properties": {"name": "ISRIV", "routes": [], "onRoute": false}, "geometry": {"type": "Point", "coordinates": [127.43, 34.902778]}}, {"type": "Feature", "properties": {"name": "KAKRU", "routes": [], "onRoute": false}, "geometry": {"type": "Point", "coordinates": [127.574444, 34.93]}}, {"type": "Feature", "properties": {"name": "MENIV", "routes": [], "onRoute": false}, "geometry": {"type": "Point", "coordinates": [127.585556, 34.596111]}}, {"type": "Feature", "properties": {"name": "SEHEE", "routes": [], "onRoute": false}, "geometry": {"type": "Point", "coordinates": [127.510833, 34.743611]}}, {"type": "Feature", "properties": {"name": "SKOTA", "routes": [], "onRoute": false}, "geometry": {"type": "Point", "coordinates": [127.49, 35.101389]}}, {"type": "Feature", "properties": {"name": "SOONA", "routes": [], "onRoute": false}, "geometry": {"type": "Point", "coordinates": [127.715556, 34.641111]}}, {"type": "Feature", "properties": {"name": "TOQUE", "routes": [], "onRoute": false}, "geometry": {"type": "Point", "coordinates": [127.693056, 34.6875]}}, {"type": "Feature", "properties": {"name": "YEONA", "routes": [], "onRoute": false}, "geometry": {"type": "Point", "coordinates": [127.414444, 34.951111]}}, {"type": "Feature", "properties": {"name": "ANKEG", "routes": [], "onRoute": false}, "geometry": {"type": "Point", "coordinates": [127.979444, 37.468611]}}, {"type": "Feature", "properties": {"name": "ANOTI", "routes": [], "onRoute": false}, "geometry": {"type": "Point", "coordinates": [128.078889, 37.628611]}}, {"type": "Feature", "properties": {"name": "AROKU", "routes": [], "onRoute": false}, "geometry": {"type": "Point", "coordinates": [127.9375, 37.665]}}, {"type": "Feature", "properties": {"name": "ARUNA", "routes": [], "onRoute": false}, "geometry": {"type": "Point", "coordinates": [127.770556, 37.395]}}, {"type": "Feature", "properties": {"name": "CASTO", "routes": [], "onRoute": false}, "geometry": {"type": "Point", "coordinates": [128.041389, 37.568056]}}, {"type": "Feature", "properties": {"name": "CHISE", "routes": [], "onRoute": false}, "geometry": {"type": "Point", "coordinates": [128.053333, 37.630556]}}, {"type": "Feature", "properties": {"name": "DOXEL", "routes": [], "onRoute": false}, "geometry": {"type": "Point", "coordinates": [127.885833, 37.3175]}}, {"type": "Feature", "properties": {"name": "DUBAL", "routes": [], "onRoute": false}, "geometry": {"type": "Point", "coordinates": [127.941389, 37.4075]}}, {"type": "Feature", "properties": {"name": "ENDEX", "routes": [], "onRoute": false}, "geometry": {"type": "Point", "coordinates": [127.748889, 37.284167]}}, {"type": "Feature", "properties": {"name": "ENLAR", "routes": [], "onRoute": false}, "geometry": {"type": "Point", "coordinates": [127.807778, 37.37]}}, {"type": "Feature", "properties": {"name": "ESLOL", "routes": [], "onRoute": false}, "geometry": {"type": "Point", "coordinates": [127.832222, 37.409444]}}, {"type": "Feature", "properties": {"name": "GADDY", "routes": [], "onRoute": false}, "geometry": {"type": "Point", "coordinates": [127.918889, 37.371111]}}, {"type": "Feature", "properties": {"name": "GANAM", "routes": [], "onRoute": false}, "geometry": {"type": "Point", "coordinates": [127.664444, 37.111111]}}, {"type": "Feature", "properties": {"name": "GAREP", "routes": [], "onRoute": false}, "geometry": {"type": "Point", "coordinates": [128.073333, 37.619722]}}, {"type": "Feature", "properties": {"name": "IKILA", "routes": [], "onRoute": false}, "geometry": {"type": "Point", "coordinates": [128.069167, 37.613333]}}, {"type": "Feature", "properties": {"name": "IKOSU", "routes": [], "onRoute": false}, "geometry": {"type": "Point", "coordinates": [127.8425, 37.247222]}}, {"type": "Feature", "properties": {"name": "JOOKA", "routes": [], "onRoute": false}, "geometry": {"type": "Point", "coordinates": [128.229167, 37.569167]}}, {"type": "Feature", "properties": {"name": "KAGER", "routes": [], "onRoute": false}, "geometry": {"type": "Point", "coordinates": [127.745556, 37.237778]}}, {"type": "Feature", "properties": {"name": "KORHA", "routes": [], "onRoute": false}, "geometry": {"type": "Point", "coordinates": [127.898333, 37.337778]}}, {"type": "Feature", "properties": {"name": "MIBUB", "routes": [], "onRoute": false}, "geometry": {"type": "Point", "coordinates": [127.916111, 37.618333]}}, {"type": "Feature", "properties": {"name": "MAJIF", "routes": [], "onRoute": false}, "geometry": {"type": "Point", "coordinates": [128.145833, 37.436111]}}, {"type": "Feature", "properties": {"name": "OGEBU", "routes": [], "onRoute": false}, "geometry": {"type": "Point", "coordinates": [128.024722, 37.240556]}}, {"type": "Feature", "properties": {"name": "OLGOD", "routes": [], "onRoute": false}, "geometry": {"type": "Point", "coordinates": [127.936111, 37.210278]}}, {"type": "Feature", "properties": {"name": "OLSAX", "routes": [], "onRoute": false}, "geometry": {"type": "Point", "coordinates": [127.925556, 37.381944]}}, {"type": "Feature", "properties": {"name": "OLTOV", "routes": [], "onRoute": false}, "geometry": {"type": "Point", "coordinates": [128.0225, 37.538056]}}, {"type": "Feature", "properties": {"name": "OPUPI", "routes": [], "onRoute": false}, "geometry": {"type": "Point", "coordinates": [128.071111, 37.315556]}}, {"type": "Feature", "properties": {"name": "ORINU", "routes": [], "onRoute": false}, "geometry": {"type": "Point", "coordinates": [127.754722, 37.231944]}}, {"type": "Feature", "properties": {"name": "POLLU", "routes": [], "onRoute": false}, "geometry": {"type": "Point", "coordinates": [127.995, 37.493611]}}, {"type": "Feature", "properties": {"name": "RULRU", "routes": [], "onRoute": false}, "geometry": {"type": "Point", "coordinates": [127.686944, 37.193889]}}, {"type": "Feature", "properties": {"name": "SANUV", "routes": [], "onRoute": false}, "geometry": {"type": "Point", "coordinates": [127.901944, 37.343333]}}, {"type": "Feature", "properties": {"name": "SUSAP", "routes": [], "onRoute": false}, "geometry": {"type": "Point", "coordinates": [127.809167, 37.303889]}}, {"type": "Feature", "properties": {"name": "VEMPU", "routes": [], "onRoute": false}, "geometry": {"type": "Point", "coordinates": [127.883333, 37.697778]}}, {"type": "Feature", "properties": {"name": "VEMTI", "routes": [], "onRoute": false}, "geometry": {"type": "Point", "coordinates": [127.985, 37.665556]}}, {"type": "Feature", "properties": {"name": "AGTEG", "routes": [], "onRoute": false}, "geometry": {"type": "Point", "coordinates": [128.313889, 35.226389]}}, {"type": "Feature", "properties": {"name": "AISON", "routes": [], "onRoute": false}, "geometry": {"type": "Point", "coordinates": [128.102778, 35.123056]}}, {"type": "Feature", "properties": {"name": "AKLOG", "routes": [], "onRoute": false}, "geometry": {"type": "Point", "coordinates": [127.975833, 35.034167]}}, {"type": "Feature", "properties": {"name": "AKPET", "routes": [], "onRoute": false}, "geometry": {"type": "Point", "coordinates": [127.914444, 34.971389]}}, {"type": "Feature", "properties": {"name": "AKUBO", "routes": [], "onRoute": false}, "geometry": {"type": "Point", "coordinates": [127.906389, 35.126944]}}, {"type": "Feature", "properties": {"name": "AURIO", "routes": [], "onRoute": false}, "geometry": {"type": "Point", "coordinates": [127.890278, 34.988056]}}, {"type": "Feature", "properties": {"name": "BIKLA", "routes": [], "onRoute": false}, "geometry": {"type": "Point", "coordinates": [128.341389, 35.183056]}}, {"type": "Feature", "properties": {"name": "BOTRU", "routes": [], "onRoute": false}, "geometry": {"type": "Point", "coordinates": [128.266389, 35.028056]}}, {"type": "Feature", "properties": {"name": "BUPGU", "routes": [], "onRoute": false}, "geometry": {"type": "Point", "coordinates": [128.19, 35.156944]}}, {"type": "Feature", "properties": {"name": "BUVPU", "routes": [], "onRoute": false}, "geometry": {"type": "Point", "coordinates": [128.315278, 35.224722]}}, {"type": "Feature", "properties": {"name": "CHANO", "routes": [], "onRoute": false}, "geometry": {"type": "Point", "coordinates": [128.095833, 35.104167]}}, {"type": "Feature", "properties": {"name": "ENPUB", "routes": [], "onRoute": false}, "geometry": {"type": "Point", "coordinates": [128.105833, 35.120833]}}, {"type": "Feature", "properties": {"name": "FOKAN", "routes": [], "onRoute": false}, "geometry": {"type": "Point", "coordinates": [127.983889, 35.041111]}}, {"type": "Feature", "properties": {"name": "GAFOA", "routes": [], "onRoute": false}, "geometry": {"type": "Point", "coordinates": [128.050833, 35.078889]}}, {"type": "Feature", "properties": {"name": "GIDOO", "routes": [], "onRoute": false}, "geometry": {"type": "Point", "coordinates": [128.117778, 35.116667]}}, {"type": "Feature", "properties": {"name": "GIVOD", "routes": [], "onRoute": false}, "geometry": {"type": "Point", "coordinates": [127.920556, 35.005278]}}, {"type": "Feature", "properties": {"name": "GOLOG", "routes": [], "onRoute": false}, "geometry": {"type": "Point", "coordinates": [127.923611, 35.004444]}}, {"type": "Feature", "properties": {"name": "GONYA", "routes": [], "onRoute": false}, "geometry": {"type": "Point", "coordinates": [127.929167, 34.982778]}}, {"type": "Feature", "properties": {"name": "GUTVA", "routes": [], "onRoute": false}, "geometry": {"type": "Point", "coordinates": [127.815, 34.945556]}}, {"type": "Feature", "properties": {"name": "HWANI", "routes": [], "onRoute": false}, "geometry": {"type": "Point", "coordinates": [128.246944, 35.188889]}}, {"type": "Feature", "properties": {"name": "IGULO", "routes": [], "onRoute": false}, "geometry": {"type": "Point", "coordinates": [128.192778, 35.156111]}}, {"type": "Feature", "properties": {"name": "IKUMU", "routes": [], "onRoute": false}, "geometry": {"type": "Point", "coordinates": [127.918056, 34.945278]}}, {"type": "Feature", "properties": {"name": "JALDA", "routes": [], "onRoute": false}, "geometry": {"type": "Point", "coordinates": [128.349444, 35.163611]}}, {"type": "Feature", "properties": {"name": "JUNNI", "routes": [], "onRoute": false}, "geometry": {"type": "Point", "coordinates": [128.132778, 35.125]}}, {"type": "Feature", "properties": {"name": "KABVO", "routes": [], "onRoute": false}, "geometry": {"type": "Point", "coordinates": [128.360556, 35.087222]}}, {"type": "Feature", "properties": {"name": "KAIFA", "routes": [], "onRoute": false}, "geometry": {"type": "Point", "coordinates": [128.046944, 35.074722]}}, {"type": "Feature", "properties": {"name": "MABON", "routes": [], "onRoute": false}, "geometry": {"type": "Point", "coordinates": [127.997222, 35.021667]}}, {"type": "Feature", "properties": {"name": "MAEMI", "routes": [], "onRoute": false}, "geometry": {"type": "Point", "coordinates": [127.8525, 34.881667]}}, {"type": "Feature", "properties": {"name": "MAMVI", "routes": [], "onRoute": false}, "geometry": {"type": "Point", "coordinates": [128.196111, 34.9775]}}, {"type": "Feature", "properties": {"name": "MUBIX", "routes": [], "onRoute": false}, "geometry": {"type": "Point", "coordinates": [127.826389, 34.902222]}}, {"type": "Feature", "properties": {"name": "NAISS", "routes": [], "onRoute": false}, "geometry": {"type": "Point", "coordinates": [128.265556, 35.158611]}}, {"type": "Feature", "properties": {"name": "NAMHE", "routes": [], "onRoute": false}, "geometry": {"type": "Point", "coordinates": [127.778889, 35.043333]}}, {"type": "Feature", "properties": {"name": "NOBOP", "routes": [], "onRoute": false}, "geometry": {"type": "Point", "coordinates": [128.174167, 35.311111]}}, {"type": "Feature", "properties": {"name": "OKTUL", "routes": [], "onRoute": false}, "geometry": {"type": "Point", "coordinates": [127.944444, 34.970833]}}, {"type": "Feature", "properties": {"name": "OLNIG", "routes": [], "onRoute": false}, "geometry": {"type": "Point", "coordinates": [128.191944, 35.158056]}}, {"type": "Feature", "properties": {"name": "OLNOB", "routes": [], "onRoute": false}, "geometry": {"type": "Point", "coordinates": [127.916944, 35.003333]}}, {"type": "Feature", "properties": {"name": "PABKO", "routes": [], "onRoute": false}, "geometry": {"type": "Point", "coordinates": [127.817222, 34.944167]}}, {"type": "Feature", "properties": {"name": "PEGMI", "routes": [], "onRoute": false}, "geometry": {"type": "Point", "coordinates": [128.313889, 35.226389]}}, {"type": "Feature", "properties": {"name": "POMOX", "routes": [], "onRoute": false}, "geometry": {"type": "Point", "coordinates": [128.251667, 35.140278]}}, {"type": "Feature", "properties": {"name": "RUPIB", "routes": [], "onRoute": false}, "geometry": {"type": "Point", "coordinates": [127.794444, 34.933889]}}, {"type": "Feature", "properties": {"name": "SACUN", "routes": [], "onRoute": false}, "geometry": {"type": "Point", "coordinates": [128.115278, 35.107222]}}, {"type": "Feature", "properties": {"name": "SLOTA", "routes": [], "onRoute": false}, "geometry": {"type": "Point", "coordinates": [128.280278, 35.207778]}}, {"type": "Feature", "properties": {"name": "SOLYI", "routes": [], "onRoute": false}, "geometry": {"type": "Point", "coordinates": [127.739444, 35.035833]}}, {"type": "Feature", "properties": {"name": "SOONI", "routes": [], "onRoute": false}, "geometry": {"type": "Point", "coordinates": [128.186667, 35.155278]}}, {"type": "Feature", "properties": {"name": "TUVRO", "routes": [], "onRoute": false}, "geometry": {"type": "Point", "coordinates": [128.193333, 35.126111]}}, {"type": "Feature", "properties": {"name": "UPLAP", "routes": [], "onRoute": false}, "geometry": {"type": "Point", "coordinates": [128.05, 35.072222]}}, {"type": "Feature", "properties": {"name": "UPREX", "routes": [], "onRoute": false}, "geometry": {"type": "Point", "coordinates": [128.189722, 35.134444]}}, {"type": "Feature", "properties": {"name": "VIBOR", "routes": [], "onRoute": false}, "geometry": {"type": "Point", "coordinates": [127.893333, 34.851667]}}, {"type": "Feature", "properties": {"name": "VIKIX", "routes": [], "onRoute": false}, "geometry": {"type": "Point", "coordinates": [128.028611, 35.066389]}}, {"type": "Feature", "properties": {"name": "VONDU", "routes": [], "onRoute": false}, "geometry": {"type": "Point", "coordinates": [128.165556, 35.143333]}}, {"type": "Feature", "properties": {"name": "WINTE", "routes": [], "onRoute": false}, "geometry": {"type": "Point", "coordinates": [128.114167, 35.11]}}, {"type": "Feature", "properties": {"name": "BINJO", "routes": [], "onRoute": false}, "geometry": {"type": "Point", "coordinates": [129.320278, 35.695556]}}, {"type": "Feature", "properties": {"name": "DOGDI", "routes": [], "onRoute": false}, "geometry": {"type": "Point", "coordinates": [129.200833, 35.926667]}}, {"type": "Feature", "properties": {"name": "DOOBU", "routes": [], "onRoute": false}, "geometry": {"type": "Point", "coordinates": [129.358333, 35.515278]}}, {"type": "Feature", "properties": {"name": "GODIS", "routes": [], "onRoute": false}, "geometry": {"type": "Point", "coordinates": [129.342778, 35.658611]}}, {"type": "Feature", "properties": {"name": "HAEGU", "routes": [], "onRoute": false}, "geometry": {"type": "Point", "coordinates": [129.542222, 35.535278]}}, {"type": "Feature", "properties": {"name": "IGMEL", "routes": [], "onRoute": false}, "geometry": {"type": "Point", "coordinates": [129.340556, 35.638333]}}, {"type": "Feature", "properties": {"name": "KALUS", "routes": [], "onRoute": false}, "geometry": {"type": "Point", "coordinates": [129.320833, 35.693611]}}, {"type": "Feature", "properties": {"name": "LUKLI", "routes": [], "onRoute": false}, "geometry": {"type": "Point", "coordinates": [129.365278, 35.431667]}}, {"type": "Feature", "properties": {"name": "MAKKY", "routes": [], "onRoute": false}, "geometry": {"type": "Point", "coordinates": [129.26, 35.871944]}}, {"type": "Feature", "properties": {"name": "ONAPU", "routes": [], "onRoute": false}, "geometry": {"type": "Point", "coordinates": [129.354167, 35.565]}}, {"type": "Feature", "properties": {"name": "RIMTA", "routes": [], "onRoute": false}, "geometry": {"type": "Point", "coordinates": [129.3475, 35.645]}}, {"type": "Feature", "properties": {"name": "SEDMO", "routes": [], "onRoute": false}, "geometry": {"type": "Point", "coordinates": [129.281944, 35.8075]}}, {"type": "Feature", "properties": {"name": "BAVIX", "routes": [], "onRoute": false}, "geometry": {"type": "Point", "coordinates": [127.369722, 37.558889]}}, {"type": "Feature", "properties": {"name": "BIDBA", "routes": [], "onRoute": false}, "geometry": {"type": "Point", "coordinates": [127.320556, 37.3425]}}, {"type": "Feature", "properties": {"name": "BORNU", "routes": [], "onRoute": false}, "geometry": {"type": "Point", "coordinates": [127.091389, 37.325556]}}, {"type": "Feature", "properties": {"name": "BUNDA", "routes": [], "onRoute": false}, "geometry": {"type": "Point", "coordinates": [127.150278, 37.654444]}}, {"type": "Feature", "properties": {"name": "GUKOB", "routes": [], "onRoute": false}, "geometry": {"type": "Point", "coordinates": [127.133889, 37.105556]}}, {"type": "Feature", "properties": {"name": "SANIB", "routes": [], "onRoute": false}, "geometry": {"type": "Point", "coordinates": [127.076944, 37.243056]}}, {"type": "Feature", "properties": {"name": "KLAIN", "routes": [], "onRoute": false}, "geometry": {"type": "Point", "coordinates": [127.111111, 37.336111]}}, {"type": "Feature", "properties": {"name": "LETGI", "routes": [], "onRoute": false}, "geometry": {"type": "Point", "coordinates": [127.103889, 37.395278]}}, {"type": "Feature", "properties": {"name": "MEESA", "routes": [], "onRoute": false}, "geometry": {"type": "Point", "coordinates": [127.245833, 37.578889]}}, {"type": "Feature", "properties": {"name": "MILOO", "routes": [], "onRoute": false}, "geometry": {"type": "Point", "coordinates": [127.12, 37.484444]}}, {"type": "Feature", "properties": {"name": "MUGAR", "routes": [], "onRoute": false}, "geometry": {"type": "Point", "coordinates": [127.318889, 37.295833]}}, {"type": "Feature", "properties": {"name": "PINEV", "routes": [], "onRoute": false}, "geometry": {"type": "Point", "coordinates": [127.317778, 37.252778]}}, {"type": "Feature", "properties": {"name": "SCURU", "routes": [], "onRoute": false}, "geometry": {"type": "Point", "coordinates": [127.135556, 37.571944]}}, {"type": "Feature", "properties": {"name": "TORIA", "routes": [], "onRoute": false}, "geometry": {"type": "Point", "coordinates": [127.358333, 37.633889]}}, {"type": "Feature", "properties": {"name": "UNTOM", "routes": [], "onRoute": false}, "geometry": {"type": "Point", "coordinates": [127.107778, 37.2525]}}, {"type": "Feature", "properties": {"name": "UNVET", "routes": [], "onRoute": false}, "geometry": {"type": "Point", "coordinates": [127.114167, 37.417222]}}, {"type": "Feature", "properties": {"name": "UPTAD", "routes": [], "onRoute": false}, "geometry": {"type": "Point", "coordinates": [127.184444, 37.455833]}}, {"type": "Feature", "properties": {"name": "VEMUM", "routes": [], "onRoute": false}, "geometry": {"type": "Point", "coordinates": [127.336667, 37.539167]}}, {"type": "Feature", "properties": {"name": "VINOT", "routes": [], "onRoute": false}, "geometry": {"type": "Point", "coordinates": [127.298889, 37.370278]}}, {"type": "Feature", "properties": {"name": "WADIO", "routes": [], "onRoute": false}, "geometry": {"type": "Point", "coordinates": [127.107778, 37.415833]}}, {"type": "Feature", "properties": {"name": "YEOJU", "routes": [], "onRoute": false}, "geometry": {"type": "Point", "coordinates": [127.447222, 37.412778]}}, {"type": "Feature", "properties": {"name": "DAEBO", "routes": [], "onRoute": false}, "geometry": {"type": "Point", "coordinates": [129.529722, 36.141389]}}, {"type": "Feature", "properties": {"name": "DOKPA", "routes": [], "onRoute": false}, "geometry": {"type": "Point", "coordinates": [129.536389, 35.837778]}}, {"type": "Feature", "properties": {"name": "DORTI", "routes": [], "onRoute": false}, "geometry": {"type": "Point", "coordinates": [129.565833, 35.989444]}}, {"type": "Feature", "properties": {"name": "EMTIK", "routes": [], "onRoute": false}, "geometry": {"type": "Point", "coordinates": [129.319444, 35.948333]}}, {"type": "Feature", "properties": {"name": "GOVLI", "routes": [], "onRoute": false}, "geometry": {"type": "Point", "coordinates": [129.527778, 35.989167]}}, {"type": "Feature", "properties": {"name": "IGASA", "routes": [], "onRoute": false}, "geometry": {"type": "Point", "coordinates": [129.271389, 36.136111]}}, {"type": "Feature", "properties": {"name": "KADIL", "routes": [], "onRoute": false}, "geometry": {"type": "Point", "coordinates": [129.304444, 35.986667]}}, {"type": "Feature", "properties": {"name": "MAKUN", "routes": [], "onRoute": false}, "geometry": {"type": "Point", "coordinates": [129.364722, 35.781389]}}, {"type": "Feature", "properties": {"name": "MARMI", "routes": [], "onRoute": false}, "geometry": {"type": "Point", "coordinates": [129.295556, 35.986389]}}, {"type": "Feature", "properties": {"name": "PAPTO", "routes": [], "onRoute": false}, "geometry": {"type": "Point", "coordinates": [129.458056, 35.988333]}}, {"type": "Feature", "properties": {"name": "POSCO", "routes": [], "onRoute": false}, "geometry": {"type": "Point", "coordinates": [129.270278, 36.131389]}}, {"type": "Feature", "properties": {"name": "PUDEN", "routes": [], "onRoute": false}, "geometry": {"type": "Point", "coordinates": [129.41, 36.076667]}}, {"type": "Feature", "properties": {"name": "RUNSA", "routes": [], "onRoute": false}, "geometry": {"type": "Point", "coordinates": [129.183889, 35.985278]}}, {"type": "Feature", "properties": {"name": "RUTON", "routes": [], "onRoute": false}, "geometry": {"type": "Point", "coordinates": [129.531944, 36.140556]}}, {"type": "Feature", "properties": {"name": "RUVIS", "routes": [], "onRoute": false}, "geometry": {"type": "Point", "coordinates": [129.316667, 35.986667]}}, {"type": "Feature", "properties": {"name": "SABUM", "routes": [], "onRoute": false}, "geometry": {"type": "Point", "coordinates": [129.634722, 35.99]}}, {"type": "Feature", "properties": {"name": "VELKI", "routes": [], "onRoute": false}, "geometry": {"type": "Point", "coordinates": [129.525, 35.988889]}}, {"type": "Feature", "properties": {"name": "VISET", "routes": [], "onRoute": false}, "geometry": {"type": "Point", "coordinates": [129.379444, 35.9875]}}, {"type": "Feature", "properties": {"name": "ALDON", "routes": [], "onRoute": false}, "geometry": {"type": "Point", "coordinates": [129.589722, 36.946111]}}, {"type": "Feature", "properties": {"name": "BANYA", "routes": [], "onRoute": false}, "geometry": {"type": "Point", "coordinates": [129.668333, 36.67]}}, {"type": "Feature", "properties": {"name": "HUPHO", "routes": [], "onRoute": false}, "geometry": {"type": "Point", "coordinates": [129.529444, 36.601944]}}, {"type": "Feature", "properties": {"name": "LIDPA", "routes": [], "onRoute": false}, "geometry": {"type": "Point", "coordinates": [129.560833, 36.520556]}}, {"type": "Feature", "properties": {"name": "UMNAE", "routes": [], "onRoute": false}, "geometry": {"type": "Point", "coordinates": [129.396944, 36.944167]}}, {"type": "Feature", "properties": {"name": "BIGTU", "routes": [], "onRoute": false}, "geometry": {"type": "Point", "coordinates": [126.712778, 33.158333]}}, {"type": "Feature", "properties": {"name": "EGOMI", "routes": [], "onRoute": false}, "geometry": {"type": "Point", "coordinates": [126.544722, 33.206944]}}, {"type": "Feature", "properties": {"name": "GAEBI", "routes": [], "onRoute": false}, "geometry": {"type": "Point", "coordinates": [126.631944, 33.457222]}}, {"type": "Feature", "properties": {"name": "GAPHA", "routes": [], "onRoute": false}, "geometry": {"type": "Point", "coordinates": [126.694167, 33.159167]}}, {"type": "Feature", "properties": {"name": "GONEE", "routes": [], "onRoute": false}, "geometry": {"type": "Point", "coordinates": [126.861389, 33.443889]}}, {"type": "Feature", "properties": {"name": "MUPAS", "routes": [], "onRoute": false}, "geometry": {"type": "Point", "coordinates": [126.514444, 33.180278]}}, {"type": "Feature", "properties": {"name": "SUPUL", "routes": [], "onRoute": false}, "geometry": {"type": "Point", "coordinates": [126.928889, 33.429722]}}, {"type": "Feature", "properties": {"name": "TENUL", "routes": [], "onRoute": false}, "geometry": {"type": "Point", "coordinates": [126.919167, 33.233889]}}, {"type": "Feature", "properties": {"name": "TODAL", "routes": [], "onRoute": false}, "geometry": {"type": "Point", "coordinates": [126.765, 33.491111]}}, {"type": "Feature", "properties": {"name": "ALTON", "routes": [], "onRoute": false}, "geometry": {"type": "Point", "coordinates": [128.537222, 35.961944]}}, {"type": "Feature", "properties": {"name": "BULGO", "routes": [], "onRoute": false}, "geometry": {"type": "Point", "coordinates": [128.895833, 35.763333]}}, {"type": "Feature", "properties": {"name": "CABON", "routes": [], "onRoute": false}, "geometry": {"type": "Point", "coordinates": [128.561111, 35.9475]}}, {"type": "Feature", "properties": {"name": "DALGU", "routes": [], "onRoute": false}, "geometry": {"type": "Point", "coordinates": [128.339167, 36.1175]}}, {"type": "Feature", "properties": {"name": "DURYU", "routes": [], "onRoute": false}, "geometry": {"type": "Point", "coordinates": [128.131667, 35.636944]}}, {"type": "Feature", "properties": {"name": "GASAN", "routes": [], "onRoute": false}, "geometry": {"type": "Point", "coordinates": [128.536111, 35.961111]}}, {"type": "Feature", "properties": {"name": "GOOMI", "routes": [], "onRoute": false}, "geometry": {"type": "Point", "coordinates": [128.411389, 36.029722]}}, {"type": "Feature", "properties": {"name": "HOSAN", "routes": [], "onRoute": false}, "geometry": {"type": "Point", "coordinates": [128.057222, 36.000278]}}, {"type": "Feature", "properties": {"name": "INTER", "routes": [], "onRoute": false}, "geometry": {"type": "Point", "coordinates": [128.895, 35.762222]}}, {"type": "Feature", "properties": {"name": "KUMHO", "routes": [], "onRoute": false}, "geometry": {"type": "Point", "coordinates": [128.412222, 36.030833]}}, {"type": "Feature", "properties": {"name": "MAVIC", "routes": [], "onRoute": false}, "geometry": {"type": "Point", "coordinates": [128.772778, 35.830278]}}, {"type": "Feature", "properties": {"name": "MOSAN", "routes": [], "onRoute": false}, "geometry": {"type": "Point", "coordinates": [128.337222, 35.866111]}}, {"type": "Feature", "properties": {"name": "SADAN", "routes": [], "onRoute": false}, "geometry": {"type": "Point", "coordinates": [128.790278, 35.821944]}}, {"type": "Feature", "properties": {"name": "SINAM", "routes": [], "onRoute": false}, "geometry": {"type": "Point", "coordinates": [128.789444, 35.820833]}}, {"type": "Feature", "properties": {"name": "UKBAT", "routes": [], "onRoute": false}, "geometry": {"type": "Point", "coordinates": [128.946389, 35.938056]}}, {"type": "Feature", "properties": {"name": "YAWAN", "routes": [], "onRoute": false}, "geometry": {"type": "Point", "coordinates": [128.377222, 35.873611]}}, {"type": "Feature", "properties": {"name": "DUDOT", "routes": [], "onRoute": false}, "geometry": {"type": "Point", "coordinates": [126.7, 37.486667]}}, {"type": "Feature", "properties": {"name": "UPDET", "routes": [], "onRoute": false}, "geometry": {"type": "Point", "coordinates": [126.919722, 36.931111]}}, {"type": "Feature", "properties": {"name": "UPKIG", "routes": [], "onRoute": false}, "geometry": {"type": "Point", "coordinates": [127.321111, 37.023889]}}]}