{"type": "FeatureCollection", "features": [{"type": "Feature", "properties": {"name": "ANYANG VORTAC (8° W)", "ident": "SEL", "ntype": "VORTAC", "freq": "115.5 MHz"}, "geometry": {"type": "Point", "coordinates": [126.928333, 37.413611]}}, {"type": "Feature", "properties": {"name": "BUSAN VORTAC (7° W)", "ident": "PSN", "ntype": "VORTAC", "freq": "114.0 MHz"}, "geometry": {"type": "Point", "coordinates": [128.999444, 35.1225]}}, {"type": "Feature", "properties": {"name": "DALSEONG VORTAC (8° W)", "ident": "TGU", "ntype": "VORTAC", "freq": "112.2 MHz"}, "geometry": {"type": "Point", "coordinates": [128.590833, 35.809722]}}, {"type": "Feature", "properties": {"name": "GANGWON VORTAC (9° W)", "ident": "KAE", "ntype": "VORTAC", "freq": "115.6 MHz"}, "geometry": {"type": "Point", "coordinates": [128.753889, 37.700833]}}, {"type": "Feature", "properties": {"name": "GUNSAN VORTAC (7° W)", "ident": "KUZ", "ntype": "VORTAC", "freq": "112.8 MHz"}, "geometry": {"type": "Point", "coordinates": [126.611389, 35.910278]}}, {"type": "Feature", "properties": {"name": "GWANGJU TACAN (8° W)", "ident": "KWJ", "ntype": "TACAN", "freq": "CH 88"}, "geometry": {"type": "Point", "coordinates": [126.802778, 35.123056]}}, {"type": "Feature", "properties": {"name": "GWANGJU VOR/DME (8° W)", "ident": "KWA", "ntype": "VOR/DME", "freq": "114.4 MHz"}, "geometry": {"type": "Point", "coordinates": [126.812222, 35.126111]}}, {"type": "Feature", "properties": {"name": "JEJU VORTAC (7° W)", "ident": "CJU", "ntype": "VORTAC", "freq": "116.1 MHz"}, "geometry": {"type": "Point", "coordinates": [126.624167, 33.384722]}}, {"type": "Feature", "properties": {"name": "POHANG VORTAC (8° W)", "ident": "KPO", "ntype": "VORTAC", "freq": "112.5 MHz"}, "geometry": {"type": "Point", "coordinates": [129.474444, 35.977222]}}, {"type": "Feature", "properties": {"name": "SONGTAN VORTAC (8° W)", "ident": "SOT", "ntype": "VORTAC", "freq": "116.9 MHz"}, "geometry": {"type": "Point", "coordinates": [127.031667, 37.094444]}}, {"type": "Feature", "properties": {"name": "YECHEON VOR/DME (8° W)", "ident": "CUN", "ntype": "VOR/DME", "freq": "114.8 MHz"}, "geometry": {"type": "Point", "coordinates": [128.325278, 36.631944]}}]}