{"type": "FeatureCollection", "features": [{"type": "Feature", "properties": {"name": "금강", "kind": "poly"}, "geometry": {"type": "Polygon", "coordinates": [[[127.05445, 36.42166], [127.04479, 36.40877], [127.01641, 36.38847], [127.01305, 36.39053], [127.02789, 36.40325], [127.02875, 36.40164], [127.02365, 36.39701], [127.04548, 36.41368], [127.06297, 36.4432], [127.0913, 36.45409], [127.09567, 36.46006], [127.09865, 36.4596], [127.0948, 36.45445], [127.08663, 36.44887], [127.06403, 36.44072], [127.05488, 36.42248], [127.05445, 36.42166]]]}}, {"type": "Feature", "properties": {"name": "낙동강", "kind": "poly"}, "geometry": {"type": "Polygon", "coordinates": [[[128.37465, 36.12761], [128.3738, 36.13874], [128.38113, 36.15766], [128.37913, 36.16823], [128.38027, 36.17466], [128.3766, 36.18122], [128.36794, 36.1881], [128.36375, 36.19418], [128.36687, 36.19543], [128.38094, 36.18427], [128.38704, 36.1761], [128.3884, 36.16812], [128.38586, 36.16102], [128.38582, 36.1533], [128.3777, 36.1366], [128.37792, 36.1334], [128.37978, 36.12942], [128.39479, 36.12349], [128.39973, 36.11344], [128.39887, 36.1109], [128.39467, 36.11087], [128.39027, 36.12042], [128.3747, 36.12744], [128.37465, 36.12761]]]}}, {"type": "Feature", "properties": {"name": "금강", "kind": "poly"}, "geometry": {"type": "Polygon", "coordinates": [[[126.97682, 36.19966], [127.00051, 36.18002], [127.00909, 36.16324], [127.00507, 36.16155], [126.99714, 36.17874], [126.9704, 36.20071], [126.9747, 36.20167], [126.97608, 36.2002], [126.97682, 36.19966]]]}}, {"type": "Feature", "properties": {"name": "금강", "kind": "poly"}, "geometry": {"type": "Polygon", "coordinates": [[[127.45269, 36.44905], [127.44145, 36.45032], [127.43529, 36.45664], [127.41186, 36.45377], [127.40285, 36.45463], [127.40031, 36.45696], [127.40246, 36.45793], [127.41036, 36.45479], [127.43287, 36.45798], [127.43731, 36.45726], [127.44316, 36.45107], [127.45249, 36.45045], [127.45269, 36.44905]]]}}, {"type": "Feature", "properties": {"name": "북한강", "kind": "poly"}, "geometry": {"type": "Polygon", "coordinates": [[[127.72988, 38.09257], [127.72828, 38.09115], [127.73155, 38.08858], [127.74145, 38.08358], [127.74823, 38.08257], [127.75515, 38.08652], [127.76476, 38.10569], [127.7619, 38.12704], [127.7692, 38.12991], [127.77658, 38.12447], [127.77776, 38.11873], [127.77958, 38.11839], [127.78042, 38.12197], [127.77386, 38.12898], [127.76576, 38.13106], [127.76021, 38.12676], [127.76255, 38.11987], [127.76333, 38.10405], [127.75283, 38.08652], [127.74881, 38.08445], [127.74325, 38.08475], [127.73569, 38.08772], [127.73041, 38.09224], [127.72988, 38.09257]]]}}, {"type": "Feature", "properties": {"name": "금강", "kind": "poly"}, "geometry": {"type": "Polygon", "coordinates": [[[127.40156, 36.45955], [127.40246, 36.45793], [127.39985, 36.45809], [127.39906, 36.47105], [127.40348, 36.48103], [127.40054, 36.48811], [127.39095, 36.4936], [127.38501, 36.49961], [127.38094, 36.49921], [127.37029, 36.48912], [127.36093, 36.49097], [127.36944, 36.49033], [127.38071, 36.50071], [127.38878, 36.49882], [127.40471, 36.48431], [127.40488, 36.47684], [127.40124, 36.46038], [127.40156, 36.45955]]]}}, {"type": "Feature", "properties": {"name": "금강", "kind": "poly"}, "geometry": {"type": "Polygon", "coordinates": [[[127.67807, 36.31813], [127.67748, 36.31954], [127.69048, 36.31598], [127.69243, 36.31277], [127.69221, 36.3054], [127.6895, 36.30328], [127.68198, 36.30344], [127.67167, 36.31033], [127.667, 36.31066], [127.66363, 36.30343], [127.66756, 36.29456], [127.67184, 36.2926], [127.69208, 36.29204], [127.69792, 36.28757], [127.69787, 36.27987], [127.69349, 36.27776], [127.66126, 36.27835], [127.65787, 36.28023], [127.65357, 36.28908], [127.64729, 36.2903], [127.64629, 36.28709], [127.65185, 36.27703], [127.64923, 36.27008], [127.62937, 36.25876], [127.63308, 36.25763], [127.64849, 36.2611], [127.66336, 36.2604], [127.66943, 36.25557], [127.67043, 36.24057], [127.66856, 36.24072], [127.66966, 36.24496], [127.66807, 36.25227], [127.66247, 36.25936], [127.64781, 36.25969], [127.62883, 36.25696], [127.62857, 36.25936], [127.63128, 36.26205], [127.64808, 36.27025], [127.64935, 36.27758], [127.64425, 36.28877], [127.64652, 36.29117], [127.65383, 36.29029], [127.65958, 36.28032], [127.66183, 36.27929], [127.69429, 36.27868], [127.69713, 36.28043], [127.69684, 36.28743], [127.69225, 36.29101], [127.67181, 36.29193], [127.66745, 36.29347], [127.66461, 36.29802], [127.66257, 36.30366], [127.6675, 36.31169], [127.67212, 36.31093], [127.68425, 36.30384], [127.69097, 36.30524], [127.69138, 36.3106], [127.68948, 36.31442], [127.67934, 36.31759], [127.67807, 36.31813]]]}}, {"type": "Feature", "properties": {"name": "낙동강", "kind": "poly"}, "geometry": {"type": "Polygon", "coordinates": [[[128.39178, 35.99992], [128.39659, 36.02152], [128.39343, 36.02314], [128.39543, 36.02439], [128.40122, 36.02167], [128.40051, 36.01581], [128.39562, 35.99968], [128.39307, 35.98027], [128.38835, 35.9826], [128.3917, 35.99952], [128.39178, 35.99992]]]}}, {"type": "Feature", "properties": {"name": "림진강·임진강", "kind": "poly"}, "geometry": {"type": "Polygon", "coordinates": [[[126.87098, 38.48212], [126.86462, 38.4983], [126.86212, 38.49739], [126.86859, 38.48212], [126.86744, 38.47853], [126.86265, 38.47648], [126.86852, 38.47683], [126.871, 38.48175], [126.87098, 38.48212]]]}}, {"type": "Feature", "properties": {"name": "낙동강", "kind": "poly"}, "geometry": {"type": "Polygon", "coordinates": [[[128.39467, 36.11087], [128.39472, 36.09102], [128.38051, 36.07562], [128.40177, 36.04142], [128.40282, 36.03326], [128.40152, 36.03101], [128.39888, 36.03141], [128.40014, 36.02908], [128.39783, 36.02341], [128.40122, 36.02167], [128.40643, 36.02797], [128.4087, 36.0343], [128.40783, 36.0414], [128.39011, 36.06959], [128.38846, 36.07501], [128.39249, 36.08281], [128.39931, 36.08836], [128.39955, 36.10578], [128.39887, 36.1109], [128.39686, 36.1109], [128.39467, 36.11087]]]}}, {"type": "Feature", "properties": {"name": "소양강", "kind": "poly"}, "geometry": {"type": "Polygon", "coordinates": [[[127.72836, 37.89833], [127.73897, 37.89562], [127.74418, 37.89783], [127.74532, 37.90573], [127.7431, 37.92087], [127.76979, 37.9279], [127.78568, 37.92821], [127.79882, 37.93443], [127.80974, 37.94408], [127.81349, 37.94278], [127.8082, 37.94128], [127.79989, 37.93377], [127.78732, 37.92655], [127.76904, 37.9259], [127.74675, 37.9207], [127.74519, 37.91654], [127.75035, 37.90376], [127.75039, 37.89904], [127.74512, 37.89404], [127.73963, 37.8918], [127.72728, 37.89405], [127.72836, 37.89833]]]}}, {"type": "Feature", "properties": {"name": "남한강", "kind": "poly"}, "geometry": {"type": "Polygon", "coordinates": [[[127.89109, 36.98868], [127.88676, 36.98888], [127.88135, 36.99374], [127.87017, 37.01002], [127.87372, 37.01128], [127.87792, 37.00374], [127.88715, 36.99457], [127.89422, 36.9932], [127.90803, 37.00066], [127.91108, 37.01045], [127.90971, 37.01461], [127.91279, 37.01806], [127.92191, 37.02228], [127.94289, 37.02254], [127.9429, 37.01941], [127.92583, 37.0204], [127.91789, 37.01781], [127.91397, 37.01043], [127.91346, 37.00138], [127.91072, 36.99773], [127.90317, 36.9897], [127.89113, 36.98873], [127.89109, 36.98868]]]}}, {"type": "Feature", "properties": {"name": "남한강", "kind": "poly"}, "geometry": {"type": "Polygon", "coordinates": [[[127.80623, 37.11534], [127.80868, 37.11703], [127.82092, 37.11295], [127.82404, 37.10996], [127.82452, 37.09893], [127.83234, 37.08757], [127.85343, 37.08103], [127.87294, 37.08447], [127.8772, 37.0794], [127.88489, 37.07527], [127.88772, 37.06949], [127.88556, 37.06955], [127.88364, 37.07383], [127.87478, 37.07794], [127.86433, 37.08002], [127.85352, 37.07841], [127.83776, 37.08074], [127.8286, 37.08742], [127.82151, 37.09909], [127.81595, 37.10249], [127.80664, 37.11475], [127.80623, 37.11534]]]}}, {"type": "Feature", "properties": {"name": "낙동강", "kind": "poly"}, "geometry": {"type": "Polygon", "coordinates": [[[128.32946, 36.29556], [128.34318, 36.28434], [128.34487, 36.27301], [128.34085, 36.27275], [128.33895, 36.28159], [128.33552, 36.28653], [128.32661, 36.29292], [128.32456, 36.29221], [128.32322, 36.29555], [128.31763, 36.29849], [128.31951, 36.3021], [128.32932, 36.29572], [128.32946, 36.29556]]]}}, {"type": "Feature", "properties": {"name": "낙동강", "kind": "poly"}, "geometry": {"type": "Polygon", "coordinates": [[[128.37465, 36.12761], [128.3738, 36.13874], [128.38113, 36.15766], [128.37913, 36.16823], [128.38027, 36.17466], [128.3766, 36.18122], [128.36794, 36.1881], [128.36375, 36.19418], [128.36687, 36.19543], [128.38094, 36.18427], [128.38704, 36.1761], [128.3884, 36.16812], [128.38586, 36.16102], [128.38582, 36.1533], [128.3777, 36.1366], [128.37792, 36.1334], [128.37978, 36.12942], [128.39479, 36.12349], [128.39973, 36.11344], [128.39887, 36.1109], [128.39467, 36.11087], [128.39027, 36.12042], [128.3747, 36.12744], [128.37465, 36.12761]]]}}, {"type": "Feature", "properties": {"name": "낙동강", "kind": "poly"}, "geometry": {"type": "Polygon", "coordinates": [[[128.91689, 35.36534], [128.93343, 35.35081], [128.92913, 35.34811], [128.91606, 35.35808], [128.9035, 35.36426], [128.89798, 35.36259], [128.88103, 35.36663], [128.87359, 35.37166], [128.86719, 35.38879], [128.86221, 35.39231], [128.85495, 35.39185], [128.83261, 35.38119], [128.82167, 35.37934], [128.8184, 35.37645], [128.81408, 35.37737], [128.81145, 35.38257], [128.81773, 35.38191], [128.82545, 35.38388], [128.85584, 35.39714], [128.86398, 35.39744], [128.86965, 35.3939], [128.87703, 35.37575], [128.88192, 35.3711], [128.89535, 35.36586], [128.90987, 35.3678], [128.91682, 35.3653], [128.91689, 35.36534]]]}}, {"type": "Feature", "properties": {"name": "서낙동강", "kind": "poly"}, "geometry": {"type": "Polygon", "coordinates": [[[128.99429, 35.23224], [128.99022, 35.22771], [128.97123, 35.22365], [128.93643, 35.22486], [128.93477, 35.22364], [128.93661, 35.22303], [128.92669, 35.21708], [128.91626, 35.20537], [128.90784, 35.19997], [128.90551, 35.19586], [128.90692, 35.19238], [128.90441, 35.19239], [128.90252, 35.19585], [128.90353, 35.20063], [128.91186, 35.2128], [128.9188, 35.21431], [128.93922, 35.22807], [128.97399, 35.22509], [128.99431, 35.23242], [128.99429, 35.23224]]]}}, {"type": "Feature", "properties": {"name": "서낙동강", "kind": "poly"}, "geometry": {"type": "Polygon", "coordinates": [[[128.89835, 35.12417], [128.90036, 35.13181], [128.89191, 35.13753], [128.88681, 35.14469], [128.88664, 35.15546], [128.88965, 35.16134], [128.89289, 35.16087], [128.901, 35.1645], [128.8998, 35.16544], [128.90441, 35.19239], [128.90715, 35.19202], [128.90872, 35.18457], [128.90362, 35.15082], [128.90652, 35.12992], [128.90364, 35.12004], [128.8949, 35.12212], [128.89793, 35.12416], [128.89835, 35.12417]]]}}, {"type": "Feature", "properties": {"name": "금강", "kind": "poly"}, "geometry": {"type": "Polygon", "coordinates": [[[126.9704, 36.20071], [126.96598, 36.20913], [126.96695, 36.21658], [126.96493, 36.23452], [126.96033, 36.24146], [126.95301, 36.24356], [126.95253, 36.24574], [126.94955, 36.24392], [126.93767, 36.24907], [126.93222, 36.24811], [126.92425, 36.2515], [126.91883, 36.25057], [126.90099, 36.25283], [126.88889, 36.26291], [126.89102, 36.26217], [126.88819, 36.2676], [126.89205, 36.28026], [126.89894, 36.28841], [126.91235, 36.29534], [126.91346, 36.29827], [126.91631, 36.29692], [126.92038, 36.30424], [126.92313, 36.30327], [126.91867, 36.29406], [126.90565, 36.28889], [126.89433, 36.27856], [126.89295, 36.27126], [126.89447, 36.26366], [126.90478, 36.25491], [126.92453, 36.25437], [126.94163, 36.25145], [126.95598, 36.24737], [126.96605, 36.24175], [126.96994, 36.21977], [126.96945, 36.21152], [126.9747, 36.20167], [126.9704, 36.20071]]]}}, {"type": "Feature", "properties": {"name": "한강", "kind": "poly"}, "geometry": {"type": "Polygon", "coordinates": [[[127.02516, 37.54147], [127.05471, 37.53425], [127.06977, 37.5281], [127.0877, 37.52689], [127.09161, 37.51969], [127.08128, 37.51846], [127.06591, 37.52055], [127.05222, 37.52908], [127.02828, 37.5348], [127.02193, 37.53169], [127.00418, 37.5155], [126.9912, 37.50739], [126.97122, 37.50715], [126.94566, 37.51827], [126.92961, 37.53148], [126.91187, 37.53598], [126.91024, 37.53532], [126.91224, 37.53475], [126.90815, 37.53487], [126.86686, 37.5614], [126.81788, 37.58764], [126.79785, 37.60539], [126.78856, 37.60732], [126.77102, 37.61917], [126.75823, 37.62243], [126.74459, 37.62873], [126.73463, 37.63587], [126.70681, 37.64823], [126.70271, 37.65139], [126.70195, 37.65478], [126.67859, 37.66503], [126.66783, 37.67305], [126.65896, 37.68355], [126.66001, 37.69168], [126.66435, 37.69591], [126.66256, 37.69941], [126.66292, 37.70474], [126.67122, 37.72888], [126.6659, 37.75453], [126.65631, 37.76832], [126.6748, 37.77306], [126.67518, 37.77091], [126.67946, 37.77038], [126.68379, 37.76697], [126.68707, 37.75834], [126.68508, 37.75604], [126.68645, 37.7434], [126.6853, 37.73848], [126.68766, 37.73605], [126.68854, 37.7285], [126.68665, 37.72051], [126.67523, 37.70498], [126.67124, 37.6924], [126.67872, 37.68075], [126.69097, 37.67056], [126.71215, 37.66185], [126.72697, 37.65263], [126.73137, 37.66043], [126.73671, 37.65664], [126.73098, 37.65974], [126.73041, 37.65506], [126.7274, 37.6523], [126.72551, 37.65314], [126.73258, 37.64768], [126.76149, 37.63231], [126.77834, 37.62724], [126.78889, 37.62183], [126.80039, 37.61465], [126.81911, 37.59664], [126.85066, 37.58166], [126.87592, 37.56498], [126.88485, 37.56188], [126.90989, 37.54425], [126.9175, 37.54253], [126.92585, 37.54414], [126.93742, 37.54119], [126.94326, 37.53467], [126.95159, 37.52975], [126.95313, 37.52406], [126.95565, 37.52179], [126.97492, 37.51514], [126.98743, 37.51522], [126.99411, 37.51733], [127.01204, 37.53047], [127.02081, 37.54109], [127.02516, 37.54147]]]}}, {"type": "Feature", "properties": {"name": "금강", "kind": "poly"}, "geometry": {"type": "Polygon", "coordinates": [[[126.7569, 36.02877], [126.76617, 36.0354], [126.80321, 36.03674], [126.80715, 36.03932], [126.81048, 36.04582], [126.81553, 36.04916], [126.85963, 36.06265], [126.86364, 36.06587], [126.86533, 36.07369], [126.86728, 36.07499], [126.87006, 36.10059], [126.87691, 36.10105], [126.88006, 36.08049], [126.87917, 36.07112], [126.8666, 36.05641], [126.85723, 36.05437], [126.81336, 36.03012], [126.7994, 36.02427], [126.79401, 36.02614], [126.7642, 36.02272], [126.757, 36.01668], [126.75601, 36.01305], [126.74059, 36.01981], [126.74553, 36.02619], [126.75671, 36.02878], [126.7569, 36.02877]]]}}, {"type": "Feature", "properties": {"name": "한강", "kind": "poly"}, "geometry": {"type": "Polygon", "coordinates": [[[126.67344, 37.77878], [126.6748, 37.77306], [126.65631, 37.76832], [126.65221, 37.77353], [126.64501, 37.77461], [126.6425, 37.77676], [126.63104, 37.77284], [126.62254, 37.76185], [126.60865, 37.75313], [126.60348, 37.75323], [126.59948, 37.75689], [126.59262, 37.75799], [126.58021, 37.75268], [126.56784, 37.75387], [126.56107, 37.7611], [126.56112, 37.76503], [126.57147, 37.77256], [126.58678, 37.77024], [126.59638, 37.77336], [126.60643, 37.78652], [126.61428, 37.7899], [126.61526, 37.79248], [126.62783, 37.79324], [126.63382, 37.79112], [126.64163, 37.7921], [126.64879, 37.79123], [126.64914, 37.78971], [126.65384, 37.79039], [126.67344, 37.77878]]]}}, {"type": "Feature", "properties": {"name": "한강", "kind": "poly"}, "geometry": {"type": "Polygon", "coordinates": [[[127.15575, 37.5716], [127.15111, 37.56797], [127.13872, 37.568], [127.12738, 37.56216], [127.12252, 37.55692], [127.11735, 37.5448], [127.10739, 37.53037], [127.09999, 37.52362], [127.09161, 37.51969], [127.0877, 37.52689], [127.10758, 37.54326], [127.1156, 37.56123], [127.12384, 37.56847], [127.13586, 37.57389], [127.14985, 37.57562], [127.17612, 37.58645], [127.18072, 37.59113], [127.18596, 37.59214], [127.19705, 37.5909], [127.204, 37.58752], [127.21103, 37.57987], [127.22431, 37.57173], [127.23976, 37.54689], [127.24905, 37.54334], [127.26325, 37.53431], [127.28021, 37.5283], [127.27764, 37.52485], [127.2748, 37.52777], [127.26536, 37.53083], [127.25147, 37.53867], [127.23222, 37.54594], [127.22392, 37.55353], [127.22365, 37.55631], [127.22028, 37.55732], [127.20637, 37.57555], [127.19607, 37.58348], [127.18268, 37.5839], [127.17275, 37.57919], [127.17051, 37.57977], [127.15671, 37.57197], [127.15575, 37.5716]]]}}, {"type": "Feature", "properties": {"name": "낙동강", "kind": "poly"}, "geometry": {"type": "Polygon", "coordinates": [[[128.40001, 35.78679], [128.40475, 35.78569], [128.40294, 35.78306], [128.40449, 35.7812], [128.4035, 35.77914], [128.40014, 35.77716], [128.40176, 35.77492], [128.38792, 35.75929], [128.38174, 35.75912], [128.39745, 35.77957], [128.39994, 35.78666], [128.40001, 35.78679]]]}}, {"type": "Feature", "properties": {"name": "낙동강", "kind": "poly"}, "geometry": {"type": "Polygon", "coordinates": [[[128.2662, 36.41032], [128.27324, 36.40617], [128.27515, 36.40041], [128.27832, 36.39867], [128.29017, 36.40126], [128.29369, 36.40475], [128.30008, 36.40694], [128.30947, 36.40484], [128.32023, 36.39342], [128.31529, 36.37777], [128.31275, 36.36117], [128.30255, 36.35741], [128.28706, 36.34667], [128.28676, 36.33044], [128.28418, 36.32301], [128.28979, 36.31541], [128.30036, 36.31035], [128.3046, 36.31022], [128.31951, 36.3021], [128.31763, 36.29849], [128.28677, 36.31289], [128.27978, 36.32153], [128.28223, 36.34909], [128.30963, 36.36534], [128.30999, 36.37421], [128.31485, 36.38884], [128.31019, 36.399], [128.2984, 36.40319], [128.28705, 36.39696], [128.2759, 36.39612], [128.27116, 36.39933], [128.27064, 36.40378], [128.26812, 36.40588], [128.26326, 36.40819], [128.24398, 36.40898], [128.23667, 36.41457], [128.23344, 36.42018], [128.23425, 36.42907], [128.2378, 36.43538], [128.24985, 36.43487], [128.25409, 36.43819], [128.25917, 36.44666], [128.25435, 36.45578], [128.24749, 36.45746], [128.24314, 36.46344], [128.24545, 36.46786], [128.26866, 36.48655], [128.26369, 36.51576], [128.26431, 36.51825], [128.26909, 36.518], [128.26804, 36.50814], [128.27222, 36.489], [128.27407, 36.48845], [128.27301, 36.48454], [128.25721, 36.47101], [128.24823, 36.46583], [128.24664, 36.46254], [128.2483, 36.46004], [128.25786, 36.4567], [128.26449, 36.44489], [128.2652, 36.44018], [128.25734, 36.43274], [128.23874, 36.4301], [128.23642, 36.42371], [128.23812, 36.41811], [128.24598, 36.41183], [128.26587, 36.41051], [128.2662, 36.41032]]]}}, {"type": "Feature", "properties": {"name": "금강", "kind": "poly"}, "geometry": {"type": "Polygon", "coordinates": [[[127.13677, 36.46342], [127.15434, 36.45632], [127.15367, 36.45375], [127.15099, 36.45333], [127.11221, 36.47221], [127.10675, 36.47134], [127.09865, 36.4596], [127.09567, 36.46006], [127.10403, 36.47227], [127.10948, 36.47522], [127.12194, 36.47187], [127.12274, 36.47029], [127.12499, 36.47124], [127.1365, 36.46349], [127.13677, 36.46342]]]}}, {"type": "Feature", "properties": {"name": "낙동강", "kind": "poly"}, "geometry": {"type": "Polygon", "coordinates": [[[128.46081, 35.84262], [128.47107, 35.837], [128.46993, 35.83268], [128.47952, 35.82475], [128.48064, 35.81401], [128.47902, 35.81273], [128.47657, 35.81549], [128.47755, 35.81916], [128.47579, 35.82319], [128.46313, 35.83611], [128.45891, 35.83731], [128.46015, 35.83882], [128.45508, 35.83726], [128.45737, 35.83813], [128.45516, 35.84159], [128.43143, 35.84697], [128.40366, 35.84974], [128.39478, 35.84842], [128.38268, 35.85203], [128.37965, 35.86158], [128.3815, 35.86263], [128.38091, 35.86893], [128.38597, 35.88089], [128.39124, 35.87968], [128.39118, 35.87653], [128.39306, 35.87886], [128.39553, 35.87834], [128.38854, 35.86329], [128.39069, 35.85706], [128.39478, 35.85354], [128.40085, 35.85217], [128.41688, 35.85322], [128.44442, 35.84981], [128.46057, 35.84279], [128.46081, 35.84262]]]}}, {"type": "Feature", "properties": {"name": "영산강", "kind": "poly"}, "geometry": {"type": "Polygon", "coordinates": [[[126.86462, 35.22379], [126.87366, 35.23711], [126.8883, 35.24064], [126.89006, 35.24711], [126.90389, 35.2584], [126.89042, 35.24937], [126.88746, 35.24154], [126.87977, 35.24005], [126.87193, 35.24138], [126.86741, 35.22948], [126.85726, 35.21694], [126.86244, 35.21789], [126.86466, 35.22252], [126.86462, 35.22379]]]}}, {"type": "Feature", "properties": {"name": "낙동강", "kind": "poly"}, "geometry": {"type": "Polygon", "coordinates": [[[128.76915, 36.58301], [128.76755, 36.58233], [128.77064, 36.58133], [128.76674, 36.58128], [128.76184, 36.57494], [128.74597, 36.5627], [128.7447, 36.56425], [128.75704, 36.57547], [128.75314, 36.57729], [128.75386, 36.57902], [128.75337, 36.57727], [128.75789, 36.57592], [128.76761, 36.5854], [128.77139, 36.58593], [128.77159, 36.58435], [128.76951, 36.58494], [128.77119, 36.58272], [128.76973, 36.58285], [128.76915, 36.58301]]]}}, {"type": "Feature", "properties": {"name": "남한강", "kind": "poly"}, "geometry": {"type": "Polygon", "coordinates": [[[127.66053, 37.29425], [127.65164, 37.29328], [127.63024, 37.30135], [127.62078, 37.30249], [127.61722, 37.30557], [127.61803, 37.31405], [127.60344, 37.32984], [127.59146, 37.33651], [127.57756, 37.35229], [127.54853, 37.36725], [127.53619, 37.3906], [127.53761, 37.39345], [127.53718, 37.40396], [127.52992, 37.42433], [127.52185, 37.43317], [127.50697, 37.43838], [127.49906, 37.44511], [127.49427, 37.45431], [127.49261, 37.47732], [127.4889, 37.48427], [127.47363, 37.49422], [127.44732, 37.50503], [127.43477, 37.50612], [127.42098, 37.50289], [127.41362, 37.50631], [127.42107, 37.50774], [127.4218, 37.50988], [127.42173, 37.50782], [127.42467, 37.50769], [127.44731, 37.51078], [127.44661, 37.50944], [127.45743, 37.50445], [127.4842, 37.49534], [127.49724, 37.47932], [127.49775, 37.46515], [127.50084, 37.45655], [127.50566, 37.45188], [127.50364, 37.44915], [127.50572, 37.44484], [127.51178, 37.43954], [127.52644, 37.43686], [127.53415, 37.42572], [127.54727, 37.39117], [127.54582, 37.38789], [127.54776, 37.37952], [127.55342, 37.37023], [127.60063, 37.34471], [127.60627, 37.33691], [127.60558, 37.33455], [127.61136, 37.33381], [127.61269, 37.32757], [127.62376, 37.31894], [127.62439, 37.31617], [127.62152, 37.31882], [127.62173, 37.31724], [127.62696, 37.31379], [127.63174, 37.30578], [127.63696, 37.30264], [127.65535, 37.29636], [127.67068, 37.29924], [127.67605, 37.29782], [127.68772, 37.27478], [127.68275, 37.26377], [127.68492, 37.25459], [127.68376, 37.25278], [127.69063, 37.23654], [127.69538, 37.23138], [127.70165, 37.23104], [127.70294, 37.23272], [127.70423, 37.23131], [127.72624, 37.2309], [127.74161, 37.22855], [127.74697, 37.23001], [127.74947, 37.22797], [127.75104, 37.22072], [127.74506, 37.21146], [127.74665, 37.2057], [127.74468, 37.20445], [127.74336, 37.21054], [127.74806, 37.22007], [127.7457, 37.22559], [127.71887, 37.22835], [127.71343, 37.22781], [127.71494, 37.22614], [127.7084, 37.22812], [127.69702, 37.22719], [127.69254, 37.22919], [127.68811, 37.23375], [127.68048, 37.2485], [127.68122, 37.2545], [127.67875, 37.26191], [127.6836, 37.27387], [127.67981, 37.28532], [127.67313, 37.29503], [127.66083, 37.29434], [127.66053, 37.29425]]]}}, {"type": "Feature", "properties": {"name": "북한강", "kind": "poly"}, "geometry": {"type": "Polygon", "coordinates": [[[127.65682, 38.02782], [127.6532, 38.03101], [127.6771, 38.04848], [127.67885, 38.05487], [127.67514, 38.05768], [127.67886, 38.05662], [127.6798, 38.06113], [127.68212, 38.06262], [127.68422, 38.08694], [127.686, 38.0889], [127.68409, 38.09164], [127.68671, 38.09128], [127.69073, 38.09665], [127.69854, 38.1014], [127.70856, 38.10223], [127.71048, 38.10475], [127.71052, 38.10181], [127.71967, 38.09999], [127.72988, 38.09257], [127.72828, 38.09115], [127.71399, 38.09973], [127.70482, 38.09913], [127.69809, 38.09611], [127.68901, 38.08144], [127.68743, 38.07455], [127.68812, 38.06112], [127.68302, 38.05149], [127.65768, 38.02861], [127.65682, 38.02782]]]}}, {"type": "Feature", "properties": {"name": "낙동강", "kind": "poly"}, "geometry": {"type": "Polygon", "coordinates": [[[128.74597, 36.5627], [128.73603, 36.55541], [128.70566, 36.55147], [128.6918, 36.54298], [128.68771, 36.54223], [128.68223, 36.54402], [128.67951, 36.54705], [128.67912, 36.5543], [128.6822, 36.56176], [128.68026, 36.56414], [128.67596, 36.56475], [128.67286, 36.56269], [128.66558, 36.54834], [128.67025, 36.56322], [128.67455, 36.5667], [128.68206, 36.56634], [128.68524, 36.5634], [128.68079, 36.54924], [128.68255, 36.54504], [128.68715, 36.54327], [128.69039, 36.54395], [128.70271, 36.55501], [128.73436, 36.55864], [128.74536, 36.56319], [128.74597, 36.5627]]]}}, {"type": "Feature", "properties": {"name": "남한강", "kind": "poly"}, "geometry": {"type": "Polygon", "coordinates": [[[127.94291, 37.01984], [127.95073, 37.02027], [127.95948, 37.02347], [127.97738, 37.01207], [127.98725, 37.00976], [127.99167, 37.00595], [127.9925, 37.00787], [127.9774, 37.01395], [127.96084, 37.02573], [127.94289, 37.02254], [127.94288, 37.02114], [127.94291, 37.01984]]]}}, {"type": "Feature", "properties": {"name": "남한강", "kind": "poly"}, "geometry": {"type": "Polygon", "coordinates": [[[127.87936, 37.04974], [127.86791, 37.04335], [127.86128, 37.03497], [127.86993, 37.02014], [127.87376, 37.01876], [127.87474, 37.01472], [127.87113, 37.01818], [127.87372, 37.01128], [127.86731, 37.01077], [127.86843, 37.0128], [127.86655, 37.01864], [127.85703, 37.03096], [127.85477, 37.02708], [127.853, 37.02749], [127.85361, 37.02558], [127.85007, 37.0283], [127.85657, 37.03258], [127.85682, 37.03807], [127.86486, 37.04576], [127.88471, 37.05582], [127.88752, 37.06197], [127.88556, 37.06955], [127.88772, 37.06949], [127.8906, 37.06116], [127.88634, 37.05352], [127.87958, 37.04983], [127.87936, 37.04974]]]}}, {"type": "Feature", "properties": {"name": "남한강", "kind": "poly"}, "geometry": {"type": "Polygon", "coordinates": [[[127.75738, 37.16798], [127.75017, 37.18207], [127.74468, 37.20445], [127.74665, 37.2057], [127.75473, 37.17761], [127.75879, 37.1697], [127.76569, 37.16083], [127.77212, 37.15577], [127.78616, 37.1496], [127.79135, 37.14341], [127.79968, 37.1251], [127.80868, 37.11703], [127.80623, 37.11534], [127.79595, 37.12613], [127.78868, 37.14372], [127.76609, 37.15759], [127.75756, 37.16772], [127.75738, 37.16798]]]}}, {"type": "Feature", "properties": {"name": "낙동강", "kind": "poly"}, "geometry": {"type": "Polygon", "coordinates": [[[128.6653, 36.54915], [128.66155, 36.5467], [128.64796, 36.54548], [128.63322, 36.54714], [128.63134, 36.55908], [128.61501, 36.56573], [128.60013, 36.56291], [128.59809, 36.56024], [128.59802, 36.55487], [128.59171, 36.54801], [128.58858, 36.55011], [128.59398, 36.55153], [128.59653, 36.55458], [128.5979, 36.56304], [128.61206, 36.56661], [128.62286, 36.56489], [128.63297, 36.55892], [128.63328, 36.54907], [128.63495, 36.54745], [128.64707, 36.5464], [128.6649, 36.54875], [128.6653, 36.54915]]]}}, {"type": "Feature", "properties": {"name": "낙동강", "kind": "poly"}, "geometry": {"type": "Polygon", "coordinates": [[[128.58833, 36.54942], [128.56752, 36.5616], [128.55804, 36.56315], [128.55108, 36.55739], [128.55356, 36.55173], [128.55997, 36.54579], [128.55879, 36.53933], [128.54563, 36.53461], [128.53554, 36.53515], [128.52325, 36.53189], [128.51336, 36.5354], [128.51114, 36.54052], [128.51392, 36.54257], [128.52289, 36.54288], [128.52499, 36.54681], [128.51414, 36.55029], [128.50619, 36.54916], [128.50567, 36.55057], [128.51476, 36.55153], [128.52578, 36.54788], [128.52655, 36.54524], [128.52422, 36.54242], [128.51265, 36.53996], [128.51412, 36.53635], [128.52237, 36.53276], [128.53602, 36.53654], [128.54463, 36.5356], [128.55771, 36.5405], [128.55927, 36.54521], [128.5497, 36.5542], [128.55041, 36.55902], [128.55775, 36.56416], [128.57173, 36.56218], [128.58858, 36.55011], [128.58833, 36.54942]]]}}, {"type": "Feature", "properties": {"name": "낙동강", "kind": "poly"}, "geometry": {"type": "Polygon", "coordinates": [[[128.39491, 35.46487], [128.41588, 35.47416], [128.42164, 35.48017], [128.42356, 35.48564], [128.42119, 35.49202], [128.39336, 35.50619], [128.39573, 35.50899], [128.42387, 35.49421], [128.42714, 35.48728], [128.4229, 35.47677], [128.41434, 35.46918], [128.38142, 35.45507], [128.37683, 35.4461], [128.37323, 35.44668], [128.37497, 35.45494], [128.39282, 35.46434], [128.39491, 35.46487]]]}}, {"type": "Feature", "properties": {"name": "낙동강", "kind": "poly"}, "geometry": {"type": "Polygon", "coordinates": [[[128.54756, 35.37801], [128.54158, 35.37716], [128.5317, 35.38294], [128.52409, 35.38422], [128.52425, 35.38859], [128.51308, 35.3936], [128.50566, 35.39378], [128.49194, 35.38831], [128.48888, 35.39145], [128.49871, 35.39932], [128.51232, 35.40112], [128.51698, 35.39637], [128.55282, 35.38181], [128.56976, 35.37967], [128.5806, 35.38237], [128.59279, 35.3931], [128.59929, 35.39584], [128.6157, 35.38388], [128.63263, 35.37641], [128.65765, 35.37515], [128.68006, 35.3809], [128.68915, 35.38054], [128.71393, 35.36853], [128.72205, 35.36684], [128.7463, 35.35262], [128.76547, 35.3481], [128.77621, 35.34974], [128.7691, 35.34971], [128.78097, 35.35159], [128.78478, 35.35396], [128.79559, 35.36585], [128.79738, 35.37149], [128.81145, 35.38257], [128.81408, 35.37737], [128.80546, 35.37229], [128.8019, 35.36074], [128.80429, 35.35458], [128.80192, 35.35214], [128.79454, 35.34727], [128.79657, 35.34899], [128.79524, 35.34969], [128.80037, 35.35158], [128.79935, 35.35227], [128.7808, 35.34709], [128.77817, 35.34421], [128.76488, 35.34216], [128.74958, 35.34682], [128.7405, 35.34656], [128.74294, 35.34791], [128.73206, 35.35032], [128.72699, 35.35545], [128.72352, 35.35591], [128.72304, 35.35859], [128.71531, 35.36138], [128.69951, 35.37218], [128.68545, 35.37684], [128.63788, 35.36935], [128.62558, 35.37146], [128.61611, 35.37621], [128.59974, 35.39184], [128.59352, 35.38989], [128.58238, 35.37884], [128.57797, 35.37749], [128.55706, 35.37664], [128.54766, 35.37802], [128.54756, 35.37801]]]}}, {"type": "Feature", "properties": {"name": "낙동강", "kind": "poly"}, "geometry": {"type": "Polygon", "coordinates": [[[128.50567, 36.55057], [128.47876, 36.54426], [128.4744, 36.54162], [128.44526, 36.53758], [128.43151, 36.52364], [128.41334, 36.52137], [128.3975, 36.50904], [128.38362, 36.50654], [128.3725, 36.51014], [128.36711, 36.52558], [128.36173, 36.53254], [128.35018, 36.53816], [128.34115, 36.54685], [128.32219, 36.54864], [128.3192, 36.55187], [128.31761, 36.56087], [128.30732, 36.56581], [128.30006, 36.56665], [128.29516, 36.56422], [128.29367, 36.55876], [128.29648, 36.55573], [128.2946, 36.55353], [128.26704, 36.55283], [128.26442, 36.55084], [128.26135, 36.54274], [128.2665, 36.53725], [128.26719, 36.529], [128.27012, 36.52825], [128.26926, 36.53614], [128.26444, 36.54338], [128.26694, 36.54956], [128.27544, 36.55169], [128.29664, 36.55167], [128.29895, 36.55433], [128.29617, 36.55839], [128.29767, 36.56432], [128.30208, 36.56529], [128.30943, 36.56363], [128.31515, 36.56076], [128.31906, 36.54801], [128.33988, 36.54594], [128.351, 36.53574], [128.36203, 36.53041], [128.36807, 36.51958], [128.36856, 36.50981], [128.37535, 36.50549], [128.38655, 36.50467], [128.39924, 36.50773], [128.41426, 36.52048], [128.43077, 36.52134], [128.44813, 36.53527], [128.47657, 36.5397], [128.50606, 36.54962], [128.50567, 36.55057]]]}}, {"type": "Feature", "properties": {"name": "낙동강", "kind": "poly"}, "geometry": {"type": "Polygon", "coordinates": [[[128.38381, 35.65205], [128.36425, 35.66911], [128.35414, 35.68161], [128.3493, 35.69717], [128.35149, 35.70552], [128.35685, 35.70835], [128.36828, 35.70778], [128.37844, 35.70496], [128.38155, 35.7019], [128.41524, 35.69498], [128.42174, 35.69691], [128.43008, 35.70315], [128.43263, 35.70842], [128.43631, 35.70865], [128.4358, 35.7045], [128.43252, 35.70119], [128.42158, 35.69355], [128.41642, 35.69212], [128.38195, 35.69912], [128.36264, 35.70526], [128.35363, 35.70226], [128.35356, 35.69259], [128.35865, 35.68069], [128.38111, 35.65829], [128.38726, 35.65524], [128.38522, 35.65306], [128.38381, 35.65205]]]}}, {"type": "Feature", "properties": {"name": "낙동강", "kind": "poly"}, "geometry": {"type": "Polygon", "coordinates": [[[128.45509, 35.80581], [128.42227, 35.80666], [128.41274, 35.79967], [128.40475, 35.78569], [128.40001, 35.78679], [128.40857, 35.79968], [128.41899, 35.80977], [128.438, 35.81158], [128.46332, 35.81055], [128.47145, 35.8121], [128.47657, 35.81549], [128.47902, 35.81273], [128.47096, 35.80669], [128.45554, 35.80592], [128.45509, 35.80581]]]}}, {"type": "Feature", "properties": {"name": "낙동강", "kind": "poly"}, "geometry": {"type": "Polygon", "coordinates": [[[128.39307, 35.98027], [128.39433, 35.96424], [128.40016, 35.94175], [128.39899, 35.94131], [128.40166, 35.93856], [128.40129, 35.93373], [128.40874, 35.90885], [128.41019, 35.90866], [128.39819, 35.88565], [128.39124, 35.87968], [128.38597, 35.88089], [128.39492, 35.88936], [128.39847, 35.89586], [128.40212, 35.91084], [128.40135, 35.9208], [128.39826, 35.92379], [128.39031, 35.95823], [128.38901, 35.97821], [128.38751, 35.9805], [128.39094, 35.98064], [128.39307, 35.98027]]]}}, {"type": "Feature", "properties": {"name": "낙동강", "kind": "poly"}, "geometry": {"type": "Polygon", "coordinates": [[[129.01128, 35.28208], [129.01626, 35.27582], [129.01724, 35.26954], [129.00891, 35.25357], [129.0019, 35.23125], [128.99461, 35.23356], [128.99666, 35.24086], [129.00376, 35.25202], [129.00846, 35.27178], [129.00644, 35.2788], [128.99502, 35.28905], [128.98607, 35.29194], [128.98005, 35.29641], [128.97215, 35.30869], [128.96807, 35.32311], [128.96501, 35.32776], [128.95173, 35.33513], [128.94375, 35.33581], [128.92913, 35.34811], [128.93343, 35.35081], [128.94346, 35.34142], [128.97219, 35.3301], [128.97408, 35.32646], [128.97417, 35.31464], [128.98418, 35.29853], [129.01067, 35.28249], [129.01128, 35.28208]]]}}, {"type": "Feature", "properties": {"name": "낙동강", "kind": "poly"}, "geometry": {"type": "Polygon", "coordinates": [[[128.83566, 36.72061], [128.83918, 36.72638], [128.86158, 36.72326], [128.86933, 36.72515], [128.86434, 36.73508], [128.87511, 36.73584], [128.88351, 36.73373], [128.88644, 36.73511], [128.88692, 36.7378], [128.88354, 36.74271], [128.86804, 36.74838], [128.86719, 36.75435], [128.86855, 36.7559], [128.86892, 36.74847], [128.88438, 36.74281], [128.88728, 36.7393], [128.8871, 36.73455], [128.88269, 36.73306], [128.87402, 36.73492], [128.86615, 36.73418], [128.87122, 36.72556], [128.86545, 36.72217], [128.84215, 36.72472], [128.83695, 36.72054], [128.83566, 36.72061]]]}}, {"type": "Feature", "properties": {"name": "낙동강", "kind": "poly"}, "geometry": {"type": "Polygon", "coordinates": [[[128.35426, 35.59114], [128.35129, 35.60508], [128.35301, 35.61168], [128.36254, 35.61393], [128.3779, 35.61287], [128.38499, 35.61761], [128.39974, 35.63423], [128.39936, 35.64013], [128.38381, 35.65205], [128.38669, 35.65405], [128.39134, 35.6528], [128.39864, 35.64737], [128.40314, 35.64036], [128.40301, 35.63251], [128.39764, 35.6284], [128.38708, 35.61245], [128.37627, 35.60914], [128.36024, 35.61067], [128.35507, 35.60728], [128.35427, 35.60263], [128.35787, 35.59144], [128.3544, 35.5907], [128.35426, 35.59114]]]}}, {"type": "Feature", "properties": {"name": "낙동강", "kind": "poly"}, "geometry": {"type": "Polygon", "coordinates": [[[128.94923, 35.10739], [128.95119, 35.11368], [128.95019, 35.10824], [128.95664, 35.10731], [128.96413, 35.13165], [128.96301, 35.13713], [128.95604, 35.13773], [128.95347, 35.13239], [128.94838, 35.1287], [128.93483, 35.11104], [128.93825, 35.10889], [128.95211, 35.12135], [128.94931, 35.10779], [128.94923, 35.10739]]]}}, {"type": "Feature", "properties": {"name": "낙동강", "kind": "poly"}, "geometry": {"type": "Polygon", "coordinates": [[[128.95836, 35.15291], [128.96118, 35.16699], [128.95943, 35.1817], [128.96197, 35.1883], [128.97939, 35.19796], [128.99026, 35.2078], [128.99277, 35.21526], [128.99461, 35.23356], [129.0019, 35.23125], [128.99978, 35.22169], [129.00119, 35.22143], [128.99831, 35.21853], [128.99671, 35.20746], [128.99243, 35.20247], [128.98152, 35.19329], [128.96983, 35.1868], [128.96519, 35.18175], [128.96672, 35.16868], [128.96923, 35.16871], [128.96715, 35.16759], [128.96399, 35.15696], [128.96301, 35.13713], [128.95604, 35.13773], [128.95834, 35.15283], [128.95836, 35.15291]]]}}, {"type": "Feature", "properties": {"name": "북한강", "kind": "poly"}, "geometry": {"type": "Polygon", "coordinates": [[[127.7134, 37.91988], [127.7186, 37.91659], [127.72034, 37.92765], [127.71892, 37.93253], [127.71418, 37.93809], [127.69479, 37.95554], [127.67277, 37.96317], [127.66931, 37.96592], [127.66962, 37.96781], [127.66685, 37.96757], [127.67171, 37.96214], [127.6967, 37.95028], [127.71138, 37.93533], [127.71304, 37.92192], [127.7134, 37.91988]]]}}, {"type": "Feature", "properties": {"name": "한강", "kind": "line"}, "geometry": {"type": "LineString", "coordinates": [[127.31051, 37.52487], [127.30371, 37.51201], [127.30225, 37.51044], [127.29281, 37.50986], [127.29044, 37.51066], [127.28728, 37.51522], [127.28467, 37.52222], [127.28302, 37.5248], [127.26466, 37.53255], [127.25059, 37.54042], [127.24464, 37.54254], [127.23673, 37.54652], [127.23527, 37.54755], [127.23282, 37.5507], [127.22859, 37.55704], [127.22548, 37.56307], [127.22219, 37.56711], [127.20054, 37.58462], [127.19851, 37.58591], [127.19473, 37.58686], [127.19117, 37.5871], [127.18387, 37.58649], [127.17821, 37.58479], [127.16291, 37.57854], [127.1516, 37.57335], [127.13541, 37.56963], [127.13038, 37.56773], [127.12642, 37.56566], [127.12143, 37.56093], [127.11961, 37.55865], [127.11637, 37.55048], [127.11246, 37.54284], [127.0976, 37.52819], [127.09556, 37.52682], [127.08939, 37.52382], [127.07969, 37.52314], [127.06743, 37.52433], [127.05396, 37.53124], [127.02998, 37.53799], [127.02768, 37.53824], [127.02298, 37.53749], [127.02158, 37.53665], [127.01202, 37.52679], [127.00466, 37.52065], [126.99903, 37.51707], [126.99067, 37.51286], [126.98723, 37.5119], [126.98187, 37.51129], [126.97775, 37.51143], [126.97277, 37.51194], [126.9673, 37.51323], [126.96062, 37.5156], [126.95485, 37.51766], [126.95045, 37.52049], [126.93636, 37.53394], [126.93509, 37.53471], [126.92376, 37.53767], [126.91123, 37.53928], [126.88533, 37.55506], [126.81631, 37.59403], [126.80713, 37.60244], [126.79489, 37.61231], [126.78875, 37.61554], [126.78233, 37.61836], [126.75892, 37.62752], [126.74103, 37.63704], [126.72167, 37.64657], [126.71665, 37.64949], [126.70959, 37.65547], [126.70416, 37.65921], [126.69627, 37.66341], [126.6815, 37.67018], [126.67393, 37.67577], [126.67007, 37.67964], [126.66784, 37.68292], [126.66678, 37.6853], [126.66627, 37.68888], [126.66734, 37.69583], [126.66771, 37.70149], [126.66846, 37.70423], [126.67005, 37.70936], [126.67189, 37.71377], [126.67777, 37.72558], [126.67876, 37.72949], [126.67859, 37.73512], [126.6779, 37.74075], [126.67481, 37.7565], [126.67279, 37.76083], [126.66397, 37.77197], [126.66159, 37.77438], [126.65217, 37.78096], [126.64747, 37.78286], [126.6376, 37.78377], [126.62524, 37.78214], [126.61613, 37.77751], [126.60862, 37.76811], [126.60348, 37.76529], [126.59127, 37.76312], [126.58166, 37.76196], [126.57799, 37.762], [126.57515, 37.7626], [126.57097, 37.76509], [126.56322, 37.77168], [126.54973, 37.78131], [126.52901, 37.79018], [126.51998, 37.79202], [126.50175, 37.79906], [126.48558, 37.80603], [126.46849, 37.8119], [126.45676, 37.81991], [126.4532, 37.82797], [126.44217, 37.83702], [126.42513, 37.84133], [126.41358, 37.8447]]}}, {"type": "Feature", "properties": {"name": "임진강", "kind": "line"}, "geometry": {"type": "LineString", "coordinates": [[126.69125, 37.8394], [126.70266, 37.84358], [126.7215, 37.84831], [126.74656, 37.84912], [126.7545, 37.85087], [126.75706, 37.8527], [126.75852, 37.85524], [126.75843, 37.85768], [126.75721, 37.86005], [126.75043, 37.86604], [126.73882, 37.87977], [126.73368, 37.88483], [126.73219, 37.88761], [126.7321, 37.89004], [126.73358, 37.89272], [126.74104, 37.9026], [126.74465, 37.90461], [126.7677, 37.90998], [126.77806, 37.9158], [126.78879, 37.91843], [126.79043, 37.91764], [126.79225, 37.91229], [126.79236, 37.90942], [126.79093, 37.9046], [126.79098, 37.90136], [126.79739, 37.89212], [126.80109, 37.89052], [126.80523, 37.89053], [126.80942, 37.89152], [126.81297, 37.89393], [126.81959, 37.90262], [126.82588, 37.91389], [126.82879, 37.92956], [126.83211, 37.94156], [126.83237, 37.9466], [126.83183, 37.9516], [126.83228, 37.95357], [126.83721, 37.96176], [126.8387, 37.975], [126.84045, 37.98085], [126.84532, 37.98547], [126.85089, 37.98752], [126.85432, 37.98772], [126.8575, 37.98551], [126.87254, 37.97081], [126.88338, 37.96662], [126.88997, 37.96622], [126.89308, 37.96757], [126.8943, 37.9704], [126.89411, 37.97391], [126.89292, 37.97644], [126.89131, 37.98637], [126.89188, 37.992], [126.89344, 37.99463], [126.8986, 37.99557], [126.90543, 37.99418], [126.91025, 37.99141], [126.91312, 37.98864], [126.91949, 37.98667], [126.9239, 37.98459], [126.93241, 37.98174], [126.94064, 37.98185], [126.95343, 37.98914], [126.95969, 37.99554], [126.96917, 38.00384], [126.96983, 38.00573], [126.96676, 38.01463], [126.96704, 38.01608], [126.96816, 38.01811], [126.97095, 38.02088], [126.97751, 38.02415], [126.9809, 38.02465], [126.98299, 38.02372], [126.98525, 38.02164], [126.98629, 38.01987], [126.98721, 38.01266], [126.98838, 38.00989], [126.99028, 38.00949], [126.99626, 38.01174], [126.99771, 38.01168], [127.00129, 38.01046], [127.00529, 38.00644], [127.01094, 38.00514], [127.01259, 38.00589], [127.01335, 38.00723], [127.01269, 38.00908], [127.01393, 38.01515], [127.01745, 38.01978], [127.01894, 38.02286], [127.01925, 38.03037], [127.02433, 38.03503], [127.02593, 38.03733], [127.02461, 38.04223], [127.02449, 38.04673], [127.02517, 38.04943], [127.02315, 38.05202], [127.02016, 38.05316], [127.01752, 38.05517], [127.0146, 38.05975], [127.00988, 38.07063], [127.00667, 38.08641], [127.00929, 38.09265], [127.01111, 38.09422], [127.0147, 38.10008], [127.02464, 38.11305], [127.02637, 38.11893], [127.02574, 38.12169], [127.02244, 38.12455], [127.00958, 38.13061], [127.00285, 38.13202], [126.99452, 38.13094], [126.99186, 38.12948], [126.99128, 38.1285], [126.99091, 38.11604], [126.98959, 38.10976], [126.98657, 38.10752], [126.9843, 38.10692], [126.97083, 38.10584], [126.96765, 38.10633], [126.96169, 38.10937], [126.96132, 38.11097], [126.95941, 38.11251], [126.95684, 38.11684], [126.95529, 38.12141], [126.95445, 38.12665], [126.95632, 38.13041], [126.95803, 38.13222]]}}, {"type": "Feature", "properties": {"name": "북한강", "kind": "line"}, "geometry": {"type": "LineString", "coordinates": [[127.90735, 38.63516], [127.89247, 38.66207], [127.87954, 38.66042], [127.88603, 38.6656], [127.88017, 38.67072], [127.88771, 38.68057], [127.8783, 38.68302], [127.8777, 38.70265], [127.87014, 38.70439], [127.85318, 38.72977], [127.82696, 38.73139], [127.83027, 38.7437], [127.821, 38.74505], [127.81597, 38.73775], [127.80521, 38.7463], [127.78898, 38.74781], [127.79916, 38.76126], [127.7796, 38.76865], [127.79897, 38.77468], [127.78757, 38.78366], [127.79838, 38.78595], [127.79929, 38.79151], [127.78431, 38.78874], [127.76766, 38.80225], [127.7505, 38.80158], [127.7402, 38.81215], [127.75376, 38.81991], [127.73024, 38.81871], [127.73993, 38.83021], [127.72366, 38.83053], [127.71527, 38.81141], [127.69665, 38.80275], [127.70202, 38.79399], [127.69785, 38.7875], [127.69173, 38.80017], [127.67458, 38.80467], [127.65894, 38.78505], [127.64326, 38.77776], [127.63236, 38.77998], [127.63148, 38.77248], [127.64624, 38.76364], [127.63354, 38.76136], [127.6378, 38.74882], [127.62904, 38.74459], [127.62596, 38.72764], [127.61447, 38.72465], [127.59986, 38.70679], [127.60458, 38.69831], [127.61826, 38.68636], [127.62874, 38.68694], [127.63228, 38.68134], [127.62473, 38.67558], [127.65259, 38.66222], [127.66631, 38.64149], [127.67301, 38.64038], [127.6766, 38.63403], [127.66482, 38.62565], [127.67544, 38.61872], [127.69038, 38.62181], [127.69003, 38.5927], [127.70325, 38.58841], [127.70668, 38.56479], [127.7175, 38.56573], [127.71784, 38.57512], [127.73123, 38.57539], [127.72843, 38.5534], [127.73865, 38.54108], [127.75015, 38.53799], [127.75404, 38.52368], [127.77846, 38.5299], [127.79131, 38.5236], [127.80236, 38.5047], [127.78519, 38.46707], [127.79058, 38.45816], [127.80984, 38.46297], [127.81546, 38.45909], [127.78462, 38.44158], [127.78903, 38.42937], [127.78313, 38.42443], [127.78505, 38.4141], [127.77329, 38.40614], [127.7872, 38.40401], [127.79326, 38.38915], [127.77057, 38.38018], [127.77871, 38.3648], [127.75992, 38.37347], [127.75451, 38.35184], [127.77139, 38.34082], [127.78468, 38.34842], [127.79663, 38.32307], [127.8218, 38.30528], [127.81167, 38.28682], [127.81223, 38.26721], [127.80231, 38.2524], [127.82864, 38.24126], [127.83611, 38.21511], [127.85105, 38.20839], [127.84668, 38.19821], [127.8602, 38.18006], [127.86363, 38.15118], [127.85831, 38.12613], [127.86886, 38.12458], [127.87809, 38.11159], [127.86932, 38.10232], [127.83451, 38.11385], [127.78175, 38.10077], [127.77466, 38.1071], [127.77783, 38.12334], [127.76609, 38.13051], [127.76095, 38.1253], [127.76375, 38.104], [127.74971, 38.08372], [127.7178, 38.09967], [127.69766, 38.09814], [127.68773, 38.08505], [127.67874, 38.04888], [127.654, 38.02709], [127.67458, 38.02344], [127.67515, 38.01147], [127.64691, 37.99412], [127.6516, 37.98498], [127.67539, 37.97686], [127.67006, 37.9638], [127.6942, 37.95552], [127.7189, 37.9298], [127.71472, 37.91233], [127.72133, 37.89851], [127.67999, 37.86836], [127.67481, 37.82855], [127.63423, 37.81689], [127.614, 37.82891], [127.54864, 37.84687], [127.53143, 37.84115], [127.52389, 37.8275], [127.53709, 37.81359], [127.52813, 37.80112], [127.52926, 37.78641], [127.54454, 37.76123], [127.50752, 37.73098], [127.51954, 37.69692], [127.45233, 37.70899], [127.42423, 37.72441], [127.40189, 37.71523], [127.38795, 37.698], [127.37398, 37.65293], [127.34656, 37.61693], [127.33977, 37.58661], [127.31096, 37.54437], [127.31051, 37.52487]]}}, {"type": "Feature", "properties": {"name": "남한강", "kind": "line"}, "geometry": {"type": "LineString", "coordinates": [[128.46842, 37.17241], [128.47017, 37.16636], [128.4986, 37.15959], [128.4946, 37.15049], [128.52561, 37.14447], [128.54169, 37.11652], [128.53318, 37.11139], [128.51202, 37.1157], [128.51464, 37.10276], [128.50657, 37.09389], [128.50206, 37.08089], [128.49509, 37.08047], [128.48781, 37.08578], [128.48108, 37.08367], [128.48138, 37.07622], [128.49093, 37.06783], [128.48623, 37.06255], [128.46008, 37.07138], [128.41587, 37.06093], [128.41364, 37.04306], [128.38819, 37.03438], [128.3818, 37.02687], [128.38035, 37.01381], [128.38899, 37.00607], [128.38747, 37.00073], [128.37521, 36.99869], [128.35536, 37.00772], [128.34521, 37.00435], [128.34617, 36.99657], [128.36437, 36.99409], [128.37196, 36.98877], [128.36999, 36.97609], [128.35903, 36.97384], [128.34267, 36.9802], [128.33479, 36.9582], [128.30457, 36.94096], [128.2912, 36.92576], [128.28563, 36.92576], [128.28494, 36.93089], [128.27937, 36.93306], [128.25302, 36.93489], [128.24901, 36.94405], [128.2218, 36.95039], [128.19413, 36.97724], [128.17446, 36.98918], [128.18155, 36.99935], [128.17279, 37.01172], [128.1473, 37.02263], [128.12052, 37.02136], [128.11091, 37.01218], [128.10388, 36.99573], [128.09237, 36.99371], [128.08627, 36.96862], [128.08932, 36.9517], [128.0858, 36.9493], [128.06517, 36.95804], [128.04559, 36.95622], [128.03115, 36.96639], [128.01255, 36.97085], [127.99593, 37.0025], [127.96071, 37.02424], [127.9197, 37.02031], [127.91239, 37.01472], [127.9082, 36.99796], [127.89972, 36.99051], [127.89107, 36.99029], [127.87798, 37.00052], [127.85876, 37.03392], [127.86532, 37.04375], [127.88605, 37.0558], [127.88871, 37.06249], [127.88464, 37.07393], [127.87386, 37.08021], [127.85429, 37.08023], [127.83149, 37.08637], [127.8236, 37.09796], [127.82336, 37.10658], [127.79947, 37.12331], [127.78694, 37.14781], [127.76409, 37.16097], [127.75432, 37.17547], [127.74428, 37.20913], [127.74813, 37.22666], [127.69143, 37.23188], [127.68257, 37.24942], [127.68513, 37.27476], [127.67495, 37.29652], [127.65438, 37.29503], [127.62848, 37.3043], [127.6185, 37.31945], [127.5925, 37.33864], [127.58198, 37.35209], [127.55281, 37.36797], [127.53948, 37.39033], [127.53262, 37.42433], [127.52285, 37.43554], [127.50178, 37.44583], [127.49057, 37.48489], [127.48201, 37.49251], [127.44147, 37.50825], [127.42646, 37.50691], [127.40216, 37.49738], [127.38255, 37.5029], [127.36548, 37.52868], [127.35192, 37.53552], [127.32986, 37.53362], [127.31051, 37.52487]]}}, {"type": "Feature", "properties": {"name": "낙동강", "kind": "line"}, "geometry": {"type": "LineString", "coordinates": [[129.04304, 37.0917], [129.04789, 37.08177], [129.05564, 37.0808], [129.0499, 37.07748], [129.05261, 37.06812], [129.04197, 37.05982], [129.06004, 37.05537], [129.06173, 37.04113], [129.05281, 37.04368], [129.05134, 37.03922], [129.064, 37.03363], [129.07765, 37.01517], [129.07033, 37.00544], [129.08319, 37.00765], [129.08457, 36.99149], [129.09225, 36.99745], [129.09187, 36.96332], [129.08146, 36.96257], [129.07829, 36.94963], [129.0731, 36.95812], [129.06953, 36.94898], [129.05951, 36.95141], [129.06021, 36.93047], [129.04949, 36.93066], [129.05292, 36.94087], [129.03991, 36.94169], [129.03038, 36.93159], [129.03403, 36.93912], [129.01414, 36.94549], [129.01149, 36.93221], [129.02677, 36.92678], [129.01333, 36.92357], [129.02579, 36.90793], [129.01056, 36.9144], [129.01195, 36.89465], [129.001, 36.89142], [129.00114, 36.87568], [128.98924, 36.88649], [128.98564, 36.8826], [128.99161, 36.87889], [128.9784, 36.8696], [128.96847, 36.87976], [128.96368, 36.86933], [128.93381, 36.86603], [128.92959, 36.85497], [128.90336, 36.86686], [128.90494, 36.85686], [128.88991, 36.84862], [128.89102, 36.82365], [128.88384, 36.80946], [128.89615, 36.78879], [128.88431, 36.78218], [128.89609, 36.76111], [128.88041, 36.76738], [128.86734, 36.75253], [128.88735, 36.73551], [128.8652, 36.73478], [128.87019, 36.72555], [128.86534, 36.72279], [128.83816, 36.724], [128.83882, 36.70731], [128.85555, 36.69657], [128.85491, 36.68764], [128.82579, 36.69463], [128.81867, 36.691], [128.82049, 36.67918], [128.83272, 36.67406], [128.8387, 36.66017], [128.85096, 36.65693], [128.85115, 36.63874], [128.83643, 36.6378], [128.83629, 36.63131], [128.85703, 36.61689], [128.85467, 36.59789], [128.87369, 36.59457], [128.87285, 36.58717], [128.86205, 36.58566], [128.85431, 36.5738], [128.83223, 36.5785], [128.83004, 36.56951], [128.81374, 36.58654], [128.76763, 36.58357], [128.73655, 36.55762], [128.70445, 36.55274], [128.6887, 36.54281], [128.68007, 36.54797], [128.68046, 36.56556], [128.6719, 36.56324], [128.66379, 36.54769], [128.64737, 36.54605], [128.6338, 36.5474], [128.63269, 36.55829], [128.61833, 36.56569], [128.60006, 36.56315], [128.59092, 36.54985], [128.55766, 36.56365], [128.55008, 36.55429], [128.55939, 36.54266], [128.54658, 36.53535], [128.51517, 36.53505], [128.51254, 36.5414], [128.52602, 36.54611], [128.51236, 36.55081], [128.44681, 36.53692], [128.4299, 36.52211], [128.4144, 36.521], [128.38852, 36.5059], [128.37206, 36.50883], [128.36453, 36.52845], [128.34106, 36.54607], [128.32192, 36.54755], [128.31484, 36.56208], [128.29865, 36.56561], [128.29669, 36.55229], [128.27049, 36.55241], [128.26374, 36.54617], [128.27072, 36.48638], [128.24468, 36.46342], [128.25641, 36.45571], [128.26301, 36.44053], [128.23874, 36.43221], [128.23543, 36.42139], [128.24494, 36.41053], [128.26979, 36.40648], [128.27562, 36.39769], [128.29997, 36.40529], [128.31617, 36.39412], [128.31042, 36.36347], [128.28531, 36.34776], [128.28226, 36.32143], [128.33958, 36.28538], [128.34342, 36.26883], [128.33518, 36.25056], [128.36183, 36.21999], [128.36371, 36.19685], [128.38661, 36.17089], [128.3756, 36.13194], [128.39663, 36.11458], [128.39689, 36.08912], [128.3853, 36.07404], [128.40578, 36.03738], [128.39074, 35.97988], [128.40537, 35.91064], [128.38489, 35.86052], [128.39409, 35.85149], [128.45263, 35.8451], [128.47907, 35.81917], [128.47108, 35.80919], [128.41884, 35.80769], [128.38548, 35.75956], [128.39214, 35.74679], [128.43106, 35.72437], [128.43106, 35.70223], [128.41727, 35.69367], [128.36094, 35.70657], [128.35106, 35.70035], [128.35808, 35.67827], [128.402, 35.63737], [128.38095, 35.61127], [128.35322, 35.60855], [128.36069, 35.57638], [128.35005, 35.5528], [128.3514, 35.5378], [128.37158, 35.51797], [128.42536, 35.48717], [128.41503, 35.4718], [128.37789, 35.45433], [128.37647, 35.44021], [128.38874, 35.42593], [128.42308, 35.41518], [128.43918, 35.3901], [128.45525, 35.38287], [128.47854, 35.38139], [128.50676, 35.39731], [128.5519, 35.37991], [128.57388, 35.37857], [128.59899, 35.39347], [128.62797, 35.37252], [128.69012, 35.37874], [128.76197, 35.34564], [128.79446, 35.35544], [128.80931, 35.37875], [128.86662, 35.39315], [128.87901, 35.36995], [128.91549, 35.36291], [128.94163, 35.34029], [128.96867, 35.32873], [128.98213, 35.29773], [129.0126, 35.27503], [128.99282, 35.20778], [128.96292, 35.18449], [128.95318, 35.10733]]}}, {"type": "Feature", "properties": {"name": "금강", "kind": "line"}, "geometry": {"type": "LineString", "coordinates": [[127.48525, 35.61007], [127.50321, 35.62037], [127.50237, 35.62793], [127.51297, 35.63477], [127.51119, 35.6501], [127.52456, 35.6713], [127.51744, 35.68361], [127.5238, 35.69113], [127.51932, 35.69848], [127.5358, 35.73814], [127.54675, 35.74117], [127.53816, 35.75874], [127.54321, 35.7651], [127.53657, 35.76785], [127.54717, 35.78569], [127.54167, 35.7963], [127.53177, 35.78899], [127.52071, 35.79246], [127.51878, 35.80654], [127.50869, 35.80735], [127.51538, 35.81376], [127.50669, 35.81957], [127.51272, 35.82716], [127.50635, 35.83288], [127.49589, 35.83071], [127.48893, 35.84661], [127.49077, 35.87079], [127.50746, 35.87217], [127.51348, 35.88188], [127.48679, 35.8829], [127.49775, 35.89803], [127.49315, 35.91339], [127.50139, 35.91905], [127.5182, 35.91348], [127.51144, 35.92948], [127.52382, 35.93693], [127.52682, 35.95418], [127.53574, 35.95276], [127.53491, 35.97057], [127.54011, 35.97418], [127.55073, 35.97365], [127.55848, 35.96549], [127.56058, 35.9839], [127.57088, 35.98015], [127.56734, 35.98957], [127.58052, 35.9986], [127.58489, 35.98779], [127.59428, 35.98787], [127.60346, 36.00653], [127.60898, 36.00185], [127.60754, 35.98777], [127.6167, 35.9888], [127.61904, 36.00818], [127.61008, 36.02551], [127.62433, 36.02421], [127.6304, 36.03289], [127.64102, 36.01884], [127.65203, 36.01692], [127.6586, 36.02238], [127.64383, 36.02709], [127.63011, 36.04169], [127.6157, 36.03565], [127.60074, 36.04878], [127.58065, 36.04874], [127.59922, 36.06668], [127.56193, 36.08355], [127.60844, 36.0902], [127.57472, 36.10468], [127.56452, 36.11719], [127.58593, 36.11065], [127.5977, 36.11694], [127.59933, 36.12752], [127.60796, 36.13327], [127.62673, 36.12478], [127.66186, 36.13519], [127.69458, 36.12665], [127.69402, 36.14417], [127.70621, 36.15846], [127.68135, 36.16363], [127.70785, 36.18313], [127.69131, 36.19865], [127.70638, 36.20802], [127.7061, 36.22631], [127.71253, 36.23518], [127.70878, 36.24194], [127.70022, 36.24182], [127.70136, 36.22985], [127.68725, 36.2171], [127.67046, 36.22904], [127.66638, 36.25819], [127.62921, 36.25763], [127.64857, 36.27016], [127.64672, 36.29088], [127.66312, 36.27864], [127.69479, 36.27853], [127.69839, 36.28317], [127.69183, 36.29206], [127.66646, 36.29545], [127.66655, 36.31108], [127.68711, 36.30323], [127.69221, 36.31098], [127.6687, 36.32757], [127.66415, 36.3461], [127.65943, 36.33432], [127.64878, 36.33463], [127.65003, 36.35236], [127.64368, 36.35347], [127.62934, 36.3339], [127.61119, 36.32813], [127.60634, 36.34552], [127.63359, 36.35122], [127.63175, 36.36701], [127.63999, 36.37952], [127.62887, 36.38042], [127.59497, 36.36539], [127.59763, 36.38115], [127.59299, 36.38377], [127.5796, 36.36656], [127.57325, 36.3665], [127.57128, 36.38709], [127.55677, 36.39165], [127.58098, 36.40899], [127.58123, 36.41493], [127.56347, 36.41424], [127.55883, 36.40098], [127.54544, 36.40982], [127.54321, 36.41748], [127.55574, 36.44076], [127.54982, 36.44531], [127.52399, 36.43848], [127.51154, 36.4103], [127.50476, 36.40781], [127.49291, 36.42577], [127.50193, 36.4498], [127.47836, 36.45966], [127.4839, 36.47728], [127.46896, 36.4719], [127.45385, 36.44986], [127.43229, 36.45759], [127.40306, 36.45551], [127.40216, 36.48726], [127.38522, 36.50011], [127.36812, 36.48911], [127.35496, 36.49474], [127.3517, 36.50072], [127.36392, 36.51586], [127.35615, 36.52019], [127.30417, 36.50537], [127.2876, 36.48444], [127.26206, 36.47472], [127.25469, 36.46183], [127.23237, 36.45556], [127.22121, 36.43592], [127.20603, 36.43644], [127.10745, 36.47318], [127.09344, 36.45408], [127.06223, 36.44074], [127.0435, 36.40977], [126.99145, 36.37358], [126.98473, 36.34053], [126.92704, 36.31377], [126.91813, 36.29632], [126.89177, 36.27692], [126.89106, 36.26561], [126.90176, 36.25445], [126.96426, 36.24048], [126.96973, 36.20568], [127.00548, 36.16639], [127.00229, 36.14926], [126.97836, 36.14593], [126.95805, 36.15661], [126.93834, 36.15186], [126.91519, 36.13659], [126.89397, 36.14166], [126.87261, 36.10862], [126.87398, 36.07572], [126.86267, 36.06026], [126.79798, 36.02945], [126.76113, 36.0261], [126.74995, 36.01112], [126.72449, 35.99576], [126.67634, 36.00329], [126.64378, 35.98405], [126.61365, 35.98266]]}}, {"type": "Feature", "properties": {"name": "섬진강", "kind": "line"}, "geometry": {"type": "LineString", "coordinates": [[127.44644, 35.64224], [127.43256, 35.65472], [127.42172, 35.65829], [127.42018, 35.66426], [127.41028, 35.6624], [127.39568, 35.67216], [127.38789, 35.67298], [127.38349, 35.68207], [127.39086, 35.69695], [127.38794, 35.70421], [127.39188, 35.71551], [127.36578, 35.7255], [127.36442, 35.73178], [127.34365, 35.74451], [127.34509, 35.73642], [127.34072, 35.73637], [127.33716, 35.74344], [127.32016, 35.73953], [127.31671, 35.72745], [127.29708, 35.73016], [127.29703, 35.72535], [127.3042, 35.72322], [127.311, 35.70708], [127.2933, 35.70704], [127.29007, 35.71396], [127.28333, 35.7094], [127.28362, 35.69409], [127.26888, 35.66806], [127.27491, 35.65988], [127.26037, 35.64797], [127.23649, 35.65658], [127.225, 35.65526], [127.2167, 35.64957], [127.21578, 35.63475], [127.21033, 35.63025], [127.20433, 35.63349], [127.20114, 35.62947], [127.20486, 35.61252], [127.20036, 35.60716], [127.19252, 35.60574], [127.18865, 35.61287], [127.1799, 35.6157], [127.18005, 35.62484], [127.19089, 35.62631], [127.19009, 35.62929], [127.182, 35.63048], [127.17237, 35.62563], [127.15102, 35.6287], [127.1445, 35.63892], [127.14066, 35.63433], [127.14761, 35.62612], [127.14181, 35.61666], [127.13656, 35.61799], [127.12821, 35.62957], [127.12134, 35.62793], [127.11763, 35.61992], [127.11034, 35.61692], [127.10791, 35.60295], [127.11351, 35.59906], [127.11383, 35.58002], [127.10989, 35.57688], [127.10195, 35.58379], [127.09534, 35.58409], [127.09628, 35.57175], [127.08551, 35.55569], [127.08607, 35.55084], [127.11582, 35.5381], [127.11485, 35.5259], [127.12053, 35.51869], [127.15699, 35.5219], [127.16392, 35.51221], [127.15054, 35.49484], [127.15964, 35.49072], [127.16702, 35.48146], [127.18786, 35.49663], [127.19211, 35.4954], [127.19493, 35.48635], [127.17692, 35.47179], [127.19245, 35.46856], [127.20154, 35.46138], [127.20499, 35.42608], [127.22216, 35.42232], [127.22878, 35.41622], [127.22071, 35.40969], [127.22047, 35.40065], [127.20934, 35.39311], [127.19371, 35.39066], [127.19302, 35.38096], [127.19862, 35.36917], [127.18737, 35.34436], [127.19468, 35.33869], [127.18566, 35.33539], [127.18453, 35.32548], [127.20008, 35.31622], [127.21568, 35.3167], [127.21954, 35.33494], [127.22815, 35.33531], [127.25682, 35.31247], [127.28774, 35.31391], [127.30701, 35.30461], [127.32497, 35.3069], [127.33018, 35.2875], [127.3262, 35.27267], [127.34869, 35.26361], [127.35459, 35.25093], [127.37114, 35.23958], [127.36695, 35.22445], [127.37442, 35.21724], [127.3719, 35.20674], [127.37728, 35.19361], [127.38642, 35.18888], [127.40264, 35.1907], [127.42229, 35.18605], [127.45952, 35.16222], [127.46748, 35.16971], [127.46961, 35.19335], [127.48143, 35.20161], [127.49231, 35.20126], [127.52493, 35.18572], [127.54098, 35.19096], [127.55582, 35.18928], [127.56387, 35.19563], [127.58992, 35.20222], [127.60848, 35.19761], [127.63951, 35.1716], [127.64721, 35.16055], [127.6582, 35.15957], [127.69351, 35.13194], [127.69637, 35.11654], [127.69227, 35.11042], [127.69388, 35.1041], [127.70749, 35.09667], [127.71635, 35.08241], [127.73772, 35.07548], [127.74133, 35.06097], [127.76538, 35.0543], [127.7716, 35.03193], [127.78353, 35.02097], [127.78585, 35.01014], [127.77684, 34.9875], [127.76534, 34.97878], [127.76067, 34.96681], [127.77142, 34.95026], [127.77185, 34.93161], [127.8019, 34.90842]]}}, {"type": "Feature", "properties": {"name": "영산강", "kind": "line"}, "geometry": {"type": "LineString", "coordinates": [[127.02142, 35.44692], [127.03083, 35.43853], [127.03236, 35.42518], [127.02135, 35.42261], [127.02478, 35.41447], [127.01378, 35.40809], [127.00775, 35.39808], [127.00881, 35.38402], [127.0069, 35.37899], [127.01621, 35.37462], [127.02239, 35.36827], [127.02287, 35.35684], [127.03094, 35.34334], [127.02968, 35.33857], [127.02271, 35.33382], [127.0116, 35.33155], [127.00384, 35.32502], [126.9827, 35.32464], [126.97722, 35.31692], [126.96105, 35.31425], [126.95739, 35.30983], [126.95634, 35.29923], [126.9474, 35.27607], [126.92997, 35.26619], [126.92676, 35.26084], [126.90261, 35.25827], [126.89126, 35.24965], [126.88709, 35.24055], [126.87324, 35.23906], [126.86365, 35.22514], [126.86232, 35.21917], [126.85655, 35.21562], [126.85466, 35.21131], [126.85543, 35.20088], [126.85355, 35.19696], [126.85933, 35.19309], [126.85862, 35.18744], [126.8521, 35.18222], [126.83979, 35.17999], [126.8368, 35.17264], [126.8282, 35.16865], [126.82403, 35.16352], [126.82916, 35.14447], [126.82081, 35.13215], [126.82446, 35.11652], [126.81911, 35.11029], [126.8066, 35.10533], [126.80101, 35.09984], [126.80149, 35.0922], [126.78603, 35.07509], [126.76156, 35.06266], [126.74777, 35.05003], [126.7348, 35.04219], [126.73314, 35.03636], [126.73802, 35.02904], [126.73862, 35.02103], [126.73595, 35.00739], [126.71793, 35.0073], [126.70924, 35.00103], [126.69661, 34.99757], [126.67984, 35.00391], [126.65721, 34.98254], [126.65047, 34.98109], [126.63913, 34.98315], [126.63172, 34.97478], [126.62202, 34.97035], [126.61205, 34.97228], [126.60884, 34.98086], [126.59964, 34.9832], [126.59301, 34.99123], [126.58768, 34.989], [126.58101, 34.97686], [126.57449, 34.97333], [126.57113, 34.97346], [126.56747, 34.98378], [126.5619, 34.98817], [126.55355, 34.98768], [126.54482, 34.98179], [126.52813, 34.94986], [126.53185, 34.93772], [126.53996, 34.9276], [126.54253, 34.92008], [126.53543, 34.9175], [126.52956, 34.92624], [126.52104, 34.92928], [126.51651, 34.92681], [126.51318, 34.9209], [126.51667, 34.91278], [126.55102, 34.87568], [126.5532, 34.86774], [126.55195, 34.85126], [126.54387, 34.81412], [126.53623, 34.80636], [126.5227, 34.79949], [126.52006, 34.78514], [126.51316, 34.77202], [126.49716, 34.76818], [126.47005, 34.78933], [126.45844, 34.79259], [126.44625, 34.78798], [126.38084, 34.77554], [126.36735, 34.77827], [126.35947, 34.78764], [126.35481, 34.7882], [126.33548, 34.76474]]}}, {"type": "Feature", "properties": {"name": "대동강", "kind": "line"}, "geometry": {"type": "LineString", "coordinates": [[126.97419, 40.30522], [126.95501, 40.2707], [126.9556, 40.23265], [126.94874, 40.22865], [126.95526, 40.21008], [126.94618, 40.19796], [126.95269, 40.18691], [126.94551, 40.176], [126.93714, 40.17474], [126.92767, 40.15027], [126.93159, 40.13183], [126.94196, 40.12967], [126.93536, 40.11275], [126.94215, 40.10093], [126.93428, 40.09252], [126.95412, 40.07478], [126.95375, 40.06729], [126.94294, 40.06493], [126.9463, 40.05996], [126.95381, 40.06336], [126.95236, 40.05121], [126.94268, 40.05623], [126.9477, 40.04604], [126.93855, 40.04546], [126.94533, 40.03882], [126.93496, 40.03348], [126.93819, 40.00649], [126.94956, 40.00107], [126.94599, 39.9933], [126.9317, 39.98777], [126.93478, 39.97812], [126.91575, 39.97304], [126.91938, 39.96396], [126.90237, 39.96648], [126.89674, 39.95384], [126.88202, 39.95415], [126.87269, 39.94054], [126.85518, 39.94877], [126.84874, 39.94153], [126.84573, 39.94725], [126.81036, 39.93841], [126.79875, 39.94464], [126.78026, 39.93198], [126.76725, 39.9396], [126.75662, 39.93417], [126.75177, 39.92059], [126.74723, 39.93318], [126.72777, 39.93387], [126.72573, 39.94179], [126.70473, 39.94414], [126.69849, 39.93894], [126.71204, 39.93477], [126.71153, 39.9286], [126.68791, 39.92958], [126.6842, 39.93936], [126.6759, 39.93371], [126.65692, 39.93782], [126.64338, 39.94738], [126.63035, 39.94271], [126.63772, 39.9354], [126.62308, 39.93766], [126.60205, 39.9269], [126.57469, 39.93393], [126.57203, 39.92662], [126.56132, 39.92374], [126.56171, 39.91038], [126.55331, 39.89881], [126.56199, 39.88203], [126.52657, 39.88204], [126.52299, 39.87707], [126.54028, 39.87065], [126.52537, 39.86475], [126.52684, 39.82473], [126.50847, 39.8222], [126.50271, 39.81405], [126.49132, 39.81938], [126.47048, 39.81556], [126.45294, 39.80466], [126.44802, 39.79031], [126.43196, 39.79342], [126.42108, 39.80517], [126.41343, 39.78577], [126.3903, 39.79813], [126.385, 39.7846], [126.40878, 39.77678], [126.39612, 39.75993], [126.38412, 39.75882], [126.34425, 39.77498], [126.33262, 39.77112], [126.33031, 39.76108], [126.30249, 39.75117], [126.29399, 39.73958], [126.29555, 39.7062], [126.28836, 39.68229], [126.30645, 39.64429], [126.30244, 39.61265], [126.31749, 39.60129], [126.31102, 39.59092], [126.28397, 39.59321], [126.26876, 39.58675], [126.26442, 39.59888], [126.24581, 39.57707], [126.23709, 39.58886], [126.19872, 39.57826], [126.16832, 39.58177], [126.14272, 39.5653], [126.13507, 39.57004], [126.13124, 39.59741], [126.08736, 39.60367], [126.07727, 39.59564], [126.07673, 39.57078], [126.03716, 39.55877], [125.98156, 39.5574], [125.96211, 39.57592], [125.94531, 39.57817], [125.94036, 39.56177], [125.93102, 39.55656], [125.90014, 39.55808], [125.91195, 39.52625], [125.90311, 39.51513], [125.90779, 39.50595], [125.93602, 39.50869], [125.97724, 39.48978], [125.9787, 39.47515], [125.95729, 39.46105], [125.95536, 39.43419], [125.92537, 39.39457], [125.94462, 39.37491], [125.92372, 39.36454], [125.94081, 39.34856], [125.98854, 39.33878], [125.99375, 39.32588], [125.9774, 39.30742], [125.99455, 39.30118], [125.99801, 39.29242], [125.99327, 39.28512], [125.99984, 39.27329], [126.02072, 39.2568], [126.00752, 39.2396], [126.03848, 39.23784], [126.0235, 39.21734], [126.0075, 39.21009], [125.96589, 39.20674], [125.95762, 39.19756], [125.98584, 39.16152], [125.99691, 39.11521], [126.0195, 39.10277], [126.00489, 39.09606], [125.96171, 39.09233], [125.93138, 39.05245], [125.88884, 39.05709], [125.87774, 39.04065], [125.83515, 39.02725], [125.81803, 39.02955], [125.78739, 39.04961], [125.7707, 39.03992], [125.75359, 39.00447], [125.736, 38.99222], [125.71664, 38.99079], [125.69364, 39.00086], [125.66928, 38.99632], [125.63752, 38.97077], [125.62958, 38.94924], [125.59099, 38.93051], [125.59512, 38.90777], [125.5858, 38.88893], [125.5251, 38.86318], [125.5309, 38.82534], [125.57705, 38.80417], [125.58745, 38.74589], [125.62038, 38.73006], [125.60958, 38.69041], [125.62987, 38.66865], [125.62488, 38.65621], [125.6138, 38.65], [125.5997, 38.65248], [125.56894, 38.69542], [125.55463, 38.70449], [125.43916, 38.7262], [125.28176, 38.68225], [125.18085, 38.67422]]}}, {"type": "Feature", "properties": {"name": "청천강", "kind": "line"}, "geometry": {"type": "LineString", "coordinates": [[126.71589, 40.41701], [126.6997, 40.3968], [126.6967, 40.38235], [126.67668, 40.37067], [126.66367, 40.3511], [126.64175, 40.33045], [126.64133, 40.32154], [126.6325, 40.30833], [126.64228, 40.2989], [126.64183, 40.29415], [126.62098, 40.2947], [126.62379, 40.28577], [126.62031, 40.28375], [126.59452, 40.28875], [126.57753, 40.27586], [126.57521, 40.27849], [126.57943, 40.28482], [126.57318, 40.28557], [126.56471, 40.28102], [126.56004, 40.2714], [126.55481, 40.2721], [126.55102, 40.2781], [126.54617, 40.27297], [126.54804, 40.26106], [126.54528, 40.2593], [126.53915, 40.26213], [126.53779, 40.26736], [126.52355, 40.27175], [126.52097, 40.25831], [126.50556, 40.25718], [126.49731, 40.24888], [126.48, 40.24802], [126.48769, 40.23316], [126.47568, 40.22582], [126.47509, 40.2175], [126.4719, 40.21638], [126.44347, 40.20982], [126.43056, 40.21211], [126.42139, 40.20351], [126.40824, 40.20872], [126.40324, 40.21717], [126.39723, 40.21924], [126.38567, 40.20377], [126.36503, 40.19892], [126.35106, 40.18359], [126.34676, 40.17167], [126.32562, 40.17109], [126.33114, 40.1655], [126.3551, 40.16334], [126.33058, 40.1464], [126.32962, 40.13943], [126.32118, 40.14215], [126.32086, 40.15], [126.29717, 40.15516], [126.26833, 40.1213], [126.24499, 40.11867], [126.23967, 40.11211], [126.23424, 40.08965], [126.21409, 40.07951], [126.2086, 40.07179], [126.20333, 40.05811], [126.206, 40.04759], [126.16836, 40.04293], [126.16723, 40.03486], [126.18057, 40.02572], [126.17924, 40.0187], [126.17186, 40.01318], [126.15286, 40.01223], [126.1147, 39.98096], [126.10891, 39.96521], [126.12299, 39.96464], [126.12431, 39.9607], [126.09993, 39.95908], [126.0927, 39.95253], [126.08775, 39.9428], [126.08485, 39.91601], [126.05828, 39.91083], [126.023, 39.88829], [126.02116, 39.87483], [126.0017, 39.84782], [126.00209, 39.83401], [125.97415, 39.8286], [125.95996, 39.81008], [125.95787, 39.79337], [125.94475, 39.78667], [125.92604, 39.78442], [125.91437, 39.76837], [125.89477, 39.75471], [125.87945, 39.75199], [125.85893, 39.75636], [125.85186, 39.74909], [125.85481, 39.73194], [125.85017, 39.72376], [125.83616, 39.72437], [125.82287, 39.71544], [125.81459, 39.71715], [125.7934, 39.69832], [125.77259, 39.68645], [125.73057, 39.67087], [125.73131, 39.65944], [125.72766, 39.65344], [125.70168, 39.63887], [125.63366, 39.62456], [125.60267, 39.62539], [125.57407, 39.60466], [125.5288, 39.59456], [125.49728, 39.57677], [125.48249, 39.57367], [125.46036, 39.5763]]}}, {"type": "Feature", "properties": {"name": "압록강", "kind": "line"}, "geometry": {"type": "LineString", "coordinates": [[124.4, 40.12917], [124.41179, 40.139], [124.4305, 40.14308], [124.44956, 40.17109], [124.48123, 40.17228], [124.51805, 40.22667], [124.57108, 40.25195], [124.61388, 40.28604], [124.66553, 40.29776], [124.72137, 40.32216], [124.74608, 40.37569], [124.82719, 40.41136], [124.85645, 40.43323], [124.88933, 40.47561], [124.90058, 40.48189], [124.90983, 40.47806], [124.90731, 40.46166], [124.92225, 40.45438], [124.94489, 40.45453], [124.98086, 40.47077], [125.01381, 40.45707], [125.03024, 40.45833], [125.04025, 40.46444], [125.04074, 40.48325], [125.00117, 40.49888], [125.00826, 40.52478], [125.10695, 40.56094], [125.17821, 40.6051], [125.2573, 40.61292], [125.26525, 40.62592], [125.26683, 40.6477], [125.27722, 40.65423], [125.29667, 40.65245], [125.32922, 40.637], [125.37127, 40.65071], [125.38862, 40.63118], [125.40824, 40.62536], [125.41715, 40.63142], [125.41159, 40.66965], [125.44464, 40.66586], [125.45165, 40.67447], [125.4519, 40.69628], [125.4753, 40.71735], [125.53203, 40.71958], [125.53982, 40.72645], [125.54835, 40.76243], [125.56726, 40.78075], [125.58082, 40.77867], [125.59146, 40.75567], [125.59908, 40.75449], [125.63984, 40.76502], [125.66964, 40.7612], [125.68351, 40.76528], [125.6821, 40.78504], [125.63193, 40.79616], [125.62953, 40.80279], [125.63397, 40.81182], [125.6719, 40.8312], [125.71122, 40.86882], [125.75265, 40.86724], [125.75489, 40.88087], [125.7689, 40.89148], [125.79693, 40.8819], [125.79573, 40.86538], [125.81272, 40.86267], [125.82339, 40.87284], [125.85692, 40.88343], [125.8684, 40.90555], [125.89575, 40.8963], [125.90875, 40.91079], [125.91285, 40.90633], [125.906, 40.8899], [125.91747, 40.88], [125.93512, 40.87679], [125.96377, 40.88572], [125.96704, 40.90168], [125.99454, 40.8916], [126.01828, 40.90131], [126.00922, 40.91418], [125.9772, 40.90852], [125.97511, 40.91596], [126.00051, 40.93164], [126.03422, 40.92707], [126.03606, 40.94039], [126.05087, 40.94783], [126.0517, 40.96372], [126.07637, 40.97501], [126.06271, 40.99619], [126.10354, 41.00458], [126.09539, 41.03413], [126.12079, 41.03348], [126.13066, 41.05824], [126.10931, 41.07216], [126.11667, 41.08767], [126.16553, 41.09253], [126.18625, 41.11639], [126.22331, 41.12747], [126.23451, 41.1449], [126.28024, 41.15885], [126.29103, 41.17029], [126.28283, 41.18624], [126.30513, 41.18937], [126.31631, 41.22719], [126.35371, 41.24299], [126.36284, 41.28144], [126.39353, 41.30159], [126.40428, 41.32751], [126.43274, 41.33035], [126.42848, 41.34428], [126.43314, 41.35212], [126.5025, 41.37186], [126.50985, 41.36352], [126.50469, 41.35699], [126.4771, 41.35223], [126.47467, 41.34701], [126.51283, 41.34635], [126.53201, 41.35544], [126.5321, 41.36958], [126.51394, 41.38059], [126.50572, 41.39514], [126.50391, 41.43111], [126.54994, 41.48777], [126.54491, 41.49526], [126.55546, 41.52565], [126.57218, 41.54582], [126.58377, 41.54919], [126.58797, 41.56242], [126.56324, 41.61088], [126.56666, 41.6166], [126.59171, 41.61662], [126.59243, 41.62893], [126.60643, 41.63665], [126.60716, 41.66646], [126.61452, 41.67268], [126.64656, 41.65415], [126.6868, 41.67145], [126.68339, 41.67779], [126.72498, 41.70476], [126.73025, 41.71768], [126.68474, 41.72931], [126.68252, 41.73754], [126.69388, 41.74901], [126.72213, 41.74422], [126.76468, 41.71926], [126.76999, 41.70091], [126.79057, 41.69122], [126.79706, 41.6954], [126.79512, 41.73187], [126.80532, 41.74763], [126.81715, 41.74159], [126.82582, 41.7229], [126.83948, 41.72281], [126.8535, 41.76077], [126.87827, 41.78674], [126.921, 41.80517], [126.94098, 41.8071], [126.94645, 41.79036], [126.93042, 41.78505], [126.92843, 41.77352], [126.93666, 41.76876], [126.97257, 41.77443], [126.98025, 41.76265], [127.00334, 41.76006], [126.99917, 41.74624], [127.00474, 41.74266], [127.04519, 41.74187], [127.04991, 41.70149], [127.077, 41.70046], [127.06734, 41.6875], [127.04284, 41.69095], [127.03193, 41.66967], [127.06415, 41.65702], [127.07216, 41.64293], [127.10228, 41.64212], [127.10066, 41.63268], [127.08562, 41.62535], [127.10083, 41.6181], [127.119, 41.62153], [127.12248, 41.61034], [127.11632, 41.60551], [127.1238, 41.59755], [127.17276, 41.59713], [127.17843, 41.59232], [127.17649, 41.58586], [127.13856, 41.5817], [127.13833, 41.56803], [127.1206, 41.56603], [127.11284, 41.558], [127.11675, 41.54862], [127.10001, 41.55303], [127.09762, 41.54313], [127.10814, 41.53614], [127.13786, 41.53826], [127.13371, 41.52849], [127.13961, 41.5242], [127.16138, 41.54004], [127.17791, 41.5238], [127.2073, 41.53105], [127.20821, 41.51806], [127.23488, 41.51874], [127.22761, 41.50745], [127.23985, 41.49754], [127.26377, 41.51159], [127.27748, 41.51021], [127.2796, 41.4973], [127.24948, 41.48718], [127.25124, 41.47877], [127.27091, 41.47569], [127.28844, 41.48353], [127.34758, 41.46031], [127.3564, 41.46261], [127.35568, 41.47737], [127.39416, 41.47844], [127.40085, 41.46171], [127.41071, 41.45544], [127.42365, 41.46207], [127.45377, 41.45783], [127.46221, 41.46251], [127.45924, 41.47304], [127.46627, 41.4808], [127.47354, 41.47908], [127.4763, 41.4682], [127.4964, 41.47554], [127.52294, 41.46544], [127.531, 41.47391], [127.54145, 41.47454], [127.53918, 41.45179], [127.55535, 41.43217], [127.58571, 41.42381], [127.61324, 41.43], [127.62742, 41.41306], [127.64963, 41.40362], [127.66044, 41.40884], [127.64815, 41.41994], [127.65236, 41.42686], [127.66986, 41.41205], [127.68654, 41.42201], [127.7171, 41.41675], [127.73644, 41.42438], [127.76438, 41.41899], [127.77718, 41.42422], [127.78779, 41.40466], [127.79212, 41.41813], [127.79964, 41.42202], [127.81283, 41.41945], [127.82681, 41.40453], [127.82975, 41.41754], [127.84552, 41.42017], [127.86385, 41.4011], [127.87237, 41.40797], [127.86642, 41.41504], [127.87381, 41.4449], [127.88548, 41.44335], [127.87993, 41.43815], [127.8855, 41.43167], [127.89699, 41.43429], [127.90642, 41.4269], [127.92821, 41.44392], [127.93187, 41.45669], [127.93561, 41.44724], [127.94542, 41.44826], [127.94294, 41.43683], [127.97586, 41.43067], [127.97802, 41.41486], [127.98856, 41.42125], [127.99744, 41.44357], [128.0092, 41.44498], [128.00818, 41.43504], [127.997, 41.42818], [128.01323, 41.42612], [128.01165, 41.41249], [128.0185, 41.40907], [128.0294, 41.41929], [128.03954, 41.41552], [128.0374, 41.39717], [128.03086, 41.39224], [128.06602, 41.39247], [128.07435, 41.37673], [128.08068, 41.3789], [128.07857, 41.39049], [128.09635, 41.38997], [128.09755, 41.39647], [128.10278, 41.38394], [128.08396, 41.37259], [128.10828, 41.3606], [128.12343, 41.38004], [128.15386, 41.38416], [128.16511, 41.40234], [128.18277, 41.4113], [128.2031, 41.40981], [128.21502, 41.43858], [128.23977, 41.44786], [128.22782, 41.45456], [128.23803, 41.47614], [128.23487, 41.49793], [128.25496, 41.5036], [128.27789, 41.52258], [128.27912, 41.53298], [128.29627, 41.53748], [128.28609, 41.54447], [128.28599, 41.55156], [128.29462, 41.55438], [128.28969, 41.56023], [128.31172, 41.57136], [128.30569, 41.57584], [128.31224, 41.58668], [128.30422, 41.59454], [128.31027, 41.60164], [128.29614, 41.60132], [128.2999, 41.61062], [128.28686, 41.61073], [128.29215, 41.61704], [128.29949, 41.61556], [128.29781, 41.62766], [128.28008, 41.62369], [128.28241, 41.63203], [128.27528, 41.63186], [128.27491, 41.64362], [128.26778, 41.64555], [128.2726, 41.65647], [128.2608, 41.65799], [128.2636, 41.66555], [128.25098, 41.66497], [128.25379, 41.67158], [128.24004, 41.67379], [128.24208, 41.67904], [128.21604, 41.67928], [128.21183, 41.688], [128.20241, 41.6844], [128.18436, 41.70867], [128.16171, 41.71214], [128.14002, 41.75012], [128.14347, 41.76159], [128.13569, 41.77405], [128.14184, 41.77796], [128.10666, 41.79004], [128.10574, 41.80715]]}}, {"type": "Feature", "properties": {"name": "두만강", "kind": "line"}, "geometry": {"type": "LineString", "coordinates": [[128.35642, 41.9968], [128.45603, 42.01935], [128.46434, 42.00788], [128.48112, 42.00598], [128.48753, 41.99878], [128.54204, 42.0048], [128.56395, 41.99699], [128.58687, 42.00557], [128.59313, 42.01252], [128.58943, 42.0221], [128.6006, 42.03046], [128.63036, 42.03715], [128.65285, 42.02678], [128.65034, 42.01561], [128.66128, 42.01845], [128.68494, 42.01183], [128.69327, 42.01326], [128.69231, 42.01917], [128.71496, 42.03769], [128.7299, 42.041], [128.7292, 42.04967], [128.74501, 42.05133], [128.77024, 42.0316], [128.78202, 42.04029], [128.80905, 42.04192], [128.83518, 42.02424], [128.85228, 42.02972], [128.87463, 42.01996], [128.8851, 42.02597], [128.90622, 42.0096], [128.91538, 42.00999], [128.93864, 42.02707], [128.94683, 42.02511], [128.95096, 42.04896], [128.95884, 42.05527], [128.9457, 42.06327], [128.94569, 42.07833], [128.96289, 42.09466], [129.00427, 42.08835], [129.00878, 42.09919], [129.0208, 42.0976], [129.03475, 42.10569], [129.03239, 42.11198], [129.04208, 42.1169], [129.02591, 42.11867], [129.03632, 42.12205], [129.04124, 42.13461], [129.07109, 42.13794], [129.06324, 42.15055], [129.0684, 42.15695], [129.07951, 42.1521], [129.08671, 42.13867], [129.11427, 42.13884], [129.12861, 42.14986], [129.12664, 42.16008], [129.16581, 42.16372], [129.15738, 42.17954], [129.16001, 42.18568], [129.18922, 42.18919], [129.19007, 42.20389], [129.22164, 42.20488], [129.21987, 42.21661], [129.20512, 42.21341], [129.19652, 42.22448], [129.20684, 42.23492], [129.20133, 42.24293], [129.18889, 42.24219], [129.18153, 42.23408], [129.17586, 42.23704], [129.17628, 42.25931], [129.18219, 42.26441], [129.21878, 42.26654], [129.22461, 42.28273], [129.21126, 42.28183], [129.2014, 42.28954], [129.23716, 42.30794], [129.22649, 42.31057], [129.21223, 42.30299], [129.19297, 42.31485], [129.2062, 42.32126], [129.22458, 42.31335], [129.25678, 42.32498], [129.22378, 42.35505], [129.23663, 42.36324], [129.23231, 42.37079], [129.24358, 42.37978], [129.25882, 42.37217], [129.27076, 42.38812], [129.29002, 42.37899], [129.29377, 42.38978], [129.32001, 42.38479], [129.30112, 42.40245], [129.31214, 42.40554], [129.30452, 42.41303], [129.30876, 42.42357], [129.32029, 42.41838], [129.33101, 42.43157], [129.33112, 42.41699], [129.35081, 42.40678], [129.33936, 42.41128], [129.34031, 42.4169], [129.35615, 42.42158], [129.33547, 42.44009], [129.34705, 42.45267], [129.36497, 42.45496], [129.36799, 42.44465], [129.35376, 42.43145], [129.38107, 42.4231], [129.38966, 42.43035], [129.38691, 42.44362], [129.39652, 42.45154], [129.42423, 42.4325], [129.43377, 42.43431], [129.43783, 42.4428], [129.44984, 42.43979], [129.45825, 42.42285], [129.49546, 42.41186], [129.49851, 42.3989], [129.52284, 42.39026], [129.53415, 42.36496], [129.54556, 42.36882], [129.54719, 42.36049], [129.55362, 42.36431], [129.54906, 42.37501], [129.57075, 42.38096], [129.57039, 42.38664], [129.55823, 42.38852], [129.5755, 42.41265], [129.58953, 42.40861], [129.59597, 42.41295], [129.59592, 42.42519], [129.60857, 42.44274], [129.59248, 42.44102], [129.58431, 42.44701], [129.60916, 42.46171], [129.62171, 42.45838], [129.64671, 42.4246], [129.66891, 42.43433], [129.70539, 42.42676], [129.71111, 42.43666], [129.72548, 42.44152], [129.72563, 42.4561], [129.74439, 42.46863], [129.7402, 42.49135], [129.73179, 42.49782], [129.74017, 42.50907], [129.73656, 42.52013], [129.74512, 42.52873], [129.74659, 42.54162], [129.7352, 42.55854], [129.73647, 42.57573], [129.75196, 42.58379], [129.75797, 42.60124], [129.77897, 42.60468], [129.77953, 42.61364], [129.75434, 42.61565], [129.75223, 42.62328], [129.7665, 42.63273], [129.74728, 42.64727], [129.76456, 42.65527], [129.77113, 42.64366], [129.7843, 42.64249], [129.78459, 42.648], [129.7742, 42.65296], [129.77425, 42.67213], [129.78409, 42.67958], [129.79308, 42.67247], [129.80385, 42.67875], [129.77928, 42.68746], [129.76281, 42.70284], [129.76028, 42.72581], [129.77421, 42.7343], [129.78215, 42.76859], [129.80868, 42.79054], [129.80851, 42.80616], [129.80143, 42.81482], [129.81384, 42.83829], [129.81271, 42.84984], [129.83751, 42.86656], [129.84381, 42.92028], [129.86918, 42.91894], [129.84979, 42.94662], [129.85143, 42.96156], [129.86847, 42.97324], [129.90918, 42.96767], [129.91503, 42.97903], [129.8821, 42.97932], [129.87735, 42.98712], [129.88051, 42.99508], [129.91202, 43.00772], [129.95562, 43.00758], [129.9503, 42.9885], [129.95407, 42.97874], [129.98393, 42.97001], [130.02978, 42.96652], [130.04148, 42.97172], [130.05788, 42.9666], [130.09845, 42.98662], [130.12179, 42.98661], [130.12911, 42.97757], [130.14336, 42.97904], [130.14605, 42.97157], [130.11503, 42.9541], [130.1193, 42.94173], [130.13356, 42.93721], [130.12899, 42.93054], [130.10154, 42.92602], [130.10713, 42.91234], [130.13781, 42.90189], [130.17236, 42.91386], [130.20947, 42.90395], [130.26196, 42.90342], [130.2697, 42.88489], [130.26679, 42.87349], [130.24755, 42.85631], [130.25437, 42.83811], [130.23682, 42.8208], [130.23677, 42.80295], [130.22699, 42.78689], [130.24298, 42.77024], [130.23425, 42.73861], [130.25284, 42.70776], [130.29171, 42.69613], [130.31562, 42.65239], [130.35742, 42.63461], [130.37765, 42.61321], [130.37901, 42.59865], [130.39284, 42.59856], [130.41411, 42.61459], [130.42958, 42.6096], [130.43384, 42.59412], [130.41306, 42.57119], [130.43932, 42.54841], [130.46446, 42.54671], [130.48019, 42.56588], [130.45806, 42.59729], [130.46301, 42.60427], [130.49087, 42.62104], [130.51698, 42.61388], [130.5224, 42.60072], [130.50888, 42.5831], [130.52473, 42.56563], [130.52641, 42.5424], [130.55004, 42.52314], [130.55189, 42.49204], [130.58366, 42.47794], [130.56259, 42.46521], [130.5676, 42.43723], [130.5787, 42.43017], [130.61609, 42.42986], [130.64658, 42.41103], [130.67227, 42.37301], [130.64889, 42.35282], [130.64631, 42.33916], [130.65454, 42.3248], [130.69668, 42.29331]]}}, {"type": "Feature", "properties": {"name": "예성강", "kind": "line"}, "geometry": {"type": "LineString", "coordinates": [[126.48943, 38.79904], [126.49248, 38.80817], [126.48404, 38.78753], [126.49315, 38.7742], [126.50675, 38.7635], [126.53789, 38.75884], [126.55257, 38.76155], [126.55639, 38.7587], [126.55767, 38.74508], [126.56778, 38.74009], [126.57476, 38.74104], [126.57071, 38.71826], [126.56217, 38.7101], [126.56322, 38.70339], [126.55558, 38.70346], [126.55829, 38.70533], [126.55356, 38.70685], [126.54975, 38.71898], [126.54684, 38.71477], [126.53201, 38.71436], [126.53151, 38.71135], [126.52786, 38.71715], [126.51601, 38.71812], [126.5095, 38.71252], [126.51494, 38.70511], [126.50327, 38.70345], [126.50329, 38.69876], [126.48514, 38.69826], [126.4772, 38.69035], [126.4713, 38.69117], [126.45446, 38.68218], [126.46787, 38.66768], [126.45982, 38.65615], [126.4781, 38.64693], [126.47884, 38.6432], [126.47552, 38.63853], [126.45269, 38.63463], [126.45094, 38.62309], [126.46245, 38.60779], [126.47948, 38.59943], [126.4771, 38.59182], [126.49455, 38.58383], [126.47559, 38.57951], [126.47736, 38.5697], [126.4845, 38.56832], [126.48886, 38.57263], [126.4989, 38.56224], [126.52202, 38.55701], [126.51828, 38.55261], [126.51395, 38.55472], [126.50566, 38.54567], [126.50645, 38.53921], [126.49366, 38.52943], [126.49461, 38.52399], [126.47341, 38.51273], [126.4712, 38.507], [126.48405, 38.50374], [126.49202, 38.49605], [126.48174, 38.49055], [126.4839, 38.48514], [126.5039, 38.48536], [126.50441, 38.47262], [126.51847, 38.46881], [126.50633, 38.45771], [126.51323, 38.4506], [126.51311, 38.43771], [126.50942, 38.43464], [126.51264, 38.42564], [126.49615, 38.42468], [126.49259, 38.40982], [126.47772, 38.40294], [126.46846, 38.39147], [126.48657, 38.3731], [126.47709, 38.37081], [126.47188, 38.36369], [126.48671, 38.35354], [126.47817, 38.33957], [126.49066, 38.32889], [126.47359, 38.32276], [126.46114, 38.32522], [126.45986, 38.31755], [126.46932, 38.29895], [126.47028, 38.28482], [126.44746, 38.27561], [126.45411, 38.26446], [126.47501, 38.26096], [126.47924, 38.24917], [126.47187, 38.22751], [126.4487, 38.21538], [126.45307, 38.20135], [126.47161, 38.18637], [126.47075, 38.17862], [126.46303, 38.16809], [126.45498, 38.16466], [126.43386, 38.17269], [126.42544, 38.16917], [126.4281, 38.15662], [126.43935, 38.14109], [126.43968, 38.12895], [126.435, 38.12065], [126.42424, 38.12394], [126.41763, 38.14912], [126.41093, 38.15378], [126.39877, 38.14149], [126.38551, 38.13648], [126.37026, 38.10834], [126.37332, 38.09708], [126.38932, 38.09604], [126.3923, 38.0845], [126.38683, 38.06464], [126.376, 38.05478], [126.39766, 38.04637], [126.40161, 38.03996], [126.40195, 38.0341], [126.39132, 38.0288], [126.3851, 38.02052], [126.38577, 38.0114], [126.40265, 37.99727], [126.40457, 37.99126], [126.38697, 37.97439], [126.39245, 37.96019], [126.38305, 37.93711], [126.3848, 37.92675], [126.40801, 37.91931], [126.41264, 37.91389], [126.39934, 37.8915]]}}, {"type": "Feature", "properties": {"name": "소양강", "kind": "line"}, "geometry": {"type": "LineString", "coordinates": [[128.19788, 38.0427], [128.19704, 38.04513], [128.19923, 38.05916], [128.19839, 38.06336], [128.19654, 38.06555], [128.18679, 38.06689], [128.18654, 38.06883], [128.19159, 38.06977], [128.19273, 38.07187], [128.19157, 38.07465], [128.18808, 38.07612], [128.18427, 38.07381], [128.17996, 38.06728], [128.17264, 38.06084], [128.17174, 38.05869], [128.16575, 38.05262], [128.16606, 38.05073], [128.17312, 38.0486], [128.17347, 38.04589], [128.17173, 38.04243], [128.1765, 38.04078], [128.17639, 38.0397], [128.17204, 38.03598], [128.16784, 38.03504], [128.16272, 38.0354], [128.1545, 38.03933], [128.1496, 38.04429], [128.1436, 38.0461], [128.13185, 38.04305], [128.12741, 38.03981], [128.12449, 38.0333], [128.1255, 38.01669], [128.12335, 38.01317], [128.11788, 38.00935], [128.11337, 38.00663], [128.10756, 38.00468], [128.09871, 38.00565], [128.09529, 38.00762], [128.09289, 38.01049], [128.09252, 38.01257], [128.09415, 38.01624], [128.09198, 38.01777], [128.08942, 38.01721], [128.08554, 38.01391], [128.08245, 38.01261], [128.07224, 38.01318], [128.06638, 38.00798], [128.05633, 37.99395], [128.05173, 37.99011], [128.04841, 37.98903], [128.04484, 37.99033], [128.04208, 37.99548], [128.04262, 37.99947], [128.04763, 38.01113], [128.04723, 38.01508], [128.04501, 38.01723], [128.04037, 38.01793], [128.0311, 38.01525], [128.02435, 38.01989], [128.01529, 38.01967], [128.00795, 38.01609], [127.9992, 38.00427], [127.99417, 38.00269], [127.98862, 38.00575], [127.98422, 38.01099], [127.98419, 38.01283], [127.98739, 38.02023], [127.9872, 38.02453], [127.98574, 38.02637], [127.97842, 38.02954], [127.96996, 38.03145], [127.95907, 38.03776], [127.95418, 38.03776], [127.94991, 38.03414], [127.94727, 38.02652], [127.9439, 38.02081], [127.93443, 38.01234], [127.9286, 38.0005], [127.92888, 37.99859], [127.93259, 37.99643], [127.93373, 37.99462], [127.93216, 37.99007], [127.93454, 37.98657], [127.93531, 37.98283], [127.93315, 37.97556], [127.93132, 37.97309], [127.92572, 37.96959], [127.91241, 37.969], [127.90958, 37.9676], [127.90743, 37.95266], [127.90168, 37.94538], [127.89368, 37.94392], [127.89205, 37.9424], [127.8943, 37.93338], [127.89396, 37.93052], [127.89256, 37.92854], [127.88741, 37.92773], [127.88398, 37.93162], [127.87885, 37.93479], [127.86128, 37.94096], [127.85616, 37.94087], [127.84194, 37.93612], [127.8369, 37.93593], [127.83253, 37.93767], [127.82313, 37.9448], [127.81818, 37.94524], [127.81663, 37.94387], [127.80816, 37.9421], [127.79693, 37.93233], [127.78666, 37.92751], [127.76928, 37.92676], [127.74573, 37.92071], [127.74391, 37.9181], [127.74785, 37.90127], [127.74625, 37.89741], [127.74295, 37.89473], [127.73894, 37.89406], [127.7306, 37.8959], [127.72032, 37.89672]]}}]}