{"type": "FeatureCollection", "features": [{"type": "Feature", "properties": {"icao": "RKJB", "rwy": "01/19", "len_m": 2800, "wid_m": 45, "brg": 359.67, "src": "eaip"}, "geometry": {"type": "LineString", "coordinates": [[126.382903, 34.978789], [126.382728, 35.004025]]}}, {"type": "Feature", "properties": {"icao": "RKJJ", "rwy": "04R/22L", "len_m": 2835, "wid_m": 45, "brg": 29.92, "src": "eaip"}, "geometry": {"type": "LineString", "coordinates": [[126.802058, 35.114744], [126.817572, 35.136892]]}}, {"type": "Feature", "properties": {"icao": "RKJJ", "rwy": "04L/22R", "len_m": 2835, "wid_m": 45, "brg": 29.92, "src": "eaip"}, "geometry": {"type": "LineString", "coordinates": [[126.800219, 35.115614], [126.815733, 35.137761]]}}, {"type": "Feature", "properties": {"icao": "RKJK", "rwy": "18/36", "len_m": 2746, "wid_m": 46, "brg": 169.04, "src": "eaip"}, "geometry": {"type": "LineString", "coordinates": [[126.613006, 35.915914], [126.618786, 35.891619]]}}, {"type": "Feature", "properties": {"icao": "RKJY", "rwy": "17/35", "len_m": 2100, "wid_m": 45, "brg": 158.03, "src": "eaip"}, "geometry": {"type": "LineString", "coordinates": [[127.612992, 34.851036], [127.621583, 34.833481]]}}, {"type": "Feature", "properties": {"icao": "RKNW", "rwy": "03/21", "len_m": 2743, "wid_m": 45, "brg": 26.32, "src": "eaip"}, "geometry": {"type": "LineString", "coordinates": [[127.953542, 37.426939], [127.967286, 37.449094]]}}, {"type": "Feature", "properties": {"icao": "RKNY", "rwy": "15/33", "len_m": 2500, "wid_m": 45, "brg": 141.16, "src": "eaip"}, "geometry": {"type": "LineString", "coordinates": [[128.660183, 38.07005], [128.678125, 38.052558]]}}, {"type": "Feature", "properties": {"icao": "RKPC", "rwy": "07/25", "len_m": 3180, "wid_m": 45, "brg": 58.46, "src": "eaip"}, "geometry": {"type": "LineString", "coordinates": [[126.468472, 33.499881], [126.497642, 33.514878]]}}, {"type": "Feature", "properties": {"icao": "RKPC", "rwy": "13/31", "len_m": 1900, "wid_m": 45, "brg": 125.62, "src": "eaip"}, "geometry": {"type": "LineString", "coordinates": [[126.487394, 33.515461], [126.504014, 33.505483]]}}, {"type": "Feature", "properties": {"icao": "RKPD", "rwy": "01/19", "len_m": 2300, "wid_m": 45, "brg": 359.73, "src": "eaip"}, "geometry": {"type": "LineString", "coordinates": [[126.711586, 33.382878], [126.711469, 33.403614]]}}, {"type": "Feature", "properties": {"icao": "RKPD", "rwy": "15/33", "len_m": 900, "wid_m": 25, "brg": 142.26, "src": "eaip"}, "geometry": {"type": "LineString", "coordinates": [[126.715431, 33.395192], [126.709511, 33.401608]]}}, {"type": "Feature", "properties": {"icao": "RKPK", "rwy": "18R/36L", "len_m": 3200, "wid_m": 60, "brg": 173.95, "src": "eaip"}, "geometry": {"type": "LineString", "coordinates": [[128.935128, 35.193872], [128.938831, 35.165192]]}}, {"type": "Feature", "properties": {"icao": "RKPK", "rwy": "18L/36R", "len_m": 2743, "wid_m": 46, "brg": 173.95, "src": "eaip"}, "geometry": {"type": "LineString", "coordinates": [[128.937425, 35.194056], [128.940594, 35.169472]]}}, {"type": "Feature", "properties": {"icao": "RKPS", "rwy": "06R/24L", "len_m": 2743, "wid_m": 46, "brg": 55.59, "src": "eaip"}, "geometry": {"type": "LineString", "coordinates": [[128.059686, 35.081286], [128.084506, 35.095258]]}}, {"type": "Feature", "properties": {"icao": "RKPS", "rwy": "06L/24R", "len_m": 2743, "wid_m": 46, "brg": 55.58, "src": "eaip"}, "geometry": {"type": "LineString", "coordinates": [[128.056892, 35.082208], [128.081711, 35.096183]]}}, {"type": "Feature", "properties": {"icao": "RKPU", "rwy": "18/36", "len_m": 2000, "wid_m": 45, "brg": 176.1, "src": "eaip"}, "geometry": {"type": "LineString", "coordinates": [[129.350983, 35.602469], [129.352486, 35.584486]]}}, {"type": "Feature", "properties": {"icao": "RKSI", "rwy": "15L/33R", "len_m": 3750, "wid_m": 60, "brg": 144.66, "src": "eaip"}, "geometry": {"type": "LineString", "coordinates": [[126.440156, 37.483944], [126.464672, 37.456381]]}}, {"type": "Feature", "properties": {"icao": "RKSI", "rwy": "15R/33L", "len_m": 3750, "wid_m": 60, "brg": 144.66, "src": "eaip"}, "geometry": {"type": "LineString", "coordinates": [[126.436339, 37.481789], [126.460856, 37.454225]]}}, {"type": "Feature", "properties": {"icao": "RKSI", "rwy": "16L/34R", "len_m": 4000, "wid_m": 60, "brg": 144.66, "src": "eaip"}, "geometry": {"type": "LineString", "coordinates": [[126.415572, 37.472808], [126.441728, 37.443414]]}}, {"type": "Feature", "properties": {"icao": "RKSI", "rwy": "16R/34L", "len_m": 3750, "wid_m": 60, "brg": 144.66, "src": "eaip"}, "geometry": {"type": "LineString", "coordinates": [[126.413383, 37.468808], [126.437903, 37.44125]]}}, {"type": "Feature", "properties": {"icao": "RKSM", "rwy": "01/19", "len_m": 2743, "wid_m": 46, "brg": 1.79, "src": "eaip"}, "geometry": {"type": "LineString", "coordinates": [[127.114972, 37.434056], [127.115944, 37.458778]]}}, {"type": "Feature", "properties": {"icao": "RKSM", "rwy": "02/20", "len_m": 2957, "wid_m": 46, "brg": 8.1, "src": "eaip"}, "geometry": {"type": "LineString", "coordinates": [[127.110583, 37.432389], [127.115278, 37.458778]]}}, {"type": "Feature", "properties": {"icao": "RKSS", "rwy": "14R/32L", "len_m": 3200, "wid_m": 60, "brg": 135.0, "src": "eaip"}, "geometry": {"type": "LineString", "coordinates": [[126.775444, 37.568386], [126.801031, 37.548008]]}}, {"type": "Feature", "properties": {"icao": "RKSS", "rwy": "14L/32R", "len_m": 3600, "wid_m": 45, "brg": 135.01, "src": "eaip"}, "geometry": {"type": "LineString", "coordinates": [[126.778278, 37.570708], [126.807106, 37.547747]]}}, {"type": "Feature", "properties": {"icao": "RKTL", "rwy": "17/35", "len_m": 1800, "wid_m": 45, "brg": 162.71, "src": "eaip"}, "geometry": {"type": "LineString", "coordinates": [[129.458783, 36.784747], [129.464778, 36.769258]]}}, {"type": "Feature", "properties": {"icao": "RKTN", "rwy": "13R/31L", "len_m": 2755, "wid_m": 45, "brg": 124.23, "src": "eaip"}, "geometry": {"type": "LineString", "coordinates": [[128.64585, 35.900606], [128.671083, 35.886639]]}}, {"type": "Feature", "properties": {"icao": "RKTN", "rwy": "13L/31R", "len_m": 2743, "wid_m": 45, "brg": 124.23, "src": "eaip"}, "geometry": {"type": "LineString", "coordinates": [[128.646764, 35.901492], [128.671894, 35.887583]]}}, {"type": "Feature", "properties": {"icao": "RKTU", "rwy": "06L/24R", "len_m": 2744, "wid_m": 60, "brg": 52.42, "src": "eaip"}, "geometry": {"type": "LineString", "coordinates": [[127.486794, 36.710028], [127.511125, 36.725106]]}}, {"type": "Feature", "properties": {"icao": "RKTU", "rwy": "06R/24L", "len_m": 2744, "wid_m": 45, "brg": 52.43, "src": "eaip"}, "geometry": {"type": "LineString", "coordinates": [[127.487456, 36.70785], [127.511794, 36.722925]]}}, {"type": "Feature", "properties": {"icao": "RKTI", "rwy": "21/03", "len_m": 2743, "wid_m": 45, "brg": 210, "src": "ato-approx"}, "geometry": {"type": "LineString", "coordinates": [[127.891717, 37.04267], [127.876283, 37.02133]]}}, {"type": "Feature", "properties": {"icao": "RKTP", "rwy": "20/02", "len_m": 2743, "wid_m": 45, "brg": 200, "src": "ato-approx"}, "geometry": {"type": "LineString", "coordinates": [[126.491256, 36.715577], [126.480744, 36.692423]]}}, {"type": "Feature", "properties": {"icao": "RKSW", "rwy": "15/33", "len_m": 2743, "wid_m": 45, "brg": 150, "src": "ato-approx"}, "geometry": {"type": "LineString", "coordinates": [[126.999262, 37.24967], [127.014738, 37.22833]]}}, {"type": "Feature", "properties": {"icao": "RKNN", "rwy": "26/08", "len_m": 2743, "wid_m": 45, "brg": 260, "src": "ato-approx"}, "geometry": {"type": "LineString", "coordinates": [[128.959346, 37.756139], [128.928654, 37.751861]]}}, {"type": "Feature", "properties": {"icao": "RKSO", "rwy": "27/09", "len_m": 2743, "wid_m": 45, "brg": 270, "src": "ato-approx"}, "geometry": {"type": "LineString", "coordinates": [[127.045445, 37.091], [127.014555, 37.091]]}}]}