{"type": "FeatureCollection", "features": [{"type": "Feature", "properties": {"sector": "T01", "volumes": [{"tma": "Seoul", "vert": "FL 185 / 1 000 ft AGL", "cls": "B,D,E"}], "vert": "FL 185 / 1 000 ft AGL", "cls": "B,D,E", "tma": "Seoul"}, "geometry": {"type": "Polygon", "coordinates": [[[125.54806, 37.35278], [126.16472, 37.65278], [126.68111, 37.71944], [126.88111, 37.63611], [127.66444, 37.96944], [127.66444, 37.27194], [127.39778, 37.25278], [127.31444, 37.30278], [127.14778, 37.30278], [126.96444, 37.35278], [126.80611, 37.34028], [126.61028, 37.14861], [126.52861, 37.14194], [126.36611, 37.09389], [125.8025, 37.08806], [125.79806, 37.26944], [125.54806, 37.35278]]]}}, {"type": "Feature", "properties": {"sector": "T02", "volumes": [{"tma": "Seoul", "vert": "FL 185 / FL 175", "cls": "D"}, {"tma": "Wonju", "vert": "FL 175 / 1 000 ft AGL", "cls": "C,E"}], "vert": "FL 185 / 1 000 ft AGL", "cls": "C,D,E", "tma": "Seoul·Wonju"}, "geometry": {"type": "Polygon", "coordinates": [[[127.66444, 37.96944], [127.91444, 38.00278], [127.91444, 37.16944], [127.76444, 37.16944], [127.66444, 37.11111], [127.66444, 37.96944]]]}}, {"type": "Feature", "properties": {"sector": "T03", "volumes": [{"tma": "Seoul", "vert": "FL 185 / 4 500 ft AMSL", "cls": "B,D,E"}, {"tma": "Osan", "vert": "4 500 ft AMSL / 1 000 ft AGL", "cls": "D,E"}], "vert": "FL 185 / 1 000 ft AGL", "cls": "B,D,E", "tma": "Seoul·Osan"}, "geometry": {"type": "Polygon", "coordinates": [[[126.80611, 37.34028], [126.96444, 37.35278], [127.14778, 37.30278], [127.31444, 37.30278], [127.39778, 37.25278], [127.11444, 37.25278], [126.72611, 37.16083], [126.61028, 37.14861], [126.80611, 37.34028]]]}}, {"type": "Feature", "properties": {"sector": "T04", "volumes": [{"tma": "Seoul", "vert": "FL 185 / 6 500 ft AMSL", "cls": "D,E"}], "vert": "FL 185 / 6 500 ft AMSL", "cls": "D,E", "tma": "Seoul"}, "geometry": {"type": "Polygon", "coordinates": [[[125.8025, 37.08806], [126.36611, 37.09389], [126.52861, 37.14194], [126.72611, 37.16083], [126.99361, 37.22583], [127.02972, 37.09194], [126.48111, 36.96944], [126.28111, 37.01389], [125.80639, 36.94778], [125.8025, 37.08806]]]}}, {"type": "Feature", "properties": {"sector": "T05", "volumes": [{"tma": "Seoul", "vert": "FL 185 / 7 500 ft AMSL", "cls": "D,E"}, {"tma": "Osan", "vert": "7 500 ft AMSL / 1 000 ft AGL", "cls": "D,E"}], "vert": "FL 185 / 1 000 ft AGL", "cls": "D,E", "tma": "Seoul·Osan"}, "geometry": {"type": "Polygon", "coordinates": [[[126.99361, 37.22583], [127.11444, 37.25278], [127.39778, 37.25278], [127.66444, 37.27194], [127.66444, 37.1775], [127.02972, 37.09194], [126.99361, 37.22583]]]}}, {"type": "Feature", "properties": {"sector": "T06", "volumes": [{"tma": "Seoul", "vert": "FL 185 / 9 500 ft AMSL", "cls": "D,E"}, {"tma": "Osan", "vert": "9 500 ft AMSL / 1 000 ft AGL", "cls": "D,E"}], "vert": "FL 185 / 1 000 ft AGL", "cls": "D,E", "tma": "Seoul·Osan"}, "geometry": {"type": "Polygon", "coordinates": [[[126.48111, 36.96944], [127.02972, 37.09194], [127.66444, 37.1775], [127.66444, 37.04167], [126.58444, 36.87944], [126.48111, 36.96944]]]}}, {"type": "Feature", "properties": {"sector": "T07", "volumes": [{"tma": "Seoul", "vert": "FL 185 / 11 500 ft AMSL", "cls": "D"}], "vert": "FL 185 / 11 500 ft AMSL", "cls": "D", "tma": "Seoul"}, "geometry": {"type": "Polygon", "coordinates": [[[126.58444, 36.87944], [127.66444, 37.04167], [127.66444, 37.03611], [126.77028, 36.72083], [126.58444, 36.87944]]]}}, {"type": "Feature", "properties": {"sector": "T08", "volumes": [{"tma": "Seoul", "vert": "FL 185 / 11 500 ft AMSL", "cls": "D"}], "vert": "FL 185 / 11 500 ft AMSL", "cls": "D", "tma": "Seoul"}, "geometry": {"type": "Polygon", "coordinates": [[[126.43139, 36.98056], [126.48111, 36.96944], [126.58444, 36.87944], [126.46583, 36.86111], [126.43139, 36.98056]]]}}, {"type": "Feature", "properties": {"sector": "T09", "volumes": [{"tma": "Seoul", "vert": "FL 185 / FL 145", "cls": "D"}], "vert": "FL 185 / FL 145", "cls": "D", "tma": "Seoul"}, "geometry": {"type": "Polygon", "coordinates": [[[126.04361, 36.98083], [126.28111, 37.01389], [126.43139, 36.98056], [126.46583, 36.86111], [126.58444, 36.87944], [126.77028, 36.72083], [126.04361, 36.98083]]]}}, {"type": "Feature", "properties": {"sector": "T11", "volumes": [{"tma": "Osan", "vert": "6 500 ft AMSL / 1 000 ft AGL", "cls": "D,E"}], "vert": "6 500 ft AMSL / 1 000 ft AGL", "cls": "D,E", "tma": "Osan"}, "geometry": {"type": "Polygon", "coordinates": [[[125.8025, 37.08806], [126.36611, 37.09389], [126.52861, 37.14194], [126.72611, 37.16083], [126.99361, 37.22583], [127.02972, 37.09194], [126.595, 36.99528], [126.55694, 37.04306], [126.28111, 37.01389], [125.80639, 36.94778], [125.8025, 37.08806]]]}}, {"type": "Feature", "properties": {"sector": "T12", "volumes": [{"tma": "Osan", "vert": "6 500 ft AMSL / 4 500 ft AMSL", "cls": "D,E"}], "vert": "6 500 ft AMSL / 4 500 ft AMSL", "cls": "D,E", "tma": "Osan"}, "geometry": {"type": "Polygon", "coordinates": [[[126.28111, 37.01389], [126.55694, 37.04306], [126.595, 36.99528], [126.48111, 36.96944], [126.28111, 37.01389]]]}}, {"type": "Feature", "properties": {"sector": "T13", "volumes": [{"tma": "Osan", "vert": "9 500 ft AMSL / 4 500 ft AMSL", "cls": "D,E"}], "vert": "9 500 ft AMSL / 4 500 ft AMSL", "cls": "D,E", "tma": "Osan"}, "geometry": {"type": "Polygon", "coordinates": [[[126.48111, 36.96944], [126.595, 36.99528], [126.67556, 36.89361], [126.58444, 36.87944], [126.48111, 36.96944]]]}}, {"type": "Feature", "properties": {"sector": "T14", "volumes": [{"tma": "Osan", "vert": "11 500 ft AMSL / 4 500 ft AMSL", "cls": "E"}, {"tma": "Haemi", "vert": "4 500 ft AMSL / 1 000 ft AGL", "cls": "E"}], "vert": "11 500 ft AMSL / 1 000 ft AGL", "cls": "E", "tma": "Osan·Haemi"}, "geometry": {"type": "Polygon", "coordinates": [[[126.58444, 36.87944], [126.67556, 36.89361], [126.74306, 36.74083], [126.58444, 36.87944]]]}}, {"type": "Feature", "properties": {"sector": "T15", "volumes": [{"tma": "Osan", "vert": "11 500 ft AMSL / 1 000 ft AGL", "cls": "D,E"}], "vert": "11 500 ft AMSL / 1 000 ft AGL", "cls": "D,E", "tma": "Osan"}, "geometry": {"type": "Polygon", "coordinates": [[[126.67556, 36.89361], [127.66444, 37.04167], [127.66444, 37.03611], [126.77028, 36.72083], [126.74306, 36.74083], [126.67556, 36.89361]]]}}, {"type": "Feature", "properties": {"sector": "T16", "volumes": [{"tma": "Osan", "vert": "FL 145 / 1 000 ft AGL", "cls": "D,E"}], "vert": "FL 145 / 1 000 ft AGL", "cls": "D,E", "tma": "Osan"}, "geometry": {"type": "Polygon", "coordinates": [[[126.77028, 36.72083], [127.66444, 37.03611], [127.08111, 36.66944], [127.06444, 36.38639], [126.87972, 36.38611], [126.92111, 36.58278], [126.88639, 36.63444], [126.77028, 36.72083]]]}}, {"type": "Feature", "properties": {"sector": "T17", "volumes": [{"tma": "Osan", "vert": "FL 145 / 6 500 ft AMSL", "cls": "D,E"}, {"tma": "Jungwon", "vert": "6 500 ft AMSL / 1 000 ft AGL", "cls": "D,E"}], "vert": "FL 145 / 1 000 ft AGL", "cls": "D,E", "tma": "Osan·Jungwon"}, "geometry": {"type": "Polygon", "coordinates": [[[127.66444, 37.03611], [127.66444, 36.83611], [127.06444, 36.38639], [127.08111, 36.66944], [127.66444, 37.03611]]]}}, {"type": "Feature", "properties": {"sector": "T18", "volumes": [{"tma": "Jungwon", "vert": "FL 175 / 1 000 ft AGL", "cls": "C,E"}], "vert": "FL 175 / 1 000 ft AGL", "cls": "C,E", "tma": "Jungwon"}, "geometry": {"type": "Polygon", "coordinates": [[[127.66444, 37.11111], [127.84778, 37.11944], [127.91444, 37.16944], [128.06444, 37.23611], [128.33111, 37.51944], [128.60611, 37.55278], [128.68111, 37.11944], [128.68111, 36.95278], [128.16444, 36.83611], [127.66444, 37.11111]]]}}, {"type": "Feature", "properties": {"sector": "T19", "volumes": [{"tma": "Jungwon", "vert": "FL 145 / 1 000 ft AGL", "cls": "D,E"}], "vert": "FL 145 / 1 000 ft AGL", "cls": "D,E", "tma": "Jungwon"}, "geometry": {"type": "Polygon", "coordinates": [[[127.66444, 37.11111], [128.16444, 36.83611], [127.96444, 36.74944], [127.84778, 36.48639], [128.16444, 36.48639], [128.16444, 36.38639], [127.83111, 36.11972], [127.61444, 36.20306], [127.06444, 36.38639], [127.66444, 36.83611], [127.66444, 37.11111]]]}}, {"type": "Feature", "properties": {"sector": "T20", "volumes": [{"tma": "Jungwon", "vert": "FL 145 / 5 500 ft AMSL", "cls": "D,E"}, {"tma": "Yecheon", "vert": "5 500 ft AMSL / 1 000 ft AGL", "cls": "C,E"}], "vert": "FL 145 / 1 000 ft AGL", "cls": "C,D,E", "tma": "Jungwon·Yecheon"}, "geometry": {"type": "Polygon", "coordinates": [[[127.96444, 36.74944], [128.16444, 36.83611], [128.16444, 36.48639], [127.84778, 36.48639], [127.96444, 36.74944]]]}}, {"type": "Feature", "properties": {"sector": "T21", "volumes": [{"tma": "Jungwon", "vert": "3 500 ft AMSL / 1 000 ft AGL", "cls": "C,E"}], "vert": "3 500 ft AMSL / 1 000 ft AGL", "cls": "C,E", "tma": "Jungwon"}, "geometry": {"type": "Polygon", "coordinates": [[[127.66444, 37.11111], [127.76444, 37.16944], [127.91444, 37.16944], [127.84778, 37.11944], [127.66444, 37.11111]]]}}, {"type": "Feature", "properties": {"sector": "T22", "volumes": [{"tma": "Jungwon", "vert": "FL 175 / 9 500 ft AMSL", "cls": "E"}, {"tma": "Yecheon", "vert": "9 500 ft AMSL / 1 000 ft AGL", "cls": "C,E"}], "vert": "FL 175 / 1 000 ft AGL", "cls": "C,E", "tma": "Jungwon·Yecheon"}, "geometry": {"type": "Polygon", "coordinates": [[[128.16444, 36.83611], [128.68111, 36.95278], [128.46444, 36.80278], [128.29778, 36.76111], [128.16444, 36.83611]]]}}, {"type": "Feature", "properties": {"sector": "T23", "volumes": [{"tma": "Jeju", "vert": "FL 165 / 1 000 ft AGL", "cls": "B,D,E"}], "vert": "FL 165 / 1 000 ft AGL", "cls": "B,D,E", "tma": "Jeju"}, "geometry": {"type": "Polygon", "coordinates": [[[125.99806, 33.00333], [125.99806, 34.25306], [127.33139, 34.25333], [127.33139, 33.27], [126.99806, 33.00333], [125.99806, 33.00333]]]}}, {"type": "Feature", "properties": {"sector": "T43", "volumes": [{"tma": "Jeju", "vert": "FL 165 / 6 000 ft AMSL", "cls": "E"}], "vert": "FL 165 / 6 000 ft AMSL", "cls": "E", "tma": "Jeju"}, "geometry": {"type": "Polygon", "coordinates": [[[125.83139, 33.00333], [125.83139, 34.25306], [125.99806, 34.25306], [125.99806, 33.00333], [125.83139, 33.00333]]]}}, {"type": "Feature", "properties": {"sector": "T24", "volumes": [{"tma": "Gangneung", "vert": "FL 225 / 1 000 ft AGL", "cls": "C,D,E"}], "vert": "FL 225 / 1 000 ft AGL", "cls": "C,D,E", "tma": "Gangneung"}, "geometry": {"type": "Polygon", "coordinates": [[[128.53111, 38.13611], [128.59778, 38.20278], [129.8475, 38.20278], [129.8475, 37.11944], [128.68111, 37.11944], [128.51444, 38.06944], [128.53111, 38.13611]]]}}, {"type": "Feature", "properties": {"sector": "T25", "volumes": [{"tma": "Gangneung", "vert": "FL 145 / 1 000 ft AGL", "cls": "D,E"}], "vert": "FL 145 / 1 000 ft AGL", "cls": "D,E", "tma": "Gangneung"}, "geometry": {"type": "Polygon", "coordinates": [[[128.55, 38.26667], [128.75, 38.3525], [129.0, 38.35278], [129.0, 38.20278], [128.59778, 38.20278], [128.55, 38.26667]]]}}, {"type": "Feature", "properties": {"sector": "T26", "volumes": [{"tma": "Gimhae", "vert": "FL 225 / 1 000 ft AGL", "cls": "C,D,E"}], "vert": "FL 225 / 1 000 ft AGL", "cls": "C,D,E", "tma": "Gimhae"}, "geometry": {"type": "Polygon", "coordinates": [[[128.49778, 35.50306], [128.56111, 35.47972], [128.77389, 35.50333], [129.03111, 35.50306], [129.08944, 35.41972], [129.83111, 35.41972], [129.79778, 35.23639], [128.86444, 34.50306], [128.49778, 34.50306], [128.49778, 35.50306]]]}}, {"type": "Feature", "properties": {"sector": "T27", "volumes": [{"tma": "Gunsan", "vert": "FL 225 / 1 000 ft AGL", "cls": "C,E"}], "vert": "FL 225 / 1 000 ft AGL", "cls": "C,E", "tma": "Gunsan"}, "geometry": {"type": "Polygon", "coordinates": [[[126.53139, 36.38639], [125.81472, 36.38611], [125.83139, 35.50306], [126.49806, 35.50306], [126.60972, 35.91306], [126.53139, 36.38639]]]}}, {"type": "Feature", "properties": {"sector": "T28", "volumes": [{"tma": "Gunsan", "vert": "FL 145 / 1 000 ft AGL", "cls": "C,D,E"}], "vert": "FL 145 / 1 000 ft AGL", "cls": "C,D,E", "tma": "Gunsan"}, "geometry": {"type": "Polygon", "coordinates": [[[126.53139, 36.38639], [127.06444, 36.38639], [127.61444, 36.20306], [127.61444, 35.75306], [127.16444, 35.75306], [126.83139, 35.50306], [126.49806, 35.50306], [126.60972, 35.91306], [126.53139, 36.38639]]]}}, {"type": "Feature", "properties": {"sector": "T29", "volumes": [{"tma": "Gwangju", "vert": "FL 225 / 1 000 ft AGL", "cls": "C,D,E"}], "vert": "FL 225 / 1 000 ft AGL", "cls": "C,D,E", "tma": "Gwangju"}, "geometry": {"type": "Polygon", "coordinates": [[[125.83139, 35.50306], [126.83139, 35.50306], [127.16444, 35.75306], [127.61444, 35.75306], [127.83111, 35.50306], [126.99806, 34.25306], [125.83139, 34.25306], [125.83139, 35.50306]]]}}, {"type": "Feature", "properties": {"sector": "T30", "volumes": [{"tma": "Gwangju", "vert": "FL 225 / 13 500 ft AMSL", "cls": "E"}, {"tma": "Sacheon", "vert": "13 500 ft AMSL / 1 000 ft AGL", "cls": "E"}], "vert": "FL 225 / 1 000 ft AGL", "cls": "E", "tma": "Gwangju·Sacheon"}, "geometry": {"type": "Polygon", "coordinates": [[[127.64778, 35.21972], [127.31444, 35.15306], [127.31472, 34.73639], [127.64778, 35.21972]]]}}, {"type": "Feature", "properties": {"sector": "T31", "volumes": [{"tma": "Sacheon", "vert": "FL 195 / 1 000 ft AGL", "cls": "C,D,E"}], "vert": "FL 195 / 1 000 ft AGL", "cls": "C,D,E", "tma": "Sacheon"}, "geometry": {"type": "Polygon", "coordinates": [[[127.83111, 35.50306], [128.49778, 35.50306], [128.49778, 34.25333], [126.99806, 34.25306], [127.83111, 35.50306]]]}}, {"type": "Feature", "properties": {"sector": "T32", "volumes": [{"tma": "Pohang", "vert": "10 500 ft AMSL / 1 000 ft AGL", "cls": "C,E"}], "vert": "10 500 ft AMSL / 1 000 ft AGL", "cls": "C,E", "tma": "Pohang"}, "geometry": {"type": "Polygon", "coordinates": [[[128.66444, 36.33639], [129.84778, 36.33639], [129.83111, 35.83639], [129.25, 36.0], [129.08333, 36.1], [128.66444, 36.33639]]]}}, {"type": "Feature", "properties": {"sector": "T33", "volumes": [{"tma": "Pohang", "vert": "10 500 ft AMSL / 1 000 ft AGL", "cls": "C,D,E"}, {"tma": "Daegu", "vert": "FL 225 / 10 500 ft AMSL", "cls": "E"}], "vert": "FL 225 / 1 000 ft AGL", "cls": "C,D,E", "tma": "Pohang·Daegu"}, "geometry": {"type": "Polygon", "coordinates": [[[129.25, 36.0], [129.83111, 35.83639], [129.83111, 35.41972], [129.16444, 35.41972], [129.225, 35.65], [129.25, 35.75], [129.25, 36.0]]]}}, {"type": "Feature", "properties": {"sector": "T34", "volumes": [{"tma": "Pohang", "vert": "7 500 ft AMSL / 1 000 ft AGL", "cls": "C,E"}, {"tma": "Daegu", "vert": "FL 225 / 7 500 ft AMSL", "cls": "E"}], "vert": "FL 225 / 1 000 ft AGL", "cls": "C,E", "tma": "Pohang·Daegu"}, "geometry": {"type": "Polygon", "coordinates": [[[129.08333, 36.1], [129.25, 36.0], [129.25, 35.75], [129.225, 35.65], [129.16667, 35.81667], [129.08111, 35.90361], [129.08333, 36.1]]]}}, {"type": "Feature", "properties": {"sector": "T42", "volumes": [{"tma": "Pohang", "vert": "9 500 ft AMSL / 1 000 ft AGL", "cls": "C,D,E"}, {"tma": "Yecheon", "vert": "FL 225 / 9 500 ft AMSL", "cls": "E"}], "vert": "FL 225 / 1 000 ft AGL", "cls": "C,D,E", "tma": "Pohang·Yecheon"}, "geometry": {"type": "Polygon", "coordinates": [[[129.26778, 37.11944], [129.8475, 37.11944], [129.84778, 36.33639], [129.43528, 36.33639], [129.43528, 36.59167], [129.26778, 36.94194], [129.26778, 37.11944]]]}}, {"type": "Feature", "properties": {"sector": "T35", "volumes": [{"tma": "Daegu", "vert": "FL 225 / 1 000 ft AGL", "cls": "C,E"}], "vert": "FL 225 / 1 000 ft AGL", "cls": "C,E", "tma": "Daegu"}, "geometry": {"type": "Polygon", "coordinates": [[[128.16444, 36.48639], [128.39778, 36.48639], [128.66444, 36.33639], [129.08333, 36.1], [129.08111, 35.90361], [129.16667, 35.81667], [129.225, 35.65], [129.16444, 35.41972], [129.08944, 35.41972], [129.03111, 35.50306], [128.77389, 35.50333], [128.56111, 35.47972], [128.49778, 35.50306], [127.83111, 35.50306], [127.61444, 35.75306], [127.61444, 36.20306], [127.83111, 36.11972], [128.16444, 36.38639], [128.16444, 36.48639]]]}}, {"type": "Feature", "properties": {"sector": "T36", "volumes": [{"tma": "Yecheon", "vert": "FL 225 / 1 000 ft AGL", "cls": "C,E"}], "vert": "FL 225 / 1 000 ft AGL", "cls": "C,E", "tma": "Yecheon"}, "geometry": {"type": "Polygon", "coordinates": [[[128.68111, 37.11944], [129.26778, 37.11944], [129.26778, 36.94194], [129.43528, 36.59167], [129.43528, 36.33639], [128.66444, 36.33639], [128.39778, 36.48639], [128.16444, 36.48639], [128.16444, 36.83611], [128.29778, 36.76111], [128.46444, 36.80278], [128.68111, 36.95278], [128.68111, 37.11944]]]}}, {"type": "Feature", "properties": {"sector": "T37", "volumes": [{"tma": "Haemi", "vert": "FL 145 / 1 000 ft AGL", "cls": "C,E"}], "vert": "FL 145 / 1 000 ft AGL", "cls": "C,E", "tma": "Haemi"}, "geometry": {"type": "Polygon", "coordinates": [[[125.80639, 36.94778], [126.28111, 37.01389], [126.43139, 36.98056], [126.46583, 36.86111], [126.58444, 36.87944], [126.74306, 36.74083], [126.88639, 36.63444], [126.92111, 36.58278], [126.87972, 36.38611], [125.81472, 36.38611], [125.80639, 36.94778]]]}}, {"type": "Feature", "properties": {"sector": "T38", "volumes": [{"tma": "Haemi", "vert": "11 500 ft AMSL / 1 000 ft AGL", "cls": "C,E"}], "vert": "11 500 ft AMSL / 1 000 ft AGL", "cls": "C,E", "tma": "Haemi"}, "geometry": {"type": "Polygon", "coordinates": [[[126.43139, 36.98056], [126.48111, 36.96944], [126.58444, 36.87944], [126.46583, 36.86111], [126.43139, 36.98056]]]}}, {"type": "Feature", "properties": {"sector": "T39", "volumes": [{"tma": "Haemi", "vert": "4 500 ft AMSL / 1 000 ft AGL", "cls": "E"}], "vert": "4 500 ft AMSL / 1 000 ft AGL", "cls": "E", "tma": "Haemi"}, "geometry": {"type": "Polygon", "coordinates": [[[126.28111, 37.01389], [126.55694, 37.04306], [126.67556, 36.89361], [126.58444, 36.87944], [126.48111, 36.96944], [126.43139, 36.98056], [126.28111, 37.01389]]]}}, {"type": "Feature", "properties": {"sector": "T40", "volumes": [{"tma": "Wonju", "vert": "FL 175 / 3 600 ft AGL", "cls": "E"}], "vert": "FL 175 / 3 600 ft AGL", "cls": "E", "tma": "Wonju"}, "geometry": {"type": "Polygon", "coordinates": [[[127.66444, 37.11111], [127.76444, 37.16944], [127.91444, 37.16944], [127.84778, 37.11944], [127.66444, 37.11111]]]}}, {"type": "Feature", "properties": {"sector": "T41", "volumes": [{"tma": "Wonju", "vert": "FL 175 / 1 000 ft AGL", "cls": "C,D,E"}], "vert": "FL 175 / 1 000 ft AGL", "cls": "C,D,E", "tma": "Wonju"}, "geometry": {"type": "Polygon", "coordinates": [[[127.91444, 38.00278], [128.51444, 38.06944], [128.60611, 37.55278], [128.33111, 37.51944], [128.06444, 37.23611], [127.91444, 37.16944], [127.91444, 38.00278]]]}}]}